latitude,longitude,altitude,geometry,IndexName,Name,AddressName,Description,Hyperlink,ShopUsername
1.36962987657915,103.872513453305,0,Point,kml_19,NEA Producer Responsibility Scheme - ALBA E-waste Recycling Programme,"FAIRPRICE @ 152B SERANGOON AVE 4 152B SERANGOON NORTH AVE 1, #01-384 552152",Bin collection; E-waste accepted: Batteries only,https://alba-ewaste.sg,dispose19
1.28648641467784,103.814263536448,0,Point,kml_23,NEA Producer Responsibility Scheme - ALBA E-waste Recycling Programme,"FAIRPRICE @ 20 LENGKOK BAHRU 20 LENGKOK BAHRU, #01-13 159053",Bin collection; E-waste accepted: Batteries only,https://alba-ewaste.sg,dispose23
1.35416510010751,103.870669084432,0,Point,kml_26,NEA Producer Responsibility Scheme - ALBA E-waste Recycling Programme,"FAIRPRICE @ 253 SERANGOON CENTRAL DR 253 SERANGOON CENTRAL DR, #01-241 550253",Bin collection; E-waste accepted: Batteries only,https://alba-ewaste.sg,dispose26
1.35716839620285,103.843832877214,0,Point,kml_27,NEA Producer Responsibility Scheme - ALBA E-waste Recycling Programme,"FAIRPRICE @ 279 BISHAN ST 24 279 BISHAN ST 24, #01-62/64 570279",Bin collection; E-waste accepted: Batteries only,https://alba-ewaste.sg,dispose27
1.3086379558023,103.784543549851,0,Point,kml_29,NEA Producer Responsibility Scheme - ALBA E-waste Recycling Programme,"FAIRPRICE @ 29A GHIM MOH LINK 29A GHIM MOH LINK, #01-01 271029",Bin collection; E-waste accepted: Batteries only,https://alba-ewaste.sg,dispose29
1.3560205728259,103.740471155339,0,Point,kml_34,NEA Producer Responsibility Scheme - ALBA E-waste Recycling Programme,FAIRPRICE @ 4 BUKIT BATOK ST 41 4 BUKIT BATOK ST 41 #01-91/92 657991,Bin collection; E-waste accepted: Batteries only,https://alba-ewaste.sg,dispose34
1.37712407965377,103.903580689143,0,Point,kml_39,NEA Producer Responsibility Scheme - ALBA E-waste Recycling Programme,"FAIRPRICE @ 476 UPPER SERANGOON VIEW 476 UPPER SERANGOON VIEW, #02-18 530476",Bin collection; E-waste accepted: Batteries only,https://alba-ewaste.sg,dispose39
1.37407578932659,103.885560008822,0,Point,kml_50,NEA Producer Responsibility Scheme - ALBA E-waste Recycling Programme,"FAIRPRICE @ 683 HOUGANG AVE 4 682 HOUGANG AVE 4, #01-310 530682",Bin collection; E-waste accepted: Batteries only,https://alba-ewaste.sg,dispose50
1.33726322100231,103.921725554735,0,Point,kml_53,NEA Producer Responsibility Scheme - ALBA E-waste Recycling Programme,"FAIRPRICE @ 745 BEDOK RESEVOIR RD 745 BEDOK RESERVOIR RD, #01-3015 470745",Bin collection; E-waste accepted: Batteries only,https://alba-ewaste.sg,dispose53
1.28038800400881,103.854222846596,0,Point,kml_80,NEA Producer Responsibility Scheme - ALBA E-waste Recycling Programme,"COLD STORAGE / JASONS @ MARINA BAY LINK MALL 8A MARINA BOULEVARD, #B2-44 18984",Bin collection; E-waste accepted: Batteries only,https://alba-ewaste.sg,dispose80
1.27445401208969,103.844312329877,0,Point,kml_81,NEA Producer Responsibility Scheme - ALBA E-waste Recycling Programme,"COLD STORAGE @ ALTEZ (ICON VILLAGE) 16 ENGGOR STREET, #01-05 79717",Bin collection; E-waste accepted: Batteries only,https://alba-ewaste.sg,dispose81
1.43620113868476,103.785702748828,0,Point,kml_84,NEA Producer Responsibility Scheme - ALBA E-waste Recycling Programme,"COLD STORAGE @ CAUSEWAY POINT 1 WOODLANDS SQUARE, #B1-31 738099",Bin collection; E-waste accepted: Batteries only,https://alba-ewaste.sg,dispose84
1.32340620641603,103.767561427916,0,Point,kml_103,NEA Producer Responsibility Scheme - ALBA E-waste Recycling Programme,"COLD STORAGE @ CLEMENTI ARCADE 41 SUNSET WAY, #01-01A 597071",Bin collection; E-waste accepted: Batteries only,https://alba-ewaste.sg,dispose103
1.33198875524596,103.945925951396,0,Point,kml_106,NEA Producer Responsibility Scheme - ALBA E-waste Recycling Programme,"COLD STORAGE @ EAST VILLAGE 430 UPPER CHANGI ROAD, #01-47 487048",Bin collection; E-waste accepted: Batteries only,https://alba-ewaste.sg,dispose106
1.38780189279931,103.869295560091,0,Point,kml_108,NEA Producer Responsibility Scheme - ALBA E-waste Recycling Programme,"COLD STORAGE @ GREENWICH VILLAGE 1 SELETAR ROAD, #01-11 807011",Bin collection; E-waste accepted: Batteries only,https://alba-ewaste.sg,dispose108
1.26401147975367,103.820114729398,0,Point,kml_110,NEA Producer Responsibility Scheme - ALBA E-waste Recycling Programme,"COLD STORAGE @ HARBOURFRONT CENTRE 1 MARITIME SQUARE, #01-47 99254",Bin collection; E-waste accepted: Batteries only,https://alba-ewaste.sg,dispose110
1.35947026322904,103.885131343227,0,Point,kml_111,NEA Producer Responsibility Scheme - ALBA E-waste Recycling Programme,"COLD STORAGE @ HEARTLAND MALL - KOVAN 205 HOUGANG STREET 21, #01-133 530205",Bin collection; E-waste accepted: Batteries only,https://alba-ewaste.sg,dispose111
1.31015705027517,103.795403720081,0,Point,kml_113,NEA Producer Responsibility Scheme - ALBA E-waste Recycling Programme,"COLD STORAGE @ HOLLAND SHOPPING CENTRE 211 HOLLAND AVENUE, #01-02 278967",Bin collection; E-waste accepted: Batteries only,https://alba-ewaste.sg,dispose113
1.35007003761735,103.872939762079,0,Point,kml_117,NEA Producer Responsibility Scheme - ALBA E-waste Recycling Programme,"COLD STORAGE @ NEX 23 SERANGOON CENTRAL, #B2-44 556083",Bin collection; E-waste accepted: Batteries only,https://alba-ewaste.sg,dispose117
1.42974552301599,103.835658012735,0,Point,kml_118,NEA Producer Responsibility Scheme - ALBA E-waste Recycling Programme,"COLD STORAGE @ NORTHPOINT CITY 930 YISHUN AVE 2, #B1-06 769098",Bin collection; E-waste accepted: Batteries only,https://alba-ewaste.sg,dispose118
1.33686681678198,103.783915059294,0,Point,kml_126,NEA Producer Responsibility Scheme - ALBA E-waste Recycling Programme,"COLD STORAGE @ SIME DARBY 896 DUNEARN ROAD, #02-01 589472",Bin collection; E-waste accepted: Batteries only,https://alba-ewaste.sg,dispose126
1.30340650123954,103.834185449872,0,Point,kml_127,NEA Producer Responsibility Scheme - ALBA E-waste Recycling Programme,"COLD STORAGE @ TAKASHIMAYA NGEE ANN CITY 391A ORCHARD ROAD, #B2-01, NEAR CASHIER 238872",Bin collection; E-waste accepted: Batteries only,https://alba-ewaste.sg,dispose127
1.35421199915918,103.945045925789,0,Point,kml_128,NEA Producer Responsibility Scheme - ALBA E-waste Recycling Programme,"COLD STORAGE @ TAMPINES 1 10 TAMPINES CENTRAL 1, #B1-01 529536",Bin collection; E-waste accepted: Batteries only,https://alba-ewaste.sg,dispose128
1.36018752139723,103.767580586006,0,Point,kml_130,NEA Producer Responsibility Scheme - ALBA E-waste Recycling Programme,COLD STORAGE @ THE RAIL MALL 464-484 UPPER BUKIT TIMAH ROAD 678077,Bin collection; E-waste accepted: Batteries only,https://alba-ewaste.sg,dispose130
1.28457775278049,103.860189235959,0,Point,kml_131,NEA Producer Responsibility Scheme - ALBA E-waste Recycling Programme,"COLD STORAGE @ THE SHOPPES AT MARINA BAY SANDS 2 BAYFRONT AVENUE, #01-29 18972",Bin collection; E-waste accepted: Batteries only,https://alba-ewaste.sg,dispose131
1.34975162455298,103.749471997629,0,Point,kml_136,NEA Producer Responsibility Scheme - ALBA E-waste Recycling Programme,"COLD STORAGE @ WEST MALL 1 BUKIT BATOK CENTRAL LINK, #B1-01 658713",Bin collection; E-waste accepted: Batteries only,https://alba-ewaste.sg,dispose136
1.32393124456783,103.810008658432,0,Point,kml_139,NEA Producer Responsibility Scheme - ALBA E-waste Recycling Programme,"FAIRPRICE @ CORONATION PLAZA 587 BUKIT TIMAH RD #01-01 CORONATION PLAZA, #01-01 269707",Bin collection; E-waste accepted: Batteries only,https://alba-ewaste.sg,dispose139
1.37585207343751,103.955558697765,0,Point,kml_142,NEA Producer Responsibility Scheme - ALBA E-waste Recycling Programme,"FAIRPRICE @ E!HUB 1 PASIR RIS CLOSE, E!HUB DOWNTOWN EAST, #02-127, #02-127 519599",Bin collection; E-waste accepted: Batteries only,https://alba-ewaste.sg,dispose142
1.32624264136832,103.678352875964,0,Point,kml_144,NEA Producer Responsibility Scheme - ALBA E-waste Recycling Programme,FAIRPRICE @ FAIRPRICE HUB 1 JOO KOON CIRCLE LEVEL 3 629117,Bin collection; E-waste accepted: Batteries only,https://alba-ewaste.sg,dispose144
1.29126221106691,103.850190854971,0,Point,kml_145,NEA Producer Responsibility Scheme - ALBA E-waste Recycling Programme,"FAIRPRICE @ FUNAN MALL 107 NORTH BRIDGE RD #B1-10 FUNAN MALL, #B1-10 179105",Bin collection; E-waste accepted: Batteries only,https://alba-ewaste.sg,dispose145
1.36002094342789,103.990269698218,0,Point,kml_151,NEA Producer Responsibility Scheme - ALBA E-waste Recycling Programme,"FAIRPRICE @ JEWEL CHANGI AIRPORT 78 AIRPORT BOULEVARD, JEWEL CHANGI AIRPORT, #B2-205 TO 208 819666",Bin collection; E-waste accepted: Batteries only,https://alba-ewaste.sg,dispose151
1.32291627306771,103.922394098073,0,Point,kml_157,NEA Producer Responsibility Scheme - ALBA E-waste Recycling Programme,"DECATHLON @ BEDOK 750A CHAI CHEE ROAD, #01-01 469001",Bin collection; E-waste accepted: Batteries only,https://alba-ewaste.sg,dispose157
1.31147742366443,103.856420563138,0,Point,kml_158,NEA Producer Responsibility Scheme - ALBA E-waste Recycling Programme,"DECATHLON @ CITY SQUARE MALL 180 KITCHENER RD, CITY SQUARE MALL, #02-03 208539",Bin collection; E-waste accepted: Batteries only,https://alba-ewaste.sg,dispose158
1.32725284713408,103.678321797801,0,Point,kml_159,NEA Producer Responsibility Scheme - ALBA E-waste Recycling Programme,"DECATHLON @ JOO KOON 1 JOO KOON CIRCLE, FAIRPRICE HUB, #02-21 629117",Bin collection; E-waste accepted: Batteries only,https://alba-ewaste.sg,dispose159
1.41680073557071,103.902144317116,0,Point,kml_160,NEA Producer Responsibility Scheme - ALBA E-waste Recycling Programme,"DECATHLON @ NORTHSHORE PLAZA 407 NORTHSHORE DRIVE, #01-27 820407",Bin collection; E-waste accepted: Batteries only,https://alba-ewaste.sg,dispose160
1.30424187312263,103.882388198386,0,Point,kml_161,NEA Producer Responsibility Scheme - ALBA E-waste Recycling Programme,DECATHLON @ STADIUM 230 STADIUM BOULEVARD 397799,Bin collection; E-waste accepted: Batteries only,https://alba-ewaste.sg,dispose161
1.30146257011029,103.839749331191,0,Point,kml_162,NEA Producer Responsibility Scheme - ALBA E-waste Recycling Programme,"DECATHLON @ THE CENTREPOINT 176 ORCHARD ROAD, THE CENTREPOINT, #01-14 238843",Bin collection; E-waste accepted: Batteries only,https://alba-ewaste.sg,dispose162
1.34832257330364,103.948152157015,0,Point,kml_169,NEA Producer Responsibility Scheme - ALBA E-waste Recycling Programme,"FAIRPRICE @ 107 TAMPINES ST 11 107 TAMPINES ST 11, #01-353/355/357/359 521107",Bin collection; E-waste accepted: Batteries only,https://alba-ewaste.sg,dispose169
1.29031290636978,103.817000893289,0,Point,kml_172,NEA Producer Responsibility Scheme - ALBA E-waste Recycling Programme,"FAIRPRICE @ 12 ALEXANDRA VIEW 12 ALEXANDRA VIEW, #01-18 158736",Bin collection; E-waste accepted: Batteries only,https://alba-ewaste.sg,dispose172
1.30765868864011,103.828966342853,0,Point,kml_173,NEA Producer Responsibility Scheme - ALBA E-waste Recycling Programme,"COLD STORAGE @ CLAYMORE CONNECT ORCHARD HOTEL 442 ORCHARD ROAD, #B1-01 238879",Bin collection; E-waste accepted: Batteries only,https://alba-ewaste.sg,dispose173
1.30514807733157,103.851247442085,0,Point,kml_255,NEA Producer Responsibility Scheme - ALBA E-waste Recycling Programme,"FAIRPRICE @ TEKKA PLACE 2 SERANGOON RD, TEKKA PLACE, #B1-06/07/08/09 218227",Bin collection; E-waste accepted: Batteries only,https://alba-ewaste.sg,dispose255
1.35555636684035,103.986190834836,0,Point,kml_256,NEA Producer Responsibility Scheme - ALBA E-waste Recycling Programme,"FAIRPRICE @ TERMINAL 3 65 AIRPORT BOULEVARD, CHANGI AIRPORT TERMINAL 3, #B2-10 819663",Bin collection; E-waste accepted: Batteries only,https://alba-ewaste.sg,dispose256
1.42893394995778,103.781170506997,0,Point,kml_258,NEA Producer Responsibility Scheme - ALBA E-waste Recycling Programme,"FAIRPRICE @ THE WOODGROVE 30 WOODLANDS AVE 1, THE WOODGROVE, #01-11 739065",Bin collection; E-waste accepted: Batteries only,https://alba-ewaste.sg,dispose258
1.28663661767358,103.826705432228,0,Point,kml_260,NEA Producer Responsibility Scheme - ALBA E-waste Recycling Programme,"FAIRPRICE @ TIONG BAHRU PLAZA 302 TIONG BAHRU ROAD, #B1-01 168732",Bin collection; E-waste accepted: Batteries only,https://alba-ewaste.sg,dispose260
1.29290624008267,103.827020062232,0,Point,kml_261,NEA Producer Responsibility Scheme - ALBA E-waste Recycling Programme,"FAIRPRICE @ VALLEY POINT 491 RIVER VALLEY RD #01-14 VALLEY POINT, #01-14 248371",Bin collection; E-waste accepted: Batteries only,https://alba-ewaste.sg,dispose261
1.40700038929936,103.901680850371,0,Point,kml_263,NEA Producer Responsibility Scheme - ALBA E-waste Recycling Programme,"FAIRPRICE @ WATERWAY POINT 83 PUNGGOL CENTRAL, WATERWAY POINT, #B2-32 828761",Bin collection; E-waste accepted: Batteries only,https://alba-ewaste.sg,dispose263
1.3790913509155,103.772881051966,0,Point,kml_284,NEA Producer Responsibility Scheme - ALBA E-waste Recycling Programme,"GIANT @ 256 BANGKIT ROAD 256 BANGKIT ROAD, #01-69 670256",Bin collection; E-waste accepted: Batteries only,https://alba-ewaste.sg,dispose284
1.33214222372649,103.857545788882,0,Point,kml_285,NEA Producer Responsibility Scheme - ALBA E-waste Recycling Programme,"GIANT @ 260 KIM KEAT AVENUE 260 KIM KEAT AVENUE, #01-01 310260",Bin collection; E-waste accepted: Batteries only,https://alba-ewaste.sg,dispose285
1.34661157118073,103.757213976438,0,Point,kml_286,NEA Producer Responsibility Scheme - ALBA E-waste Recycling Programme,"GIANT @ 284 BUKIT BATOK EAST 284 BUKIT BATOK EAST, #01-251 650284",Bin collection; E-waste accepted: Batteries only,https://alba-ewaste.sg,dispose286
1.43624960945075,103.838159993686,0,Point,kml_287,NEA Producer Responsibility Scheme - ALBA E-waste Recycling Programme,"GIANT @ 293 YISHUN ST 22 293 YISHUN STREET 22, #01-261 760293",Bin collection; E-waste accepted: Batteries only,https://alba-ewaste.sg,dispose287
1.35862226297672,103.749207628697,0,Point,kml_288,NEA Producer Responsibility Scheme - ALBA E-waste Recycling Programme,"GIANT @ 376 BUKIT BATOK ST 31 376 BUKIT BATOK ST 31, #01-116 650376",Bin collection; E-waste accepted: Batteries only,https://alba-ewaste.sg,dispose288
1.42500182732665,103.847452877176,0,Point,kml_289,NEA Producer Responsibility Scheme - ALBA E-waste Recycling Programme,"GIANT @ 418 YISHUN AVENUE 11 418 YISHUN AVENUE 11, #01-433 760418",Bin collection; E-waste accepted: Batteries only,https://alba-ewaste.sg,dispose289
1.36873046486975,103.958666392582,0,Point,kml_290,NEA Producer Responsibility Scheme - ALBA E-waste Recycling Programme,"GIANT @ 440 PASIR RIS DRIVE 440 PASIR RIS DRIVE 4, #01-01 510440",Bin collection; E-waste accepted: Batteries only,https://alba-ewaste.sg,dispose290
1.30416324731536,103.902690598441,0,Point,kml_297,NEA Producer Responsibility Scheme - ALBA E-waste Recycling Programme,"FAIRPRICE @ KATONG VILLAGE HOTEL 30 EAST COAST RD, KATONG VILLAGE HOTEL, #01-06/07/08/09 428751",Bin collection; E-waste accepted: Batteries only,https://alba-ewaste.sg,dispose297
1.3727883191422,103.853884602216,0,Point,kml_308,NEA Producer Responsibility Scheme - ALBA E-waste Recycling Programme,"GIANT @ 525 ANG MO KIO AVE 10 525 ANG MO KIO AVE 10, #01-2401 560525",Bin collection; E-waste accepted: Batteries only,https://alba-ewaste.sg,dispose308
1.40060513082505,103.910385071854,0,Point,kml_309,NEA Producer Responsibility Scheme - ALBA E-waste Recycling Programme,"GIANT @ 622D PUNGGOL CENTRAL 622D PUNGGOL CENTRAL, #01-06 824622",Bin collection; E-waste accepted: Batteries only,https://alba-ewaste.sg,dispose309
1.38077853157599,103.879255652654,0,Point,kml_310,NEA Producer Responsibility Scheme - ALBA E-waste Recycling Programme,"GIANT @ 982 BUANGKOK CRESCENT 982 BUANGKOK CRESCENT, #01-01 530982",Bin collection; E-waste accepted: Batteries only,https://alba-ewaste.sg,dispose310
1.44060811956064,103.80075155798,0,Point,kml_311,NEA Producer Responsibility Scheme - ALBA E-waste Recycling Programme,"GIANT @ ADMIRALTY MRT 70  WOODLANDS AVE 7, #01-05 738344",Bin collection; E-waste accepted: Batteries only,https://alba-ewaste.sg,dispose311
1.3422776105768,103.776167058722,0,Point,kml_312,NEA Producer Responsibility Scheme - ALBA E-waste Recycling Programme,"GIANT @ BEAUTY WORLD CENTRE 144 UPPER BUKIT TIMAH ROAD, #B1-01 588177",Bin collection; E-waste accepted: Batteries only,https://alba-ewaste.sg,dispose312
1.3856951599165,103.766356612192,0,Point,kml_315,NEA Producer Responsibility Scheme - ALBA E-waste Recycling Programme,"GIANT @ GREENRIDGE SHOPPING CENTRE 524A JELAPANG ROAD, #03-13 671524",Bin collection; E-waste accepted: Batteries only,https://alba-ewaste.sg,dispose315
1.34967629897768,103.84993098604,0,Point,kml_316,NEA Producer Responsibility Scheme - ALBA E-waste Recycling Programme,"GIANT @ HDB BISHAN BRANCH OFFICE 512 BISHAN STREET 13, #01-524 570512",Bin collection; E-waste accepted: Batteries only,https://alba-ewaste.sg,dispose316
1.30988736160399,103.902147698307,0,Point,kml_319,NEA Producer Responsibility Scheme - ALBA E-waste Recycling Programme,"GIANT @ JK CENTRE 291 JOO CHIAT RD, #01-01 427543",Bin collection; E-waste accepted: Batteries only,https://alba-ewaste.sg,dispose319
1.3298700080681,103.901909765674,0,Point,kml_320,NEA Producer Responsibility Scheme - ALBA E-waste Recycling Programme,"GIANT @ KAMPUNG UBI 306 UBI AVE 1, KAMPUNG UBI, #01-85 400306",Bin collection; E-waste accepted: Batteries only,https://alba-ewaste.sg,dispose320
1.41683616122356,103.832840702136,0,Point,kml_321,NEA Producer Responsibility Scheme - ALBA E-waste Recycling Programme,"GIANT @ KHATIB MRT 201 YISHUN AVE 2, #01-03 618640",Bin collection; E-waste accepted: Batteries only,https://alba-ewaste.sg,dispose321
1.35291960706098,103.871416585191,0,Point,kml_323,NEA Producer Responsibility Scheme - ALBA E-waste Recycling Programme,"GIANT @ NEXT TO SERANGOON MARKET 266 SERANGOON CENTRAL DRIVE, #01-255 550266",Bin collection; E-waste accepted: Batteries only,https://alba-ewaste.sg,dispose323
1.34828646801077,103.685693826737,0,Point,kml_324,NEA Producer Responsibility Scheme - ALBA E-waste Recycling Programme,"GIANT @ NTU CANTEEN 2 35 STUDENTS WALK, #01-01 539548",Bin collection; E-waste accepted: Batteries only,https://alba-ewaste.sg,dispose324
1.37809797266625,103.73882059769,0,Point,kml_328,NEA Producer Responsibility Scheme - ALBA E-waste Recycling Programme,"GIANT @ SUNSHINE PLACE 475 CHOA CHU KANG AVE 3, #01-01 680475",Bin collection; E-waste accepted: Batteries only,https://alba-ewaste.sg,dispose328
1.35442326254813,103.960016654941,0,Point,kml_330,NEA Producer Responsibility Scheme - ALBA E-waste Recycling Programme,"GIANT @ TAMPINES MART 9 TAMPINES STREET 32, #01-16 529286",Bin collection; E-waste accepted: Batteries only,https://alba-ewaste.sg,dispose330
1.43083956613104,103.79403572499,0,Point,kml_331,NEA Producer Responsibility Scheme - ALBA E-waste Recycling Programme,"GIANT @ VISTA POINT 548 WOODLANDS DRIVE 44, #01-37 730548",Bin collection; E-waste accepted: Batteries only,https://alba-ewaste.sg,dispose331
1.40549989219934,103.912043990138,0,Point,kml_332,NEA Producer Responsibility Scheme - ALBA E-waste Recycling Programme,GIANT @ WATERWAY BANKS 671 EDGEFIELD PLAINS 820671,Bin collection; E-waste accepted: Batteries only,https://alba-ewaste.sg,dispose332
