latitude,longitude,altitude,geometry,IndexName,Name,AddressName,Description,Hyperlink,ShopUsername
1.36933561415336,103.848693180872,0,Point,kml_3,NEA Producer Responsibility Scheme - ALBA E-waste Recycling Programme,"CHALLENGER @ ANG MO KIO HUB ANG MO KIO AVENUE 3, ANG MOH KIO HUB, #B1-58, OUTLET ENTRANCE 569933","Bin collection; E-waste accepted: ICT equipment, Batteries and Lamps only",https://alba-ewaste.sg,dispose3
1.29888755898627,103.855554258571,0,Point,kml_4,NEA Producer Responsibility Scheme - ALBA E-waste Recycling Programme,"CHALLENGER @ BUGIS JUNCTION BASEMENT 1 200 VICTORIA STREET, BUGIS JUNCTION, #B1-26, IN-STORE 188021","Bin collection; E-waste accepted: ICT equipment, Batteries and Lamps only",https://alba-ewaste.sg,dispose4
1.30007686528717,103.855785817714,0,Point,kml_5,NEA Producer Responsibility Scheme - ALBA E-waste Recycling Programme,"CHALLENGER @ BUGIS JUNCTION LEVEL 3 200 VICTORIA STREET, BUGIS JUNCTION, #03-10E, IN-STORE 188021","Bin collection; E-waste accepted: ICT equipment, Batteries and Lamps only",https://alba-ewaste.sg,dispose5
1.33411312955727,103.962792843949,0,Point,kml_6,NEA Producer Responsibility Scheme - ALBA E-waste Recycling Programme,"CHALLENGER @ CHANGI CITY POINT 5 CHANGI BUSINESS PARK CENTRAL 1, CHANGI CITY POINT, #01-56, IN-STORE 486038","Bin collection; E-waste accepted: ICT equipment, Batteries and Lamps only",https://alba-ewaste.sg,dispose6
1.34269199841086,103.953050756316,0,Point,kml_7,NEA Producer Responsibility Scheme - ALBA E-waste Recycling Programme,"CHALLENGER @ EASTPOINT MALL 3 SIMEI STREET 6, EASTPOINT MALL, #B1-08, IN-STORE 528833","Bin collection; E-waste accepted: ICT equipment, Batteries and Lamps only",https://alba-ewaste.sg,dispose7
1.37253315583583,103.893883460345,0,Point,kml_8,NEA Producer Responsibility Scheme - ALBA E-waste Recycling Programme,"CHALLENGER @ HOUGANG MALL 90 HOUGANG AVENUE 10, HOUGANG MALL, #02-13, IN-STORE 538766","Bin collection; E-waste accepted: ICT equipment, Batteries and Lamps only",https://alba-ewaste.sg,dispose8
1.3351175875917,103.74687713319,0,Point,kml_9,NEA Producer Responsibility Scheme - ALBA E-waste Recycling Programme,"CHALLENGER @ IMM 2 JURONG EAST STREET 21, IMM, #02-23, IN-STORE 609601","Bin collection; E-waste accepted: ICT equipment, Batteries and Lamps only",https://alba-ewaste.sg,dispose9
1.33332819290677,103.743359441957,0,Point,kml_10,NEA Producer Responsibility Scheme - ALBA E-waste Recycling Programme,"CHALLENGER @ JEM 50 JURONG GATEWAY ROAD, JEM, #04-01, IN-STORE 608549","Bin collection; E-waste accepted: ICT equipment, Batteries and Lamps only",https://alba-ewaste.sg,dispose10
1.33965200397303,103.706685013186,0,Point,kml_11,NEA Producer Responsibility Scheme - ALBA E-waste Recycling Programme,"CHALLENGER @ JURONG POINT 1 JURONG WEST CENTRAL 2, JURONG POINT, #B1-94, IN-STORE 648886","Bin collection; E-waste accepted: ICT equipment, Batteries and Lamps only",https://alba-ewaste.sg,dispose11
1.35084579518832,103.872590477091,0,Point,kml_12,NEA Producer Responsibility Scheme - ALBA E-waste Recycling Programme,"CHALLENGER @ NEX MALL 23 SERANGOON CENTRAL, NEX MALL, #03-33/34, IN-STORE 556083","Bin collection; E-waste accepted: ICT equipment, Batteries and Lamps only",https://alba-ewaste.sg,dispose12
1.42970657294785,103.835680138755,0,Point,kml_13,NEA Producer Responsibility Scheme - ALBA E-waste Recycling Programme,"CHALLENGER @ NORTHPOINT SHOPPING CENTRE 930 YISHUN AVE 2, #03-90/10 769098","Bin collection; E-waste accepted: ICT equipment, Batteries and Lamps only",https://alba-ewaste.sg,dispose13
1.31748231118193,103.892832205405,0,Point,kml_14,NEA Producer Responsibility Scheme - ALBA E-waste Recycling Programme,"CHALLENGER @ PAYA LEBAR QUARTER(PLQ) 10 PAYA LEBAR ROAD, PAYA LEBAR QUARTER(PLQ), #04-01, IN-STORE 409057","Bin collection; E-waste accepted: ICT equipment, Batteries and Lamps only",https://alba-ewaste.sg,dispose14
1.3010341297225,103.845072743269,0,Point,kml_15,NEA Producer Responsibility Scheme - ALBA E-waste Recycling Programme,"CHALLENGER @ PLAZA SINGAPURA 68 ORCHARD ROAD, PLAZA SINGAPURA, #04-12, IN-STORE 238839","Bin collection; E-waste accepted: ICT equipment, Batteries and Lamps only",https://alba-ewaste.sg,dispose15
1.29387967409662,103.853435098778,0,Point,kml_16,NEA Producer Responsibility Scheme - ALBA E-waste Recycling Programme,"CHALLENGER @ RAFFLES CITY SHOPPING CENTRE 252 NORTH BRIDGE RD, #03-22/23 179103","Bin collection; E-waste accepted: ICT equipment, Batteries and Lamps only",https://alba-ewaste.sg,dispose16
1.33491977670544,103.96365389969,0,Point,kml_54,NEA Producer Responsibility Scheme - ALBA E-waste Recycling Programme,"FAIRPRICE @ 8 CHANGI BUSINESS PARK AVE 1 8 CHANGI BUSINESS PARK AVE 1, #01-51 &, #02-51, LEVEL 2 BACK OF STORE 486018","Bin collection; E-waste accepted: ICT equipment, Batteries and Lamps only",https://alba-ewaste.sg,dispose54
1.36923561407545,103.848693181134,0,Point,kml_60,NEA Producer Responsibility Scheme - ALBA E-waste Recycling Programme,"FAIRPRICE @ ANG MO KIO HUB 53 ANG MO KIO AVE 3, ANG MO KIO HUB, #B2-40, CASHIER EXIT AREA 569933","Bin collection; E-waste accepted: ICT equipment, Batteries and Lamps only",https://alba-ewaste.sg,dispose60
1.44820036630706,103.819530141315,0,Point,kml_69,NEA Producer Responsibility Scheme - ALBA E-waste Recycling Programme,"CHALLENGER @ SUN PLAZA 30 SEMBAWANG DRIVE, SUN PLAZA, #02-06, BACK OF STORE 757713","Bin collection; E-waste accepted: ICT equipment, Batteries and Lamps only",https://alba-ewaste.sg,dispose69
1.35432321235723,103.945141172259,0,Point,kml_70,NEA Producer Responsibility Scheme - ALBA E-waste Recycling Programme,"CHALLENGER @ TAMPINES 1 10 TAMPINES CENTRAL 1, TAMPINES 1, #04-25, IN-STORE REPAIR COUNTER 529536","Bin collection; E-waste accepted: ICT equipment, Batteries and Lamps only",https://alba-ewaste.sg,dispose70
1.28633177190205,103.827550770651,0,Point,kml_71,NEA Producer Responsibility Scheme - ALBA E-waste Recycling Programme,"CHALLENGER @ TIONG BAHRU PLAZA 302 TIONG BAHRU ROAD, TIONG BAHRU PLAZA, #03-19, IN-STORE 168732","Bin collection; E-waste accepted: ICT equipment, Batteries and Lamps only",https://alba-ewaste.sg,dispose71
1.26454458682914,103.82247614144,0,Point,kml_72,NEA Producer Responsibility Scheme - ALBA E-waste Recycling Programme,"CHALLENGER @ VIVOCITY 1 HARBOURFRONT WALK, VIVOCITY, #02-34, IN-STORE 98585","Bin collection; E-waste accepted: ICT equipment, Batteries and Lamps only",https://alba-ewaste.sg,dispose72
1.3406900672801,103.949352499176,0,Point,kml_73,NEA Producer Responsibility Scheme - ALBA E-waste Recycling Programme,"CHANGI GENERAL HOSPITAL 2 SIMEI STREET 3, CHANGI GENERAL HOSPITAL, B1 MAIN BUILDING LOBBY D 529889","Bin collection; E-waste accepted: ICT equipment, Batteries and Lamps only",https://alba-ewaste.sg,dispose73
1.28510471875446,103.844728161861,0,Point,kml_74,NEA Producer Responsibility Scheme - ALBA E-waste Recycling Programme,"CHINATOWN POINT 133 NEW BRIDGE ROAD, #06-01 59413","Bin collection; E-waste accepted: ICT equipment, Batteries and Lamps only",https://alba-ewaste.sg,dispose74
1.37514898730159,103.882894175713,0,Point,kml_75,NEA Producer Responsibility Scheme - ALBA E-waste Recycling Programme,"CI YUAN CC 51 HOUGANG AVENUE 9, MAIN LOBBY 538776","Bin collection; E-waste accepted: ICT equipment, Batteries and Lamps only",https://alba-ewaste.sg,dispose75
1.31474504722936,103.893412697133,0,Point,kml_76,NEA Producer Responsibility Scheme - ALBA E-waste Recycling Programme,"CITY PLAZA 810 GEYLANG RD, LEVEL 1 409286","Bin collection; E-waste accepted: ICT equipment, Batteries and Lamps only",https://alba-ewaste.sg,dispose76
1.31135169876902,103.856724057684,0,Point,kml_77,NEA Producer Responsibility Scheme - ALBA E-waste Recycling Programme,"CITY SQUARE MALL @ 180 KITCHENER ROAD 180 KITCHENER ROAD, LEVEL 2 CUSTOMER SERVICE COUNTER 208539","Bin collection; E-waste accepted: ICT equipment, Batteries and Lamps only",https://alba-ewaste.sg,dispose77
1.31881519538242,103.768153682152,0,Point,kml_78,NEA Producer Responsibility Scheme - ALBA E-waste Recycling Programme,"CLEMENTI CC 220 CLEMENTI AVENUE 4, MAIN ENTRANCE 129880","Bin collection; E-waste accepted: ICT equipment, Batteries and Lamps only",https://alba-ewaste.sg,dispose78
1.28385698404013,103.852128172968,0,Point,kml_79,NEA Producer Responsibility Scheme - ALBA E-waste Recycling Programme,"CLIFFORD CENTRE 24 RAFFLES PLACE, CLIFFORD CENTRE, LVL 3 CARPARK LOBBY 48621","Bin collection; E-waste accepted: ICT equipment, Batteries and Lamps only",https://alba-ewaste.sg,dispose79
1.2913475971014,103.849989789705,0,Point,kml_86,NEA Producer Responsibility Scheme - ALBA E-waste Recycling Programme,"BEST DENKI @ FUNAN 109 NORTH BRIDGE ROAD, FUNAN, #03-16, IN-STORE 179097","Bin collection; E-waste accepted: ICT equipment, Batteries and Lamps only",https://alba-ewaste.sg,dispose86
1.38681829821088,103.897547410103,0,Point,kml_87,NEA Producer Responsibility Scheme - ALBA E-waste Recycling Programme,"COMPASSVALE VILLA RC 206C COMPASSVALE LANE, COMPASSVALE VILLA RC, VOID DECK 543206","Bin collection; E-waste accepted: ICT equipment, Batteries and Lamps only",https://alba-ewaste.sg,dispose87
1.28327318643431,103.819257291063,0,Point,kml_88,NEA Producer Responsibility Scheme - ALBA E-waste Recycling Programme,"CONNECTION ONE 168 JALAN BUKIT MARAH, SURBANA ONE, LEVEL 1 150169","Bin collection; E-waste accepted: ICT equipment, Batteries and Lamps only",https://alba-ewaste.sg,dispose88
1.3319945637625,103.849796099663,0,Point,kml_89,NEA Producer Responsibility Scheme - ALBA E-waste Recycling Programme,"COURTS @ 460 TOA PAYOH LORONG 6 460 TOA PAYOH LORONG 6, MAIN ENTRANCE 310460","Bin collection; E-waste accepted: ICT equipment, Batteries and Lamps only",https://alba-ewaste.sg,dispose89
1.37343369273579,103.845765158161,0,Point,kml_90,NEA Producer Responsibility Scheme - ALBA E-waste Recycling Programme,"COURTS @ ANG MO KIO AVE 6 730 ANG MO KIO AVE 6, STORE REAR ENTRANCE 560730","Bin collection; E-waste accepted: ICT equipment, Batteries and Lamps only",https://alba-ewaste.sg,dispose90
1.43620784515025,103.785688734195,0,Point,kml_91,NEA Producer Responsibility Scheme - ALBA E-waste Recycling Programme,"COURTS @ CAUSEWAY POINT 1 WOODLANDS SQUARE, CAUSEWAY POINT, #04-19/20, MAIN ENTRANCE 738099","Bin collection; E-waste accepted: ICT equipment, Batteries and Lamps only",https://alba-ewaste.sg,dispose91
1.31258298521486,103.7654767568,0,Point,kml_92,NEA Producer Responsibility Scheme - ALBA E-waste Recycling Programme,"COURTS @ CLEMENTI CENTRAL 451 CLEMENTI AVE 3, COURTS CLEMENTI, #01-309, LEVEL 2 ENTRANCE 120451","Bin collection; E-waste accepted: ICT equipment, Batteries and Lamps only",https://alba-ewaste.sg,dispose92
1.37352976432142,103.933847009818,0,Point,kml_93,NEA Producer Responsibility Scheme - ALBA E-waste Recycling Programme,"COURTS @ COURTS MEGASTORE 50 TAMPINES NORTH DRIVE 2, COURTS MEGASTORE, LEVEL 1 CASHIER AREA 528766","Bin collection; E-waste accepted: ICT equipment, Batteries and Lamps only",https://alba-ewaste.sg,dispose93
1.34279199829491,103.953050755789,0,Point,kml_94,NEA Producer Responsibility Scheme - ALBA E-waste Recycling Programme,"COURTS @ EASTPOINT MALL 3 SIMEI STREET 6, EASTPOINT MALL, #04-07, MAIN ENTRANCE 528833","Bin collection; E-waste accepted: ICT equipment, Batteries and Lamps only",https://alba-ewaste.sg,dispose94
1.29134400590163,103.849984790194,0,Point,kml_95,NEA Producer Responsibility Scheme - ALBA E-waste Recycling Programme,"COURTS @ FUNAN 107 NORTH BRIDGE ROAD, FUNAN, #03-01 179105","Manned collection (Contact staff for disposal); E-waste accepted: ICT equipment, Batteries and Lamps only",https://alba-ewaste.sg,dispose95
1.33342819289398,103.74335944192,0,Point,kml_96,NEA Producer Responsibility Scheme - ALBA E-waste Recycling Programme,"COURTS @ JEM 50 JURONG GATEWAY ROAD, JEM, #04-30, MAIN ENTRANCE 608549","Bin collection; E-waste accepted: ICT equipment, Batteries and Lamps only",https://alba-ewaste.sg,dispose96
1.33975200383338,103.706685013443,0,Point,kml_97,NEA Producer Responsibility Scheme - ALBA E-waste Recycling Programme,"COURTS @ JURONG POINT 1 JURONG WEST CENTRAL, JURONG POINT, #02-05, MAIN ENTRANCE 648886","Bin collection; E-waste accepted: ICT equipment, Batteries and Lamps only",https://alba-ewaste.sg,dispose97
1.38513873962874,103.745022476923,0,Point,kml_98,NEA Producer Responsibility Scheme - ALBA E-waste Recycling Programme,"COURTS @ LOT ONE 21 CHOA CHU KANG AVE 4, LOT ONE, #03-01 689812","Manned collection (Contact staff for disposal); E-waste accepted: ICT equipment, Batteries and Lamps only",https://alba-ewaste.sg,dispose98
1.34447602215708,103.774365260756,0,Point,kml_99,NEA Producer Responsibility Scheme - ALBA E-waste Recycling Programme,"COURTS @ SIM LIAN BUILDING 205 UPPER BUKIT TIMAH ROAD, SIM LIAN BUILDING 588181","Manned collection (Contact staff for disposal); E-waste accepted: ICT equipment, Batteries and Lamps only",https://alba-ewaste.sg,dispose99
1.35229230312204,103.944476926807,0,Point,kml_100,NEA Producer Responsibility Scheme - ALBA E-waste Recycling Programme,"COURTS @ TAMPINES MALL 4 TAMPINES CENTRAL 5, TAMPINES MALL, #03-16/16A 529510","Manned collection (Contact staff for disposal); E-waste accepted: ICT equipment, Batteries and Lamps only",https://alba-ewaste.sg,dispose100
1.30226267724838,103.837493973346,0,Point,kml_101,NEA Producer Responsibility Scheme - ALBA E-waste Recycling Programme,"COURTS NOJIMA @ THE HEEREN 260 ORCHARD ROAD, THE HEEREN 238855","Manned collection (Contact staff for disposal); E-waste accepted: ICT equipment, Batteries and Lamps only",https://alba-ewaste.sg,dispose101
1.39209415560863,103.894980025365,0,Point,kml_137,NEA Producer Responsibility Scheme - ALBA E-waste Recycling Programme,"COMPASS ONE 1 SENGKANG SQUARE, #B1-52/53, MRT EXIT/ENTRANCE 545078","Bin collection; E-waste accepted: ICT equipment, Batteries and Lamps only",https://alba-ewaste.sg,dispose137
1.2835152172587,103.846878906341,0,Point,kml_138,NEA Producer Responsibility Scheme - ALBA E-waste Recycling Programme,"CROSS STREET EXCHANGE 18 CROSS STREET, B1 CUSTOMER SERVICE COUNTER 48423","Bin collection; E-waste accepted: ICT equipment, Batteries and Lamps only",https://alba-ewaste.sg,dispose138
1.3756672826198,103.879450251097,0,Point,kml_148,NEA Producer Responsibility Scheme - ALBA E-waste Recycling Programme,"FAIRPRICE @ HOUGANG 1 1 HOUGANG ST 91, HOUGANG 1, #02-01, ESCALATOR WALKWAY 538692","Bin collection; E-waste accepted: ICT equipment, Batteries and Lamps only",https://alba-ewaste.sg,dispose148
1.33352819288108,103.743359441884,0,Point,kml_150,NEA Producer Responsibility Scheme - ALBA E-waste Recycling Programme,"FAIRPRICE @ JEM 50 JURONG GATEWAY RD, JEM, #B1-21/22 & #B3-01, CASHIER AREA 608549","Bin collection; E-waste accepted: ICT equipment, Batteries and Lamps only",https://alba-ewaste.sg,dispose150
1.33946402991596,103.705308190988,0,Point,kml_154,NEA Producer Responsibility Scheme - ALBA E-waste Recycling Programme,"FAIRPRICE @ JURONG POINT 63 JURONG WEST CENTRAL 3, JURONG POINT, #03-01, CASHIER AREA 648331","Bin collection; E-waste accepted: ICT equipment, Batteries and Lamps only",https://alba-ewaste.sg,dispose154
1.29260252739925,103.810971834694,0,Point,kml_156,NEA Producer Responsibility Scheme - ALBA E-waste Recycling Programme,"DAWSON PLACE 57 DAWSON RD, DAWSON PLACE 142057","Bin collection; E-waste accepted: ICT equipment, Batteries and Lamps only",https://alba-ewaste.sg,dispose156
1.28086680691713,103.810298189559,0,Point,kml_163,NEA Producer Responsibility Scheme - ALBA E-waste Recycling Programme,"DEPOT HEIGHTS SHOPPING CENTRE 108 DEPOT ROAD, DEPOT HEIGHTS SHOPPING CENTRE 100108","Bin collection; E-waste accepted: ICT equipment, Batteries and Lamps only",https://alba-ewaste.sg,dispose163
1.37782876001203,103.942364346927,0,Point,kml_164,NEA Producer Responsibility Scheme - ALBA E-waste Recycling Programme,"ELIAS MALL 623 ELIAS ROAD, ELIAS MALL, MAIN ENTRANCE 510623","Bin collection; E-waste accepted: ICT equipment, Batteries and Lamps only",https://alba-ewaste.sg,dispose164
1.31052232102667,103.836225164218,0,Point,kml_165,NEA Producer Responsibility Scheme - ALBA E-waste Recycling Programme,ENVIRONMENT BUILDING (MSE/NEA) 40 SCOTTS ROAD 228231,"Bin collection; E-waste accepted: ICT equipment, Batteries and Lamps only",https://alba-ewaste.sg,dispose165
1.33264371695608,103.915255282845,0,Point,kml_166,NEA Producer Responsibility Scheme - ALBA E-waste Recycling Programme,"EUNOS CC 180 BEDOK RESERVOIR ROAD, MAIN ENTRANCE 479220","Bin collection; E-waste accepted: ICT equipment, Batteries and Lamps only",https://alba-ewaste.sg,dispose166
1.35288729929156,103.867126169343,0,Point,kml_174,NEA Producer Responsibility Scheme - ALBA E-waste Recycling Programme,"BRADDELL HEIGHTS ZONE F RC 318 SERANGOON AVE 2, #01-324 550318","Bin collection; E-waste accepted: ICT equipment, Batteries and Lamps only",https://alba-ewaste.sg,dispose174
1.37592800577962,103.748646923201,0,Point,kml_175,NEA Producer Responsibility Scheme - ALBA E-waste Recycling Programme,"BRICKLAND MIRAGE QUAD RN 816B KEAT HONG LINK, #01-67 682816","Bin collection; E-waste accepted: ICT equipment, Batteries and Lamps only",https://alba-ewaste.sg,dispose175
1.38479899609748,103.881961176796,0,Point,kml_176,NEA Producer Responsibility Scheme - ALBA E-waste Recycling Programme,"BUANGKOK SQUARE 991 BUANGKOK LINK, LEVEL 1 530991","Bin collection; E-waste accepted: ICT equipment, Batteries and Lamps only",https://alba-ewaste.sg,dispose176
1.3001178926512,103.856191572238,0,Point,kml_177,NEA Producer Responsibility Scheme - ALBA E-waste Recycling Programme,"BUGIS JUNCTION TOWERS 230 VICTORIA STREET, FOUNTAIN LOBBY 188024","Bin collection; E-waste accepted: ICT equipment, Batteries and Lamps only",https://alba-ewaste.sg,dispose177
1.28525427134678,103.815828541319,0,Point,kml_178,NEA Producer Responsibility Scheme - ALBA E-waste Recycling Programme,BUKIT MERAH CC 4000 JALAN BUKIT MERAH 159465,"Bin collection; E-waste accepted: ICT equipment, Batteries and Lamps only",https://alba-ewaste.sg,dispose178
1.37635335173791,103.770651806292,0,Point,kml_179,NEA Producer Responsibility Scheme - ALBA E-waste Recycling Programme,"BUKIT PANJANG CC 8 PENDING ROAD, MAIN LOBBY 678295","Bin collection; E-waste accepted: ICT equipment, Batteries and Lamps only",https://alba-ewaste.sg,dispose179
1.37981650655046,103.76431706912,0,Point,kml_180,NEA Producer Responsibility Scheme - ALBA E-waste Recycling Programme,"BUKIT PANJANG PLAZA 1 JELEBU ROAD, BUKIT PANJANG PLAZA, #04-03, SIDE ENTRANCE 677743","Bin collection; E-waste accepted: ICT equipment, Batteries and Lamps only",https://alba-ewaste.sg,dispose180
1.2736360147998,103.82584430083,0,Point,kml_181,NEA Producer Responsibility Scheme - ALBA E-waste Recycling Programme,"BUKIT PURMEI ZONE A RC 108 BUKIT PURMEI ROAD, #01-129 90108","Bin collection; E-waste accepted: ICT equipment, Batteries and Lamps only",https://alba-ewaste.sg,dispose181
1.33865677636545,103.778560466605,0,Point,kml_182,NEA Producer Responsibility Scheme - ALBA E-waste Recycling Programme,"BUKIT TIMAH PLAZA 1 JALAN ANAK BUKIT BUKIT TIMAH PLAZA, BUKIT TIMAH PLAZA, RESIDENTIAL BLOCK CARPARK 588996","Bin collection; E-waste accepted: ICT equipment, Batteries and Lamps only",https://alba-ewaste.sg,dispose182
1.44325505410684,103.830569524871,0,Point,kml_183,NEA Producer Responsibility Scheme - ALBA E-waste Recycling Programme,"CANBERRA PLAZA 133 CANBERRA VIEW, LEVEL 1 750133","Bin collection; E-waste accepted: ICT equipment, Batteries and Lamps only",https://alba-ewaste.sg,dispose183
1.33326351754784,103.74031748528,0,Point,kml_184,NEA Producer Responsibility Scheme - ALBA E-waste Recycling Programme,"CAPITALAND JCUBE 2 JURONG EAST CENTRAL 1, REAR ENTRANCE 609731","Bin collection; E-waste accepted: ICT equipment, Batteries and Lamps only",https://alba-ewaste.sg,dispose184
1.35260468312392,103.944682575198,0,Point,kml_185,NEA Producer Responsibility Scheme - ALBA E-waste Recycling Programme,"CAPITALAND TAMPINES MALL 4 TAMPINES CENTRAL 5, CUSTOMER SERVICE COUNTER 529510","Bin collection; E-waste accepted: ICT equipment, Batteries and Lamps only",https://alba-ewaste.sg,dispose185
1.33379422560311,103.739690846607,0,Point,kml_186,NEA Producer Responsibility Scheme - ALBA E-waste Recycling Programme,"CASH CONVERTERS @ 135 JURONG GATEWAY ROAD 135 JURONG GATEWAY ROAD, BUYER'S OFFICE 600135","Bin collection; E-waste accepted: ICT equipment, Batteries and Lamps only",https://alba-ewaste.sg,dispose186
1.33166814763334,103.850487240051,0,Point,kml_187,NEA Producer Responsibility Scheme - ALBA E-waste Recycling Programme,"CASH CONVERTERS @ 192 TOA PAYOH LORONG 4 192 TOA PAYOH LORONG 4, BUYER'S OFFICE 310192","Bin collection; E-waste accepted: ICT equipment, Batteries and Lamps only",https://alba-ewaste.sg,dispose187
1.3548010802759,103.944458084939,0,Point,kml_188,NEA Producer Responsibility Scheme - ALBA E-waste Recycling Programme,"CASH CONVERTERS @ 510 TAMPINES CENTRAL 1 510 TAMPINES CENTRAL 1, BUYER'S OFFICE 520510","Bin collection; E-waste accepted: ICT equipment, Batteries and Lamps only",https://alba-ewaste.sg,dispose188
1.37062493508975,103.848045714133,0,Point,kml_189,NEA Producer Responsibility Scheme - ALBA E-waste Recycling Programme,"CASH CONVERTERS @ 710A ANG MO KIO AVE 8 710A ANG MO KIO AVE 8, GROUND FLOOR - BUYER’S OFFICE 561710","Bin collection; E-waste accepted: ICT equipment, Batteries and Lamps only",https://alba-ewaste.sg,dispose189
1.43610784516084,103.78568873357,0,Point,kml_190,NEA Producer Responsibility Scheme - ALBA E-waste Recycling Programme,"CAUSEWAY POINT 1 WOODLANDS SQUARE, MAIN ENTRANCE 738099","Bin collection; E-waste accepted: ICT equipment, Batteries and Lamps only",https://alba-ewaste.sg,dispose190
1.30099278662962,103.838305765666,0,Point,kml_191,NEA Producer Responsibility Scheme - ALBA E-waste Recycling Programme,"313@SOMERSET 313 ORCHARD ROAD, LEVEL 1 DISCOVERY WALK, NEAR MONEY CHANGER 238895","Bin collection; E-waste accepted: ICT equipment, Batteries and Lamps only",https://alba-ewaste.sg,dispose191
1.28743641371285,103.841175875581,0,Point,kml_192,NEA Producer Responsibility Scheme - ALBA E-waste Recycling Programme,54 CHIN SWEE RD 54 CHIN SWEE ROAD 160054,"Bin collection; E-waste accepted: ICT equipment, Batteries and Lamps only",https://alba-ewaste.sg,dispose192
1.32193941449496,103.869836311935,0,Point,kml_193,NEA Producer Responsibility Scheme - ALBA E-waste Recycling Programme,"68 GEYLANG BAHRU 68 GEYLANG BAHRU, SUSTAINABILITY CORNER, VOID DECK 330068","Bin collection; E-waste accepted: ICT equipment, Batteries and Lamps only",https://alba-ewaste.sg,dispose193
1.43713052411728,103.795289911925,0,Point,kml_194,NEA Producer Responsibility Scheme - ALBA E-waste Recycling Programme,"888 PLAZA 888 WOODLANDS DRIVE 50, 888 PLAZA, COMMON CORRIDOR 730888","Bin collection; E-waste accepted: ICT equipment, Batteries and Lamps only",https://alba-ewaste.sg,dispose194
1.42714316438522,103.792288491963,0,Point,kml_195,NEA Producer Responsibility Scheme - ALBA E-waste Recycling Programme,"ACE THE PLACE CC 120 WOODLANDS AVENUE 1, ACE THE PLACE CC, BESIDE CC OFFICE ENTRANCE 739069","Bin collection; E-waste accepted: ICT equipment, Batteries and Lamps only",https://alba-ewaste.sg,dispose195
1.28675701806155,103.800926227264,0,Point,kml_197,NEA Producer Responsibility Scheme - ALBA E-waste Recycling Programme,"ALEXANDRA HOSPITAL 378 ALEXANDRA ROAD, BLK 21, LEVEL 1 159964","Bin collection; E-waste accepted: ICT equipment, Batteries and Lamps only",https://alba-ewaste.sg,dispose197
1.39712792587372,103.886665682021,0,Point,kml_198,NEA Producer Responsibility Scheme - ALBA E-waste Recycling Programme,"ANCHORVALE CC 59 ANCHORVALE ROAD, ANCHORVALE COMMUNITY CLUB, MAIN LOBBY 544965","Bin collection; E-waste accepted: ICT equipment, Batteries and Lamps only",https://alba-ewaste.sg,dispose198
1.36676688224614,103.840742247718,0,Point,kml_199,NEA Producer Responsibility Scheme - ALBA E-waste Recycling Programme,"ANG MO KIO CC 795 ANG MO KIO AVENUE 1, MAIN LOBBY ENTRANCE 569976","Bin collection; E-waste accepted: ICT equipment, Batteries and Lamps only",https://alba-ewaste.sg,dispose199
1.33601658810029,103.94989784686,0,Point,kml_203,NEA Producer Responsibility Scheme - ALBA E-waste Recycling Programme,"BEDOK INDUSTRIAL PARK E 3013 BEDOK INDUSTRIAL PARK E, PAVILION 489978","Bin collection; E-waste accepted: ICT equipment, Batteries and Lamps only",https://alba-ewaste.sg,dispose203
1.32340559869253,103.941684426108,0,Point,kml_204,NEA Producer Responsibility Scheme - ALBA E-waste Recycling Programme,"BEDOK IXORA RC 51 NEW UPPER CHANGI ROAD, #01-1500 461051","Bin collection; E-waste accepted: ICT equipment, Batteries and Lamps only",https://alba-ewaste.sg,dispose204
1.37832449865682,103.903844425783,0,Point,kml_205,NEA Producer Responsibility Scheme - ALBA E-waste Recycling Programme,"BEDOK RESERVOIR-PUNGGOL CAPEVIEW RC 477A UPPER SERANGOON VIEW, LEVEL 1 531477","Bin collection; E-waste accepted: ICT equipment, Batteries and Lamps only",https://alba-ewaste.sg,dispose205
1.32477207359645,103.929267654667,0,Point,kml_206,NEA Producer Responsibility Scheme - ALBA E-waste Recycling Programme,"BEST DENKI @ BEDOK MALL 311 NEW UPPER CHANGI ROAD, BEDOK MALL, #B1-01/43/44, BASEMENT 1 MAIN ENTRANCE 467360","Bin collection; E-waste accepted: ICT equipment, Batteries and Lamps only",https://alba-ewaste.sg,dispose206
1.32597469054023,103.869091550469,0,Point,kml_207,NEA Producer Responsibility Scheme - ALBA E-waste Recycling Programme,MOM SERVICES CENTRE 1500 BENDEMEER ROAD 339946,"Bin collection; E-waste accepted: ICT equipment, Batteries and Lamps only",https://alba-ewaste.sg,dispose207
1.29380235096694,103.831757911005,0,Point,kml_208,NEA Producer Responsibility Scheme - ALBA E-waste Recycling Programme,"BEST DENKI @ GREAT WORLD CITY 1 KIM SENG PROMENADE, GREAT WORLD CITY, #07-01 237994","Bin collection; E-waste accepted: ICT equipment, Batteries and Lamps only",https://alba-ewaste.sg,dispose208
1.37838922104193,103.763150183936,0,Point,kml_209,NEA Producer Responsibility Scheme - ALBA E-waste Recycling Programme,"BEST DENKI @ HILLION MALL 17 PETIR ROAD, HILLION MALL, #B1-65, BASEMENT 1 678278","Bin collection; E-waste accepted: ICT equipment, Batteries and Lamps only",https://alba-ewaste.sg,dispose209
1.33491758760096,103.746877132988,0,Point,kml_210,NEA Producer Responsibility Scheme - ALBA E-waste Recycling Programme,"BEST DENKI @ IMM 2 JURONG EAST STREET 21, IMM, #03-33, IN-STORE 609601","Bin collection; E-waste accepted: ICT equipment, Batteries and Lamps only",https://alba-ewaste.sg,dispose210
1.35023943091411,103.848477625175,0,Point,kml_211,NEA Producer Responsibility Scheme - ALBA E-waste Recycling Programme,"BEST DENKI @ JUNCTION 8 SHOPPING CENTRE 9 BISHAN PLACE, JUNCTION 8 SHOPPING CENTRE, #03-02, IN-STORE 579837","Bin collection; E-waste accepted: ICT equipment, Batteries and Lamps only",https://alba-ewaste.sg,dispose211
1.33936403006074,103.705308190786,0,Point,kml_212,NEA Producer Responsibility Scheme - ALBA E-waste Recycling Programme,"BEST DENKI @ JURONG POINT 63 JURONG WEST CENTRAL 3, JURONG POINT, #B1-92, IN-STORE 648331","Bin collection; E-waste accepted: ICT equipment, Batteries and Lamps only",https://alba-ewaste.sg,dispose212
1.30242417185937,103.834676124776,0,Point,kml_213,NEA Producer Responsibility Scheme - ALBA E-waste Recycling Programme,"BEST DENKI @ NGEE ANN CITY TOWER A 391A ORCHARD ROAD, NGEE ANN CITY TOWER A, LEVEL 5 238873","Bin collection; E-waste accepted: ICT equipment, Batteries and Lamps only",https://alba-ewaste.sg,dispose213
1.30126068020292,103.905339493757,0,Point,kml_214,NEA Producer Responsibility Scheme - ALBA E-waste Recycling Programme,"BEST DENKI @ PARKWAY PARADE 80 MARINE PARADE ROAD, PARKWAY PARADE, #03-29, IN-STORE 449269","Bin collection; E-waste accepted: ICT equipment, Batteries and Lamps only",https://alba-ewaste.sg,dispose214
1.30083413035643,103.845072743243,0,Point,kml_215,NEA Producer Responsibility Scheme - ALBA E-waste Recycling Programme,"BEST DENKI @ PLAZA SINGAPURA 68 ORCHARD ROAD, PLAZA SINGAPURA, #03-39, BESIDE CASHIER COUNTER 238839","Bin collection; E-waste accepted: ICT equipment, Batteries and Lamps only",https://alba-ewaste.sg,dispose215
1.31555354278891,103.764596439183,0,Point,kml_216,NEA Producer Responsibility Scheme - ALBA E-waste Recycling Programme,"BEST DENKI @ THE CLEMENTI MALL 3155 COMMONWEALTH AVENUE WEST, THE CLEMENTI MALL, #04-46/47/48/49, IN-STORE 129588","Bin collection; E-waste accepted: ICT equipment, Batteries and Lamps only",https://alba-ewaste.sg,dispose216
1.26434458740521,103.822476141372,0,Point,kml_217,NEA Producer Responsibility Scheme - ALBA E-waste Recycling Programme,"BEST DENKI @ VIVOCITY 1 HARBOURFRONT WALK, VIVOCITY, #02-07, IN-STORE CUSTOMER SERVICE COUNTER 98585","Bin collection; E-waste accepted: ICT equipment, Batteries and Lamps only",https://alba-ewaste.sg,dispose217
1.40648462025652,103.902131834448,0,Point,kml_218,NEA Producer Responsibility Scheme - ALBA E-waste Recycling Programme,"BEST DENKI @ WATERWAY POINT 83 PUNGGOL CENTRAL, WATERWAY POINT, EAST WING, MAIN ENTRANCE 828761","Bin collection; E-waste accepted: ICT equipment, Batteries and Lamps only",https://alba-ewaste.sg,dispose218
1.34691477711332,103.848684462553,0,Point,kml_219,NEA Producer Responsibility Scheme - ALBA E-waste Recycling Programme,"BISHAN EAST ZONE 1 RC 112 BISHAN STREET 12, VOID DECK 570112","Bin collection; E-waste accepted: ICT equipment, Batteries and Lamps only",https://alba-ewaste.sg,dispose219
1.35081979568161,103.711815326114,0,Point,kml_220,NEA Producer Responsibility Scheme - ALBA E-waste Recycling Programme,"BOON LAY VIEW RN 218D BOON LAY AVE #01-309, DROP OFF AREA 640218","Bin collection; E-waste accepted: ICT equipment, Batteries and Lamps only",https://alba-ewaste.sg,dispose220
1.34516323576685,103.707906545317,0,Point,kml_221,NEA Producer Responsibility Scheme - ALBA E-waste Recycling Programme,BOON LAY ZONE C RN 260 BOON LAY DRIVE 640260,"Bin collection; E-waste accepted: ICT equipment, Batteries and Lamps only",https://alba-ewaste.sg,dispose221
1.34480107292392,103.702226455167,0,Point,kml_222,NEA Producer Responsibility Scheme - ALBA E-waste Recycling Programme,"BOON LAY ZONE F RN 674A JURONG WEST STREET 65, #01-66, VOID DECK 641674","Bin collection; E-waste accepted: ICT equipment, Batteries and Lamps only",https://alba-ewaste.sg,dispose222
1.34969165516928,103.877186798068,0,Point,kml_223,NEA Producer Responsibility Scheme - ALBA E-waste Recycling Programme,"BRADDELL HEIGHTS ZONE B RC 2A LORONG LEW LIAN, MULTI STOREY CARPARK, LEVEL 1 532002","Bin collection; E-waste accepted: ICT equipment, Batteries and Lamps only",https://alba-ewaste.sg,dispose223
1.38831311572333,103.893923640409,0,Point,kml_224,NEA Producer Responsibility Scheme - ALBA E-waste Recycling Programme,"COMPASSVALE SOUTHGATE RC 201B COMPASSVALE DRIVE, COMPASSVALE SOUTHGATE RC, #01-545, VOID DECK 542201","Bin collection; E-waste accepted: ICT equipment, Batteries and Lamps only",https://alba-ewaste.sg,dispose224
1.42882999981167,103.836049999566,0,Point,kml_225,NEA Producer Responsibility Scheme - ALBA E-waste Recycling Programme,"HARVEY NORMAN @ NORTHPOINT CITY 930 YISHUN AVENUE 2, NORTHPOINT CITY, SOUTH WING, #B1-136/138, OUTLET ENTRANCE 769098","Bin collection; E-waste accepted: ICT equipment, Batteries and Lamps only",https://alba-ewaste.sg,dispose225
1.42882999981167,103.836049999566,0,Point,kml_226,NEA Producer Responsibility Scheme - ALBA E-waste Recycling Programme,"HARVEY NORMAN @ NORTHPOINT CITY 930 YISHUN AVENUE 2, NORTHPOINT CITY, SOUTH WING, #B1-136/138, OUTLET ENTRANCE 769098","Bin collection; E-waste accepted: ICT equipment, Batteries and Lamps only",https://alba-ewaste.sg,dispose226
1.30136068026052,103.905339493897,0,Point,kml_227,NEA Producer Responsibility Scheme - ALBA E-waste Recycling Programme,"HARVEY NORMAN @ PARKWAY PARADE 80 MARINE PARADE ROAD, PARKWAY PARADE, #02-34, IN-STORE 449269","Bin collection; E-waste accepted: ICT equipment, Batteries and Lamps only",https://alba-ewaste.sg,dispose227
1.39139684615654,103.8762370074,0,Point,kml_228,NEA Producer Responsibility Scheme - ALBA E-waste Recycling Programme,"HARVEY NORMAN @ SELETAR MALL 33 SENGKANG WEST AVE, SELETAR MALL, #03-25, IN-STORE 797653","Bin collection; E-waste accepted: ICT equipment, Batteries and Lamps only",https://alba-ewaste.sg,dispose228
1.29571152471411,103.858552585802,0,Point,kml_229,NEA Producer Responsibility Scheme - ALBA E-waste Recycling Programme,"HARVEY NORMAN @ SUNTEC CITY MALL 3 TEMASEK BOULEVARD, SUNTEC CITY MALL, #01-634, IN-STORE 38983","Bin collection; E-waste accepted: ICT equipment, Batteries and Lamps only",https://alba-ewaste.sg,dispose229
1.30151446718831,103.84005442707,0,Point,kml_230,NEA Producer Responsibility Scheme - ALBA E-waste Recycling Programme,"HARVEY NORMAN @ THE CENTREPOINT 176 ORCHARD ROAD, THE CENTREPOINT, #03-31 238843","Bin collection; E-waste accepted: ICT equipment, Batteries and Lamps only",https://alba-ewaste.sg,dispose230
1.32315929819509,103.920979979665,0,Point,kml_231,NEA Producer Responsibility Scheme - ALBA E-waste Recycling Programme,"HARVEY NORMAN @ VIVA BUSINESS PARK 750B CHAI CHEE ROAD #01-01 TO 06, TO 12, #02-02 TO 06 BUSINESS PARK, #01-09, IN-STORE 469002","Bin collection; E-waste accepted: ICT equipment, Batteries and Lamps only",https://alba-ewaste.sg,dispose231
1.34992152864348,103.749171989803,0,Point,kml_232,NEA Producer Responsibility Scheme - ALBA E-waste Recycling Programme,"HARVEY NORMAN @ WEST MALL 1 BUKIT BATOK CENTRAL LINK, WEST MALL, #03-06 TO 09, IN-STORE WALKWAY 658713","Bin collection; E-waste accepted: ICT equipment, Batteries and Lamps only",https://alba-ewaste.sg,dispose232
1.33415752021654,103.742766489695,0,Point,kml_233,NEA Producer Responsibility Scheme - ALBA E-waste Recycling Programme,"HARVEY NORMAN @ WESTGATE 3 GATEWAY DRIVE, WESTGATE, #B1-32, IN-STORE 608532","Bin collection; E-waste accepted: ICT equipment, Batteries and Lamps only",https://alba-ewaste.sg,dispose233
1.33202548884876,103.848335263648,0,Point,kml_234,NEA Producer Responsibility Scheme - ALBA E-waste Recycling Programme,"HDB HUB 6 LORONG TOA PAYOH, HDB HUB, OPPOSITE OLD CHANG KEE 310480","Bin collection; E-waste accepted: ICT equipment, Batteries and Lamps only",https://alba-ewaste.sg,dispose234
1.33576029212184,103.865596996653,0,Point,kml_235,NEA Producer Responsibility Scheme - ALBA E-waste Recycling Programme,"HDB-POTONG PASIR 121 POTONG PASIR AVENUE, HDB-POTONG PASIR, MAIN ENTRANCE 350121","Bin collection; E-waste accepted: ICT equipment, Batteries and Lamps only",https://alba-ewaste.sg,dispose235
1.28043197244411,103.83844803171,0,Point,kml_236,NEA Producer Responsibility Scheme - ALBA E-waste Recycling Programme,"HEALTH SCIENCE AUTHORITY 11 OUTRAM ROAD, LEVEL 1 169078","Bin collection; E-waste accepted: ICT equipment, Batteries and Lamps only",https://alba-ewaste.sg,dispose236
1.32662388599027,103.931806160357,0,Point,kml_237,NEA Producer Responsibility Scheme - ALBA E-waste Recycling Programme,"HEARTBEAT @ BEDOK (KAMPONG CHAI CHEE CC) 11 BEDOK NORTH STREET 1, MAIN ATRIUM 469662","Bin collection; E-waste accepted: ICT equipment, Batteries and Lamps only",https://alba-ewaste.sg,dispose237
1.28243134929954,103.805032354806,0,Point,kml_238,NEA Producer Responsibility Scheme - ALBA E-waste Recycling Programme,"HEWLETT-PACKARD @ HP ENTERPRISE 1 DEPOT CLOSE, HP ENTERPRISE 109841","Bin collection; E-waste accepted: ICT equipment, Batteries and Lamps only",https://alba-ewaste.sg,dispose238
1.36194319606651,103.764296963277,0,Point,kml_239,NEA Producer Responsibility Scheme - ALBA E-waste Recycling Programme,"HILLVIEW CC 1 HILLVIEW RISE, HILLVIEW CC, MAIN LOBBY 667970","Bin collection; E-waste accepted: ICT equipment, Batteries and Lamps only",https://alba-ewaste.sg,dispose239
1.26444458666504,103.822476140957,0,Point,kml_262,NEA Producer Responsibility Scheme - ALBA E-waste Recycling Programme,"FAIRPRICE @ VIVOCITY 1 HARBOURFRONT WALK, VIVOCITY, #B2-23, IN-STORE CUSTOMER SERVICE COUNTER 98585","Bin collection; E-waste accepted: ICT equipment, Batteries and Lamps only",https://alba-ewaste.sg,dispose262
1.38372944761538,103.770550302452,0,Point,kml_271,NEA Producer Responsibility Scheme - ALBA E-waste Recycling Programme,"FAJAR SHOPPING CENTRE 445 FAJAR ROAD, FAJAR SHOPPING CENTRE, COMMON CORRIDOR 670445","Bin collection; E-waste accepted: ICT equipment, Batteries and Lamps only",https://alba-ewaste.sg,dispose271
1.31883225339034,103.80806196781,0,Point,kml_272,NEA Producer Responsibility Scheme - ALBA E-waste Recycling Programme,"FARRER GARDENS RC 4 QUEEN’S ROAD, FARRER GARDENS RC 260004","Bin collection; E-waste accepted: ICT equipment, Batteries and Lamps only",https://alba-ewaste.sg,dispose272
1.36882724685259,103.834706643007,0,Point,kml_273,NEA Producer Responsibility Scheme - ALBA E-waste Recycling Programme,"FOOD CANOPY COFFEE SHOP 260 ANG MO KIO STREET 21, #01-06 560260","Bin collection; E-waste accepted: ICT equipment, Batteries and Lamps only",https://alba-ewaste.sg,dispose273
1.42952981919588,103.774811852371,0,Point,kml_274,NEA Producer Responsibility Scheme - ALBA E-waste Recycling Programme,"FUCHUN CC 1 WOODLANDS STREET 31, FUCHUN CC, LIFT LOBBY 738581","Bin collection; E-waste accepted: ICT equipment, Batteries and Lamps only",https://alba-ewaste.sg,dispose274
1.29912656468508,103.787402738598,0,Point,kml_275,NEA Producer Responsibility Scheme - ALBA E-waste Recycling Programme,"FUSIONOPOLIS ONE 3 FUSIONOPOLIS WAY, BASEMENT 2 CONNEXIS 138633","Bin collection; E-waste accepted: ICT equipment, Batteries and Lamps only",https://alba-ewaste.sg,dispose275
1.37167717408068,103.864646494037,0,Point,kml_276,NEA Producer Responsibility Scheme - ALBA E-waste Recycling Programme,"GAIN CITY @ ANG MO KIO INDUSTIRAL PARK 2 8 ANG MO KIO INDUSTRIAL PARK 2, MAIN ENTRANCE 569500","Bin collection; E-waste accepted: ICT equipment, Batteries and Lamps only",https://alba-ewaste.sg,dispose276
1.41286386504426,103.746015735101,0,Point,kml_277,NEA Producer Responsibility Scheme - ALBA E-waste Recycling Programme,"GAIN CITY @ GAIN CITY MEGASTORE @ SUNGEI KADUT 71 SUNGEI KADUT DRIVE, GAIN CITY MEGASTORE @ SUNGEI KADUT, LEVEL 1 LIFT LOBBY 729577","Bin collection; E-waste accepted: ICT equipment, Batteries and Lamps only",https://alba-ewaste.sg,dispose277
1.29098168417274,103.857647591657,0,Point,kml_278,NEA Producer Responsibility Scheme - ALBA E-waste Recycling Programme,"GAIN CITY @ MARINA SQUARE 6 RAFFLES BOULEVARD, MARINA SQUARE, #03 - 223 / 232, MAIN ENTRANCE 39594","Bin collection; E-waste accepted: ICT equipment, Batteries and Lamps only",https://alba-ewaste.sg,dispose278
1.35442321225971,103.945141172349,0,Point,kml_279,NEA Producer Responsibility Scheme - ALBA E-waste Recycling Programme,"GAIN CITY @ TAMPINES 1 10 TAMPINES CENTRAL 1, TAMPINES 1, #B1-09, MAIN ENTRANCE 529536","Bin collection; E-waste accepted: ICT equipment, Batteries and Lamps only",https://alba-ewaste.sg,dispose279
1.34874164660607,103.697739629685,0,Point,kml_280,NEA Producer Responsibility Scheme - ALBA E-waste Recycling Programme,"GEK POH SHOPPING CENTRE 762 JURONG WEST STREET 75, GEK POH SHOPPING CENTRE, PRIME SUPERMARKET ENTRANCE 640762","Bin collection; E-waste accepted: ICT equipment, Batteries and Lamps only",https://alba-ewaste.sg,dispose280
1.32487131937094,103.746667566234,0,Point,kml_281,NEA Producer Responsibility Scheme - ALBA E-waste Recycling Programme,"GERMAN CENTRE 25 INTERNATIONAL BUSINESS PARK, MAIN LOBBY 609916","Bin collection; E-waste accepted: ICT equipment, Batteries and Lamps only",https://alba-ewaste.sg,dispose281
1.35905888929944,103.749456842385,0,Point,kml_291,NEA Producer Responsibility Scheme - ALBA E-waste Recycling Programme,"HONG KAH NORTH CC 30 BUKIT BATOK STREET 31, HONG KAH NORTH CC, REAR ENTRANCE 659440","Bin collection; E-waste accepted: ICT equipment, Batteries and Lamps only",https://alba-ewaste.sg,dispose291
1.36472603727626,103.89225907957,0,Point,kml_292,NEA Producer Responsibility Scheme - ALBA E-waste Recycling Programme,"HOUGANG CC 35 HOUGANG AVENUE 3, MAIN ENTRANCE 538840","Bin collection; E-waste accepted: ICT equipment, Batteries and Lamps only",https://alba-ewaste.sg,dispose292
1.30547836078275,103.904845377172,0,Point,kml_293,NEA Producer Responsibility Scheme - ALBA E-waste Recycling Programme,"I12 KATONG 112 EAST COAST ROAD, I12 KATONG, LEVEL 1 428802","Bin collection; E-waste accepted: ICT equipment, Batteries and Lamps only",https://alba-ewaste.sg,dispose293
1.30384327216879,103.872750702347,0,Point,kml_294,NEA Producer Responsibility Scheme - ALBA E-waste Recycling Programme,"FAIRPRICE @ KALLANG WAVE MALL 1 STADIUM PLACE LEVEL 1 #01-29, CASHIER AREA 397628","Bin collection; E-waste accepted: ICT equipment, Batteries and Lamps only",https://alba-ewaste.sg,dispose294
1.35064579504166,103.872590476577,0,Point,kml_301,NEA Producer Responsibility Scheme - ALBA E-waste Recycling Programme,"FAIRPRICE @ NEX MALL 23 SERANGOON CENTRAL, NEX MALL, #03-42, IN-STORE 556083","Bin collection; E-waste accepted: ICT equipment, Batteries and Lamps only",https://alba-ewaste.sg,dispose301
1.30106068008745,103.905339494376,0,Point,kml_307,NEA Producer Responsibility Scheme - ALBA E-waste Recycling Programme,"FAIRPRICE @ PARKWAY PARADE 80 MARINE PARADE RD, PARKWAY PARADE, #03-28, CASHIER AREA 449269","Bin collection; E-waste accepted: ICT equipment, Batteries and Lamps only",https://alba-ewaste.sg,dispose307
1.38529556339226,103.766170532015,0,Point,kml_335,NEA Producer Responsibility Scheme - ALBA E-waste Recycling Programme,"GREENRIDGE SHOPPING CENTRE 524A JELAPANG ROAD, GREENRIDGE SHOPPING CENTRE, GROUND FLOOR - SECURITY COUNTER 671524","Bin collection; E-waste accepted: ICT equipment, Batteries and Lamps only",https://alba-ewaste.sg,dispose335
1.27679934538372,103.845460373416,0,Point,kml_336,NEA Producer Responsibility Scheme - ALBA E-waste Recycling Programme,"GUOCO TOWER 7 WALLICH STREET, GUOCO TOWER, B2 TOILET ENTRANCE 78884","Bin collection; E-waste accepted: ICT equipment, Batteries and Lamps only",https://alba-ewaste.sg,dispose336
1.26401293183675,103.820051009962,0,Point,kml_337,NEA Producer Responsibility Scheme - ALBA E-waste Recycling Programme,"HARBOURFRONT CENTRE 1 MARITIME SQUARE, LOADING BAY 99253","Bin collection; E-waste accepted: ICT equipment, Batteries and Lamps only",https://alba-ewaste.sg,dispose337
1.26499758996015,103.819027061261,0,Point,kml_338,NEA Producer Responsibility Scheme - ALBA E-waste Recycling Programme,"HARBOURFRONT TOWER ONE 1 HARBOURFRONT PLACE, MAIN ENTRANCE 98633","Bin collection; E-waste accepted: ICT equipment, Batteries and Lamps only",https://alba-ewaste.sg,dispose338
1.32480102639129,103.932384004974,0,Point,kml_339,NEA Producer Responsibility Scheme - ALBA E-waste Recycling Programme,"HARVEY NORMAN @ BEDOK POINT 799 NEW UPPER CHANGI ROAD, BEDOK POINT, #B1-01/02, #B-16/2 AND #B1-K1/K14 467351","Bin collection; E-waste accepted: ICT equipment, Batteries and Lamps only",https://alba-ewaste.sg,dispose339
1.38001650654971,103.764317068747,0,Point,kml_340,NEA Producer Responsibility Scheme - ALBA E-waste Recycling Programme,"HARVEY NORMAN @ BUKIT PANJANG PLAZA 1 JELEBU ROAD, BUKIT PANJANG PLAZA, #03-06, SIDE ENTRANCE 677743","Bin collection; E-waste accepted: ICT equipment, Batteries and Lamps only",https://alba-ewaste.sg,dispose340
1.37285425711537,103.847607915877,0,Point,kml_341,NEA Producer Responsibility Scheme - ALBA E-waste Recycling Programme,"HARVEY NORMAN @ DJITSUN MALL 5 ANG MO KIO CENTRAL 3, DJITSUN MALL, #02-01/02, BESIDE CASHIER COUNTER 569663","Bin collection; E-waste accepted: ICT equipment, Batteries and Lamps only",https://alba-ewaste.sg,dispose341
1.37263315585843,103.893883460165,0,Point,kml_342,NEA Producer Responsibility Scheme - ALBA E-waste Recycling Programme,"HARVEY NORMAN @ HOUGANG MALL 90 HOUGANG AVENUE 10, HOUGANG MALL, #04-15, IN-STORE 538766","Bin collection; E-waste accepted: ICT equipment, Batteries and Lamps only",https://alba-ewaste.sg,dispose342
1.35779861319234,103.886092077245,0,Point,kml_343,NEA Producer Responsibility Scheme - ALBA E-waste Recycling Programme,"PAYA LEBAR KOVAN CC 207 HOUGANG STREET 21, MAIN ENTRANCE LOBBY 530207","Bin collection; E-waste accepted: ICT equipment, Batteries and Lamps only",https://alba-ewaste.sg,dispose343
1.31758231125176,103.892832205082,0,Point,kml_344,NEA Producer Responsibility Scheme - ALBA E-waste Recycling Programme,"PAYA LEBAR QUARTER (PLQ) 10 PAYA LEBAR ROAD, PAYA LEBAR QUARTER (PLQ), IN-STORE 409057","Bin collection; E-waste accepted: ICT equipment, Batteries and Lamps only",https://alba-ewaste.sg,dispose344
1.3188148698027,103.892580778371,0,Point,kml_345,NEA Producer Responsibility Scheme - ALBA E-waste Recycling Programme,"PAYA LEBAR SQUARE 60 PAYA LEBAR RD, PAYA LEBAR SQUARE, LOADING BAY AREA 409051","Bin collection; E-waste accepted: ICT equipment, Batteries and Lamps only",https://alba-ewaste.sg,dispose345
1.35313872010377,103.887727360691,0,Point,kml_346,NEA Producer Responsibility Scheme - ALBA E-waste Recycling Programme,"PAYA LEBAR ZONE 5 RC 116 HOUGANG AVENUE 1, PAYA LEBAR ZONE 5 RC, #01-1206, VOID DECK 530116","Bin collection; E-waste accepted: ICT equipment, Batteries and Lamps only",https://alba-ewaste.sg,dispose346
1.3071925037876,103.882585422902,0,Point,kml_347,NEA Producer Responsibility Scheme - ALBA E-waste Recycling Programme,"PINE CLOSE RC 5 PINE CLOSE, #01-141, VOID DECK 391005","Bin collection; E-waste accepted: ICT equipment, Batteries and Lamps only",https://alba-ewaste.sg,dispose347
1.34167331876535,103.697244542711,0,Point,kml_348,NEA Producer Responsibility Scheme - ALBA E-waste Recycling Programme,"PIONEER MALL 638 JURONG WEST STREET 61, PIONEER MALL, MAIN LOBBY NEAR MACDONALDS 640638","Bin collection; E-waste accepted: ICT equipment, Batteries and Lamps only",https://alba-ewaste.sg,dispose348
1.33689137703807,103.696638808844,0,Point,kml_349,NEA Producer Responsibility Scheme - ALBA E-waste Recycling Programme,"PIONEER ZONE 12 RN 653A JURONG WEST ST 61, PIONEER ZONE 12 RN, #01-422, VOID DECK 641653","Bin collection; E-waste accepted: ICT equipment, Batteries and Lamps only",https://alba-ewaste.sg,dispose349
1.33925339793258,103.700219197893,0,Point,kml_350,NEA Producer Responsibility Scheme - ALBA E-waste Recycling Programme,"PIONEER ZONE 9 RN 602 JURONG WEST ST 65, VOID DECK 640602","Bin collection; E-waste accepted: ICT equipment, Batteries and Lamps only",https://alba-ewaste.sg,dispose350
1.29659999159506,103.853993993762,0,Point,kml_353,NEA Producer Responsibility Scheme - ALBA E-waste Recycling Programme,"POPULAR SINGAPORE @ BRAS BASAH COMPLEX 231 BRAS BASAH COMPLEX, #04-23/ 33 180231","Bin collection; E-waste accepted: ICT equipment, Batteries and Lamps only",https://alba-ewaste.sg,dispose353
1.33263381464111,103.867151674399,0,Point,kml_380,NEA Producer Responsibility Scheme - ALBA E-waste Recycling Programme,"POTONG PASIR CC 6 POTONG PASIR AVENUE 2, CONSTITUENCY OFFICE 358361","Bin collection; E-waste accepted: ICT equipment, Batteries and Lamps only",https://alba-ewaste.sg,dispose380
1.39344316537988,103.913664590328,0,Point,kml_381,NEA Producer Responsibility Scheme - ALBA E-waste Recycling Programme,"PUNGGOL 21 CC 80 PUNGGOL FIELD, PUNGGOL 21 CC, MAIN LOBBY 828815","Bin collection; E-waste accepted: ICT equipment, Batteries and Lamps only",https://alba-ewaste.sg,dispose381
1.3987782762208,103.902910892632,0,Point,kml_382,NEA Producer Responsibility Scheme - ALBA E-waste Recycling Programme,"PUNGGOL CLOVER RN 204A  204A PUNGGOL FIELD, PUNGGOL CLOVER RN, #01-288, VOID DECK 821204","Bin collection; E-waste accepted: ICT equipment, Batteries and Lamps only",https://alba-ewaste.sg,dispose382
1.39740421584512,103.908973750337,0,Point,kml_383,NEA Producer Responsibility Scheme - ALBA E-waste Recycling Programme,"PUNGGOL OASIS RC 176C EDGEFIELD PLAINS, PUNGGOL OASIS RC, #01-569, VOID DECK 821175","Bin collection; E-waste accepted: ICT equipment, Batteries and Lamps only",https://alba-ewaste.sg,dispose383
1.41119009693752,103.900653796856,0,Point,kml_384,NEA Producer Responsibility Scheme - ALBA E-waste Recycling Programme,"PUNGGOL PARC TERRACE RN 312B SUMANG LINK, #01-171 823312","Bin collection; E-waste accepted: ICT equipment, Batteries and Lamps only",https://alba-ewaste.sg,dispose384
1.40331378130354,103.898358924994,0,Point,kml_385,NEA Producer Responsibility Scheme - ALBA E-waste Recycling Programme,"PUNGGOL SAPPHIRALD RN 268D PUNGGOL FIELD, PUNGGOL SAPPHIRALD RN, #01-173, VOID DECK 824268","Bin collection; E-waste accepted: ICT equipment, Batteries and Lamps only",https://alba-ewaste.sg,dispose385
1.40328429167407,103.907288601176,0,Point,kml_386,NEA Producer Responsibility Scheme - ALBA E-waste Recycling Programme,"PUNGGOL VISTA CC 602 PUNGGOL CENTRAL, PUNGGOL VISTA CC, MAIN ENTRANCE 820602","Bin collection; E-waste accepted: ICT equipment, Batteries and Lamps only",https://alba-ewaste.sg,dispose386
1.40453408560783,103.895665531959,0,Point,kml_387,NEA Producer Responsibility Scheme - ALBA E-waste Recycling Programme,"PUNGGOL WEST CC 259C PUNGGOL FIELD, PUNGGOL WEST CC, VOID DECK 823259","Bin collection; E-waste accepted: ICT equipment, Batteries and Lamps only",https://alba-ewaste.sg,dispose387
1.24691690903841,103.842123045179,0,Point,kml_388,NEA Producer Responsibility Scheme - ALBA E-waste Recycling Programme,"QUAYSIDE ISLE 31 OCEAN WAY, BASEMENT CARPARK 98375","Bin collection; E-waste accepted: ICT equipment, Batteries and Lamps only",https://alba-ewaste.sg,dispose388
1.29915024244032,103.801305105863,0,Point,kml_389,NEA Producer Responsibility Scheme - ALBA E-waste Recycling Programme,"QUEENSTOWN CC 365 COMMONWEALTH AVE, MAIN ENTRANCE 149732","Bin collection; E-waste accepted: ICT equipment, Batteries and Lamps only",https://alba-ewaste.sg,dispose389
1.29400999929591,103.853104382124,0,Point,kml_390,NEA Producer Responsibility Scheme - ALBA E-waste Recycling Programme,RAFFLES CITY SHOPPING CENTRE 252 NORTH BRIDGE RD 179103,"Bin collection; E-waste accepted: ICT equipment, Batteries and Lamps only",https://alba-ewaste.sg,dispose390
1.3688271398255,103.950296238773,0,Point,kml_391,NEA Producer Responsibility Scheme - ALBA E-waste Recycling Programme,"REPAIR KOPITIAM 565 PASIR RIS ST 51, REPAIR KOPITIAM, VOID DECK 510565","Bin collection; E-waste accepted: ICT equipment, Batteries and Lamps only",https://alba-ewaste.sg,dispose391
1.33985200369362,103.706685012801,0,Point,kml_392,NEA Producer Responsibility Scheme - ALBA E-waste Recycling Programme,"HARVEY NORMAN @ JURONG POINT 1 JURONG WEST CENTRAL 2, JURONG POINT, #03-37, IN-STORE 648886","Bin collection; E-waste accepted: ICT equipment, Batteries and Lamps only",https://alba-ewaste.sg,dispose392
1.29296504140563,103.859343968796,0,Point,kml_393,NEA Producer Responsibility Scheme - ALBA E-waste Recycling Programme,"HARVEY NORMAN @ MILLENIA WALK 9 RAFFLES BOULEVARD, MILLENIA WALK, #02-27, IN-STORE ATRIUM 39596","Bin collection; E-waste accepted: ICT equipment, Batteries and Lamps only",https://alba-ewaste.sg,dispose393
1.3022217738607,103.876152665006,0,Point,kml_394,NEA Producer Responsibility Scheme - ALBA E-waste Recycling Programme,"MEGA DISCOUNT STORE @ KALLANG LEISURE PARK 5 STADIUM WALK, KALLANG LEISURE PARK, #01-46-50, STORE REAR ENTRANCE 397693","Bin collection; E-waste accepted: ICT equipment, Batteries and Lamps only",https://alba-ewaste.sg,dispose394
1.3175280084075,103.843670754789,0,Point,kml_395,NEA Producer Responsibility Scheme - ALBA E-waste Recycling Programme,"MEGA DISCOUNT STORE @ UNITED SQUARE 101 THOMSON ROAD, UNITED SQUARE, #B1-56D/E, MAIN ENTRANCE 307591","Bin collection; E-waste accepted: ICT equipment, Batteries and Lamps only",https://alba-ewaste.sg,dispose395
1.33350665799411,103.839593197232,0,Point,kml_407,NEA Producer Responsibility Scheme - ALBA E-waste Recycling Programme,"MSF BUILDING 512 THOMSON ROAD MSF BUILDING LOBBY, MAIN LOBBY 298136","Bin collection; E-waste accepted: ICT equipment, Batteries and Lamps only",https://alba-ewaste.sg,dispose407
1.30996600443743,103.855401409321,0,Point,kml_408,NEA Producer Responsibility Scheme - ALBA E-waste Recycling Programme,MUSTAFA CENTRE 145 SYED ALWI ROAD 207704,"Bin collection; E-waste accepted: ICT equipment, Batteries and Lamps only",https://alba-ewaste.sg,dispose408
1.44378204404568,103.784318832703,0,Point,kml_409,NEA Producer Responsibility Scheme - ALBA E-waste Recycling Programme,"REPUBLIC POLYTECHNIC 9 WOODLANDS AVENUE 9, REPUBLIC POLYTECHNIC,  W3, LEVEL 3 FOODCOURT (UNDER RENOVATION) 738964","Bin collection; E-waste accepted: ICT equipment, Batteries and Lamps only",https://alba-ewaste.sg,dispose409
1.25709048863731,103.820437896378,0,Point,kml_410,NEA Producer Responsibility Scheme - ALBA E-waste Recycling Programme,"RESORT WORLD SENTOSA 8 SENTOSA GATEWAY, BESIDE DIN TAI FUNG RESTAURANT (#01-217) 98269","Bin collection; E-waste accepted: ICT equipment, Batteries and Lamps only",https://alba-ewaste.sg,dispose410
1.2736653514056,103.792712695184,0,Point,kml_411,NEA Producer Responsibility Scheme - ALBA E-waste Recycling Programme,"ICA @ PASIR PANJANG TERMINAL BUILDING 3 3 HARBOUR DRIVE, PASIR PANJANG TERMINAL BUILDING 3 117404","Bin collection; E-waste accepted: ICT equipment, Batteries and Lamps only",https://alba-ewaste.sg,dispose411
1.33501758759638,103.746877133089,0,Point,kml_412,NEA Producer Responsibility Scheme - ALBA E-waste Recycling Programme,"IMM 2 JURONG EAST STREET 21, LOADING BAY 609601","Bin collection; E-waste accepted: ICT equipment, Batteries and Lamps only",https://alba-ewaste.sg,dispose412
1.27605255379107,103.846115365364,0,Point,kml_413,NEA Producer Responsibility Scheme - ALBA E-waste Recycling Programme,"INTERNATIONAL PLAZA 10 ANSON ROAD, INTERNATIONAL PLAZA, #036-05, LEVEL 2 GREEN CORNER 79903","Bin collection; E-waste accepted: ICT equipment, Batteries and Lamps only",https://alba-ewaste.sg,dispose413
1.3779920408427,103.856411982212,0,Point,kml_414,NEA Producer Responsibility Scheme - ALBA E-waste Recycling Programme,"ITE COLLEGE CENTRAL 2 ANG MO KIO DRIVE, ATRIUM LEVEL 567720","Bin collection; E-waste accepted: ICT equipment, Batteries and Lamps only",https://alba-ewaste.sg,dispose414
1.33344756342171,103.955310837062,0,Point,kml_415,NEA Producer Responsibility Scheme - ALBA E-waste Recycling Programme,"ITE COLLEGE EAST 10 SIMEI AVE, ITE COLLEGE EAST, #B1-14, ADMIN BUILDING LOBBY, CUSTOMER VISITOR CENTRE 486047","Bin collection; E-waste accepted: ICT equipment, Batteries and Lamps only",https://alba-ewaste.sg,dispose415
1.37490650900843,103.752233735094,0,Point,kml_416,NEA Producer Responsibility Scheme - ALBA E-waste Recycling Programme,"ITE COLLEGE WEST 1 CHOA CHU KANG GROVE, ITE COLLEGE WEST, BLOCK 1, LEVEL 3 FOOD CANOPY 688236","Bin collection; E-waste accepted: ICT equipment, Batteries and Lamps only",https://alba-ewaste.sg,dispose416
1.34848894751871,103.717915470108,0,Point,kml_417,NEA Producer Responsibility Scheme - ALBA E-waste Recycling Programme,"JURONG SPRING CC 8 JURONG WEST STREET 52, JURONG SPRING CC, LOBBY 649296","Bin collection; E-waste accepted: ICT equipment, Batteries and Lamps only",https://alba-ewaste.sg,dispose417
1.30278298775457,103.863598776436,0,Point,kml_418,NEA Producer Responsibility Scheme - ALBA E-waste Recycling Programme,"KAMPONG GLAM CC 385 BEACH ROAD, KAMPONG GLAM CC, MAIN LOBBY 199581","Bin collection; E-waste accepted: ICT equipment, Batteries and Lamps only",https://alba-ewaste.sg,dispose418
1.32986709935748,103.896039897796,0,Point,kml_419,NEA Producer Responsibility Scheme - ALBA E-waste Recycling Programme,"KAMPONG UBI INDUSTRIAL ESTATE BLOCK 3024A 3024A UBI RD 1, PAVILION 408718","Bin collection; E-waste accepted: ICT equipment, Batteries and Lamps only",https://alba-ewaste.sg,dispose419
1.38406516921337,103.744923811823,0,Point,kml_420,NEA Producer Responsibility Scheme - ALBA E-waste Recycling Programme,"KEAT HONG CC 2 CHOA CHU KANG LOOP, KEAT HONG CC, WALKWAY CORRIDOR 689687","Bin collection; E-waste accepted: ICT equipment, Batteries and Lamps only",https://alba-ewaste.sg,dispose420
1.37294922181819,103.837618848274,0,Point,kml_421,NEA Producer Responsibility Scheme - ALBA E-waste Recycling Programme,"KEBUN BARU CC 216 ANG MO KIO AVENUE 4, GROUND FLOOR - OPPOSITE BURGER KING 569897","Bin collection; E-waste accepted: ICT equipment, Batteries and Lamps only",https://alba-ewaste.sg,dispose421
1.29715884932005,103.780197587817,0,Point,kml_422,NEA Producer Responsibility Scheme - ALBA E-waste Recycling Programme,"KENT RIDGE CAMPUS 27 SCIENCE DRIVE 1, KENT RIDGE CAMPUS, OUTSIDE LT27 AND LT29 STUDENT SPACE, LEVEL 1 117541","Bin collection; E-waste accepted: ICT equipment, Batteries and Lamps only",https://alba-ewaste.sg,dispose422
1.29672886881635,103.773151753947,0,Point,kml_423,NEA Producer Responsibility Scheme - ALBA E-waste Recycling Programme,"KENT RIDGE CAMPUS 12 KENT RIDGE CRES, KENT RIDGE CAMPUS, CENTRAL LIBRARY FORUM SPACE, LEVEL 1 119275","Bin collection; E-waste accepted: ICT equipment, Batteries and Lamps only",https://alba-ewaste.sg,dispose423
1.30880609379104,103.861311954806,0,Point,kml_424,NEA Producer Responsibility Scheme - ALBA E-waste Recycling Programme,"KITCHENER COMPLEX 809 FRENCH ROAD, KITCHENER COMPLEX, MAIN LOBBY 200808","Bin collection; E-waste accepted: ICT equipment, Batteries and Lamps only",https://alba-ewaste.sg,dispose424
1.28978712162959,103.814448344565,0,Point,kml_425,NEA Producer Responsibility Scheme - ALBA E-waste Recycling Programme,LENG KEE CC 400 LENGKOK BAHRU 159049,"Bin collection; E-waste accepted: ICT equipment, Batteries and Lamps only",https://alba-ewaste.sg,dispose425
1.29124400576091,103.849984790442,0,Point,kml_426,NEA Producer Responsibility Scheme - ALBA E-waste Recycling Programme,"LENOVO FLAGSHIP @ FUNAN MALL 107 NORTH BRIDGE ROAD, FUNAN MALL, #03-19/20, IN-STORE 179105","Bin collection; E-waste accepted: ICT equipment, Batteries and Lamps only",https://alba-ewaste.sg,dispose426
1.38503873967998,103.745022477031,0,Point,kml_428,NEA Producer Responsibility Scheme - ALBA E-waste Recycling Programme,"LOT ONE SHOPPERS' MALL 21 CHOA CHU KANG AVE 4, WALKWAY BESIDE MCDONALD'S, WALKWAY BESIDE MACDONALD'S 689812","Bin collection; E-waste accepted: ICT equipment, Batteries and Lamps only",https://alba-ewaste.sg,dispose428
1.36706634184363,103.964635610373,0,Point,kml_429,NEA Producer Responsibility Scheme - ALBA E-waste Recycling Programme,"LOYANG POINT 259 PASIR RIS STREET 21, LOYANG POINT, MAIN LOBBY (ATM AREA) 510258","Bin collection; E-waste accepted: ICT equipment, Batteries and Lamps only",https://alba-ewaste.sg,dispose429
1.27457425209431,103.798985925381,0,Point,kml_439,NEA Producer Responsibility Scheme - ALBA E-waste Recycling Programme,MAPLETREE BUSINESS CITY 10 PASIR PANJANG ROAD 117438,"Bin collection; E-waste accepted: ICT equipment, Batteries and Lamps only",https://alba-ewaste.sg,dispose439
1.27910567819722,103.85429742383,0,Point,kml_440,NEA Producer Responsibility Scheme - ALBA E-waste Recycling Programme,"MARINA BAY FINANCIAL CENTRE TOWER 3 12 MARINA BOULEVARD, DROP-OFF DRIVEWAY 18982","Bin collection; E-waste accepted: ICT equipment, Batteries and Lamps only",https://alba-ewaste.sg,dispose440
1.27972491465309,103.85454874989,0,Point,kml_441,NEA Producer Responsibility Scheme - ALBA E-waste Recycling Programme,"MARINA BAY LINK MALL 8A MARINA BOULEVARD, #B2-10, NEAR 7-11 18984","Bin collection; E-waste accepted: ICT equipment, Batteries and Lamps only",https://alba-ewaste.sg,dispose441
1.29990889516793,103.851757082239,0,Point,kml_442,NEA Producer Responsibility Scheme - ALBA E-waste Recycling Programme,"NANYANG ACADEMY OF FINE ARTS 80 BENCOOLEN STREET, LEVEL 1 WING A, LIFT LOBBY 189655","Bin collection; E-waste accepted: ICT equipment, Batteries and Lamps only",https://alba-ewaste.sg,dispose442
1.38034089944269,103.848083337635,0,Point,kml_443,NEA Producer Responsibility Scheme - ALBA E-waste Recycling Programme,"NANYANG POLYTECHNIC, BLOCK E (NORTH CANTEEN) ANG MO KIO AVENUE 8, NANYANG POLYTECHNIC, BLOCK E (NORTH CANTEEN) 569830","Bin collection; E-waste accepted: ICT equipment, Batteries and Lamps only",https://alba-ewaste.sg,dispose443
1.31935704682575,103.842084668181,0,Point,kml_444,NEA Producer Responsibility Scheme - ALBA E-waste Recycling Programme,"REVENUE HOUSE (LEVEL 2) 55 NEWTON RD, LEVEL 2 307987","Bin collection; E-waste accepted: ICT equipment, Batteries and Lamps only",https://alba-ewaste.sg,dispose444
1.38949150207251,103.909660426761,0,Point,kml_445,NEA Producer Responsibility Scheme - ALBA E-waste Recycling Programme,"RIVERVALE ARC RC 180C RIVERVALE CRESCENT, RIVERVALE ARC RC, #01-367, VOID DECK 543180","Bin collection; E-waste accepted: ICT equipment, Batteries and Lamps only",https://alba-ewaste.sg,dispose445
1.38349233462088,103.900312363092,0,Point,kml_446,NEA Producer Responsibility Scheme - ALBA E-waste Recycling Programme,"RIVERVALE COURT RC 110 RIVERVALE WALK, RIVERVALE COURT RC, VOID DECK 540110","Bin collection; E-waste accepted: ICT equipment, Batteries and Lamps only",https://alba-ewaste.sg,dispose446
1.38550420766451,103.901988424795,0,Point,kml_447,NEA Producer Responsibility Scheme - ALBA E-waste Recycling Programme,"RIVERVALE PLAZA 118 RIVERVALE DRIVE, RIVERVALE PLAZA, MAIN LOBBY 540118","Bin collection; E-waste accepted: ICT equipment, Batteries and Lamps only",https://alba-ewaste.sg,dispose447
1.38814105114293,103.905022042197,0,Point,kml_448,NEA Producer Responsibility Scheme - ALBA E-waste Recycling Programme,"RIVERVALE SPRING RC 135 RIVERVALE STREET, RIVERVALE SPRING RC, #01-730, VOID DECK 540135","Bin collection; E-waste accepted: ICT equipment, Batteries and Lamps only",https://alba-ewaste.sg,dispose448
1.39454068671114,103.905458975294,0,Point,kml_449,NEA Producer Responsibility Scheme - ALBA E-waste Recycling Programme,"RIVERVALE VISTA RC 188B RIVERVALE DRIVE, RIVERVALE VISTA RC, 01-1076, VOID DECK 542188","Bin collection; E-waste accepted: ICT equipment, Batteries and Lamps only",https://alba-ewaste.sg,dispose449
1.45384518800839,103.819543348008,0,Point,kml_450,NEA Producer Responsibility Scheme - ALBA E-waste Recycling Programme,"SEMBAWANG MART 511 CANBERRA ROAD, SEMBAWANG MART, MAIN LOBBY 750511","Bin collection; E-waste accepted: ICT equipment, Batteries and Lamps only",https://alba-ewaste.sg,dispose450
1.39600331041371,103.892645095794,0,Point,kml_451,NEA Producer Responsibility Scheme - ALBA E-waste Recycling Programme,"SENGKANG GENERAL HOSPITAL 110 SENGKANG EAST WAY, LEVEL 1 NEAR DROP OFF POINT 544886","Bin collection; E-waste accepted: ICT equipment, Batteries and Lamps only",https://alba-ewaste.sg,dispose451
1.37005486873349,103.873927610264,0,Point,kml_452,NEA Producer Responsibility Scheme - ALBA E-waste Recycling Programme,"SERANGOON CC 10 SERANGOON NORTH AVENUE 2, ATM LOBBY AREA 555877","Bin collection; E-waste accepted: ICT equipment, Batteries and Lamps only",https://alba-ewaste.sg,dispose452
1.32004897708074,103.887406611641,0,Point,kml_455,NEA Producer Responsibility Scheme - ALBA E-waste Recycling Programme,"SHENG SIONG @ 118 ALJUNIED 118 ALJUNIED AVE 2, #01-100, MAIN ENTRANCE 380118","Bin collection; E-waste accepted: ICT equipment, Batteries and Lamps only",https://alba-ewaste.sg,dispose455
1.34740052339029,103.680511903096,0,Point,kml_461,NEA Producer Responsibility Scheme - ALBA E-waste Recycling Programme,"NANYANG TECHNOLOGICAL UNIVERSITY NORTH SPINE PLAZA 76 NANYANG DRIVE, SPIRAL STAIRCASE NEAR LECTURE THEATRE 1A 637331","Bin collection; E-waste accepted: ICT equipment, Batteries and Lamps only",https://alba-ewaste.sg,dispose461
1.32215664299874,103.818185871753,0,Point,kml_462,NEA Producer Responsibility Scheme - ALBA E-waste Recycling Programme,"NATIONAL PARKS BOARD HQ 1 CLUNY ROAD, NATIONAL PARKS BOARD HQ, SINGAPORE BOTANIC GARDENS, NASSIM GATE INFO COUNTER 259569","Bin collection; E-waste accepted: ICT equipment, Batteries and Lamps only",https://alba-ewaste.sg,dispose462
1.42653999968283,103.835929999811,0,Point,kml_463,NEA Producer Responsibility Scheme - ALBA E-waste Recycling Programme,"NEE SOON CENTRAL CC 1 NORTHPOINT DRIVE NEE SOON CENTRAL COMMUNITY CLUB, NEE SOON CENTRAL CC, INSIDE NORTHPOINT CITY 768019","Bin collection; E-waste accepted: ICT equipment, Batteries and Lamps only",https://alba-ewaste.sg,dispose463
1.43102087574235,103.838488077255,0,Point,kml_464,NEA Producer Responsibility Scheme - ALBA E-waste Recycling Programme,"NEE SOON EAST CC 1 YISHUN AVENUE 9, NEE SOON EAST CC, MAIN LOBBY 768893","Bin collection; E-waste accepted: ICT equipment, Batteries and Lamps only",https://alba-ewaste.sg,dispose464
1.41497367659645,103.834879808636,0,Point,kml_465,NEA Producer Responsibility Scheme - ALBA E-waste Recycling Programme,"NEE SOON SOUTH CC 30 YISHUN STREET 81, NEE SOON SOUTH CC, VOID DECK (TEMPORARY) CC UNDERGOING RENOVATION 768455","Bin collection; E-waste accepted: ICT equipment, Batteries and Lamps only",https://alba-ewaste.sg,dispose465
1.31642484692303,103.757439267612,0,Point,kml_466,NEA Producer Responsibility Scheme - ALBA E-waste Recycling Programme,"NEWEST 1 WEST COAST DRIVE, #01-111, LIFT LOBBY C 128020","Bin collection; E-waste accepted: ICT equipment, Batteries and Lamps only",https://alba-ewaste.sg,dispose466
1.3337846229099,103.775294347967,0,Point,kml_467,NEA Producer Responsibility Scheme - ALBA E-waste Recycling Programme,"NGEE ANN POLYTECHNIC, BLK 22 535 CLEMENTI ROAD, NGEE ANN POLYCLINIC, BLK 22, FOODCOURT 599489","Bin collection; E-waste accepted: ICT equipment, Batteries and Lamps only",https://alba-ewaste.sg,dispose467
1.32031100709334,103.843656762336,0,Point,kml_468,NEA Producer Responsibility Scheme - ALBA E-waste Recycling Programme,"NOVENA SQUARE 238 THOMSON ROAD, NOVENA SQUARE, LEVEL 3 307683","Bin collection; E-waste accepted: ICT equipment, Batteries and Lamps only",https://alba-ewaste.sg,dispose468
1.29242694960797,103.783480834732,0,Point,kml_469,NEA Producer Responsibility Scheme - ALBA E-waste Recycling Programme,"NUH 1E KENT RIDGE ROAD, LEVEL 1 119228","Bin collection; E-waste accepted: ICT equipment, Batteries and Lamps only",https://alba-ewaste.sg,dispose469
1.40263460085753,103.913270566377,0,Point,kml_470,NEA Producer Responsibility Scheme - ALBA E-waste Recycling Programme,"OASIS TERRACES 681 PUNGGOL DRIVE, OASIS TERRACES, LVL 1 OPPOSITE ANYTIME FITNESS 820681","Bin collection; E-waste accepted: ICT equipment, Batteries and Lamps only",https://alba-ewaste.sg,dispose470
1.28150088901303,103.852160453744,0,Point,kml_471,NEA Producer Responsibility Scheme - ALBA E-waste Recycling Programme,"ONE RAFFLES QUAY 1 RAFFLES QUAY, #B2, ESCALATOR WALKWAY 48583","Bin collection; E-waste accepted: ICT equipment, Batteries and Lamps only",https://alba-ewaste.sg,dispose471
1.35218046886665,103.940598002174,0,Point,kml_472,NEA Producer Responsibility Scheme - ALBA E-waste Recycling Programme,"OUR TAMPINES HUB 1 TAMPINES WALK, CENTRAL PLAZA (LIBRARY EXIT) 528523","Bin collection; E-waste accepted: ICT equipment, Batteries and Lamps only",https://alba-ewaste.sg,dispose472
1.37989074067834,103.936736601657,0,Point,kml_473,NEA Producer Responsibility Scheme - ALBA E-waste Recycling Programme,"PASIR RIS WEST PLAZA 735 PASIR RIS STREET 72, PASIR RIS WEST PLAZA, MAIN ENTRANCE 510735","Bin collection; E-waste accepted: ICT equipment, Batteries and Lamps only",https://alba-ewaste.sg,dispose473
1.33924805071005,103.727160097151,0,Point,kml_474,NEA Producer Responsibility Scheme - ALBA E-waste Recycling Programme,"PASSION WAVE @ JURONG LAKE GARDENS 100 YUAN CHING RD, RECEPTION 618662","Bin collection; E-waste accepted: ICT equipment, Batteries and Lamps only",https://alba-ewaste.sg,dispose474
1.29527117293993,103.868073811378,0,Point,kml_475,NEA Producer Responsibility Scheme - ALBA E-waste Recycling Programme,"PASSION WAVE @ MARINA BAY 11 RHU CROSS, MAIN ENTRANCE 437440","Bin collection; E-waste accepted: ICT equipment, Batteries and Lamps only",https://alba-ewaste.sg,dispose475
1.30487639006068,103.909640247764,0,Point,kml_476,NEA Producer Responsibility Scheme - ALBA E-waste Recycling Programme,"MARINE PARADE CC 278 MARINE PARADE ROAD, MARINE PARADE CC, MAIN ENTRANCE 449282","Bin collection; E-waste accepted: ICT equipment, Batteries and Lamps only",https://alba-ewaste.sg,dispose476
1.36152708688973,103.841518205631,0,Point,kml_477,NEA Producer Responsibility Scheme - ALBA E-waste Recycling Programme,"MARYMOUNT CC SIN MING AVE, MAIN LOBBY 575738","Bin collection; E-waste accepted: ICT equipment, Batteries and Lamps only",https://alba-ewaste.sg,dispose477
1.44571784073067,103.798166316744,0,Point,kml_478,NEA Producer Responsibility Scheme - ALBA E-waste Recycling Programme,"WOODLANDS MART 768 WOODLANDS AVENUE 6, WOODLANDS MART, MAIN LOBBY 730768","Bin collection; E-waste accepted: ICT equipment, Batteries and Lamps only",https://alba-ewaste.sg,dispose478
1.41664314788376,103.759256869283,0,Point,kml_479,NEA Producer Responsibility Scheme - ALBA E-waste Recycling Programme,WOODLANDS PARK NC 20 CHOA CHU KANG STREET 52 689286,"Bin collection; E-waste accepted: ICT equipment, Batteries and Lamps only",https://alba-ewaste.sg,dispose479
1.44330260306823,103.793474574602,0,Point,kml_480,NEA Producer Responsibility Scheme - ALBA E-waste Recycling Programme,"WOODLANDS ZONE 2 RN 846 WOODLANDS AVENUE 4, WOODLANDS ZONE 2 RN, VOID DECK 730846","Bin collection; E-waste accepted: ICT equipment, Batteries and Lamps only",https://alba-ewaste.sg,dispose480
1.4447963012875,103.790602762446,0,Point,kml_481,NEA Producer Responsibility Scheme - ALBA E-waste Recycling Programme,"WOODLANDS ZONE 3 RN 876 WOODLANDS STREET 83, WOODLANDS ZONE 3 RN, VOID DECK 730876","Bin collection; E-waste accepted: ICT equipment, Batteries and Lamps only",https://alba-ewaste.sg,dispose481
1.43995508437731,103.795048909963,0,Point,kml_482,NEA Producer Responsibility Scheme - ALBA E-waste Recycling Programme,"WOODLANDS ZONE 4 RN 862 WOODLANDS STREET 83, WOODLANDS ZONE 4 RN, #01-184, VOID DECK 730862","Bin collection; E-waste accepted: ICT equipment, Batteries and Lamps only",https://alba-ewaste.sg,dispose482
1.43542609172864,103.796998841722,0,Point,kml_483,NEA Producer Responsibility Scheme - ALBA E-waste Recycling Programme,"WOODLANDS ZONE 7 RN 611 WOODLANDS RING ROAD, WOODLANDS ZONE 7 RN, VOID DECK 730611","Bin collection; E-waste accepted: ICT equipment, Batteries and Lamps only",https://alba-ewaste.sg,dispose483
1.43671737756151,103.803192512848,0,Point,kml_484,NEA Producer Responsibility Scheme - ALBA E-waste Recycling Programme,"WOODLANDS ZONE 8 RN 638 WOODLANDS RING ROAD, WOODLANDS ZONE 8 RN, VOID DECK 730638","Bin collection; E-waste accepted: ICT equipment, Batteries and Lamps only",https://alba-ewaste.sg,dispose484
1.43698596373896,103.799117864186,0,Point,kml_485,NEA Producer Responsibility Scheme - ALBA E-waste Recycling Programme,"WOODLANDS ZONE 9 RN 656 WOODLANDS RING ROAD, WOODLANDS ZONE 9 RN, VOID DECK 730656","Bin collection; E-waste accepted: ICT equipment, Batteries and Lamps only",https://alba-ewaste.sg,dispose485
1.39480564620138,103.744971295097,0,Point,kml_486,NEA Producer Responsibility Scheme - ALBA E-waste Recycling Programme,"YEW TEE CC 20 CHOA CHU KANG STREET 52, YEW TEE CC, MAIN ATRIUM 689286","Bin collection; E-waste accepted: ICT equipment, Batteries and Lamps only",https://alba-ewaste.sg,dispose486
1.39827719591902,103.74718245137,0,Point,kml_487,NEA Producer Responsibility Scheme - ALBA E-waste Recycling Programme,"YEW TEE SQUARE 624 CHOA CHU KANG STREET 62, YEW TEE SQUARE, REAR ENTRANCE 680622","Bin collection; E-waste accepted: ICT equipment, Batteries and Lamps only",https://alba-ewaste.sg,dispose487
1.38151727609961,103.84142811505,0,Point,kml_488,NEA Producer Responsibility Scheme - ALBA E-waste Recycling Programme,"YIO CHU KANG CC 50 ANG MO KIO STREET 61, MAIN LOBBY 569163","Bin collection; E-waste accepted: ICT equipment, Batteries and Lamps only",https://alba-ewaste.sg,dispose488
1.33997286002338,103.737065907176,0,Point,kml_489,NEA Producer Responsibility Scheme - ALBA E-waste Recycling Programme,"YUHUA CC 90 BOON LAY WAY, MAIN LOBBY 609958","Bin collection; E-waste accepted: ICT equipment, Batteries and Lamps only",https://alba-ewaste.sg,dispose489
1.29145139535094,103.776783997059,0,Point,kml_490,NEA Producer Responsibility Scheme - ALBA E-waste Recycling Programme,"YUSOF ISHAK INSTITUTE 30 HENG MUI KENG TERRACE, LEVEL 1 119614","Bin collection; E-waste accepted: ICT equipment, Batteries and Lamps only",https://alba-ewaste.sg,dispose490
1.3270848546286,103.846476460292,0,Point,kml_491,NEA Producer Responsibility Scheme - ALBA E-waste Recycling Programme,"ZHONGSHAN MALL 20 AH HOOD ROAD, ZHONGSHAN MALL 329984","Bin collection; E-waste accepted: ICT equipment, Batteries and Lamps only",https://alba-ewaste.sg,dispose491
1.35303824914486,103.743948448003,0,Point,kml_494,NEA Producer Responsibility Scheme - ALBA E-waste Recycling Programme,"SHENG SIONG @ 451 BUKIT BATOK 451 BUKIT BATOK WEST AVENUE 6, #01-10, COMMON CORRIDOR 650451","Bin collection; E-waste accepted: ICT equipment, Batteries and Lamps only",https://alba-ewaste.sg,dispose494
1.36113645832708,103.937425592923,0,Point,kml_501,NEA Producer Responsibility Scheme - ALBA E-waste Recycling Programme,"SHENG SIONG @ 602A TAMPINES 602A TAMPINES AVENUE 9, #01-01, MAIN ENTRANCE 521602","Bin collection; E-waste accepted: ICT equipment, Batteries and Lamps only",https://alba-ewaste.sg,dispose501
1.30246408831538,103.763750971623,0,Point,kml_506,NEA Producer Responsibility Scheme - ALBA E-waste Recycling Programme,"SHENG SIONG @ 720 CLEMENTI WEST 720 CLEMENTI WEST ST 2, #01-144, COMMON CORRIDOR 120720","Bin collection; E-waste accepted: ICT equipment, Batteries and Lamps only",https://alba-ewaste.sg,dispose506
1.44886402232577,103.8323928507,0,Point,kml_515,NEA Producer Responsibility Scheme - ALBA E-waste Recycling Programme,"SHENG SIONG @ CANBERRA 105 CANBERRA ST, EAST BROOK @ CANBERRA, #02-05, COMMON CORRIDOR 750105","Bin collection; E-waste accepted: ICT equipment, Batteries and Lamps only",https://alba-ewaste.sg,dispose515
1.3778920407766,103.856411982148,0,Point,kml_521,NEA Producer Responsibility Scheme - ALBA E-waste Recycling Programme,"SHENG SIONG @ ITE COLLEGE CENTRAL 2 ANG MO KIO DRIVE, #A1-12, ATRIUM LEVEL 567720","Bin collection; E-waste accepted: ICT equipment, Batteries and Lamps only",https://alba-ewaste.sg,dispose521
1.31960799514884,103.94512882638,0,Point,kml_531,NEA Producer Responsibility Scheme - ALBA E-waste Recycling Programme,"SIGLAP EAST RC 167 BEDOK SOUTH AVE 3, #01-501 460167","Bin collection; E-waste accepted: ICT equipment, Batteries and Lamps only",https://alba-ewaste.sg,dispose531
1.32037624660834,103.942568597125,0,Point,kml_532,NEA Producer Responsibility Scheme - ALBA E-waste Recycling Programme,"SIGLAP LUCKY VALLEY RC 71 BEDOK SOUTH ROAD, #01-250 460071","Bin collection; E-waste accepted: ICT equipment, Batteries and Lamps only",https://alba-ewaste.sg,dispose532
1.30290658780656,103.853031869393,0,Point,kml_533,NEA Producer Responsibility Scheme - ALBA E-waste Recycling Programme,"SIM LIM SQUARE 1 ROCHOR CANAL RD, SIM LIM SQUARE, LOADING BAY 188504","Bin collection; E-waste accepted: ICT equipment, Batteries and Lamps only",https://alba-ewaste.sg,dispose533
1.29897550216734,103.83840639872,0,Point,kml_534,NEA Producer Responsibility Scheme - ALBA E-waste Recycling Programme,"SINGTEL @ COMCENTRE 31B EXETER ROAD, COMCENTRE 239733","Bin collection; E-waste accepted: ICT equipment, Batteries and Lamps only",https://alba-ewaste.sg,dispose534
1.29926585277497,103.778301212701,0,Point,kml_535,NEA Producer Responsibility Scheme - ALBA E-waste Recycling Programme,"SIT @ DOVER 10 DOVER DRIVE, SIT @ DOVER, MAIN LOBBY 138683","Bin collection; E-waste accepted: ICT equipment, Batteries and Lamps only",https://alba-ewaste.sg,dispose535
1.3923400482811,103.746898713183,0,Point,kml_539,NEA Producer Responsibility Scheme - ALBA E-waste Recycling Programme,STAGMONT VIEW RC 753 CHOA CHU KANG NORTH 5 680753,"Bin collection; E-waste accepted: ICT equipment, Batteries and Lamps only",https://alba-ewaste.sg,dispose539
1.30093412958734,103.845072742807,0,Point,kml_540,NEA Producer Responsibility Scheme - ALBA E-waste Recycling Programme,"STARHUB @ PLAZA SINGAPURA 68 ORCHARD ROAD, PLAZA SINGAPURA, #01-36, IN-STORE 238839","Bin collection; E-waste accepted: ICT equipment, Batteries and Lamps only",https://alba-ewaste.sg,dispose540
1.35250468321838,103.944682575133,0,Point,kml_542,NEA Producer Responsibility Scheme - ALBA E-waste Recycling Programme,"STARHUB @ TAMPINES CENTRAL 4 TAMPINES CENTRAL 5, TAMPINES CENTRAL, #02-27, IN-STORE 529510","Bin collection; E-waste accepted: ICT equipment, Batteries and Lamps only",https://alba-ewaste.sg,dispose542
1.37789727696934,103.739015486131,0,Point,kml_544,NEA Producer Responsibility Scheme - ALBA E-waste Recycling Programme,"SUNSHINE PLACE @ 475 CHOA CHU KANG AVENUE 3 475 CHOA CHU KANG AVENUE 3, WALKWAY CORRIDOR 680475","Bin collection; E-waste accepted: ICT equipment, Batteries and Lamps only",https://alba-ewaste.sg,dispose544
1.33497560338055,103.720663576019,0,Point,kml_545,NEA Producer Responsibility Scheme - ALBA E-waste Recycling Programme,"TAMAN JURONG SHOPPING CENTRE 399 YUNG SHENG ROAD, TAMAN JURONG SHOPPING CENTRE, COMMON CORRIDOR 610399","Bin collection; E-waste accepted: ICT equipment, Batteries and Lamps only",https://alba-ewaste.sg,dispose545
1.34581334979124,103.947687828353,0,Point,kml_564,NEA Producer Responsibility Scheme - ALBA E-waste Recycling Programme,"TAMPINES CHANGKAT CC 13 TAMPINES STREET 11, MAIN ENTRANCE 529453","Bin collection; E-waste accepted: ICT equipment, Batteries and Lamps only",https://alba-ewaste.sg,dispose564
1.35001074244709,103.952816059629,0,Point,kml_565,NEA Producer Responsibility Scheme - ALBA E-waste Recycling Programme,"TAMPINES CHANGKAT ZONE 4 RN 285 TAMPINES STREET 22, TAMPINES CHANGKAT ZONE 4 RC, VOID DECK 520285","Bin collection; E-waste accepted: ICT equipment, Batteries and Lamps only",https://alba-ewaste.sg,dispose565
1.34518428887267,103.949793325085,0,Point,kml_566,NEA Producer Responsibility Scheme - ALBA E-waste Recycling Programme,"TAMPINES CHANGKAT ZONE 5 RN 124 TAMPINES STREET 11, TAMPINES CHANGKAT ZONE 5 RC, VOID DECK 521124","Bin collection; E-waste accepted: ICT equipment, Batteries and Lamps only",https://alba-ewaste.sg,dispose566
1.35720282133909,103.960139490178,0,Point,kml_567,NEA Producer Responsibility Scheme - ALBA E-waste Recycling Programme,"TAMPINES CHANGKAT ZONE 8 RN 364 TAMPINES STREET 34, TAMPINES CHANGKAT ZONE 8 RC, VOID DECK 520364","Bin collection; E-waste accepted: ICT equipment, Batteries and Lamps only",https://alba-ewaste.sg,dispose567
1.35670606459268,103.933499178815,0,Point,kml_568,NEA Producer Responsibility Scheme - ALBA E-waste Recycling Programme,"TAMPINES COURTVIEW RC 730 TAMPINES STREET 71, TAMPINES COURTVIEW RC, VOID DECK 520730","Bin collection; E-waste accepted: ICT equipment, Batteries and Lamps only",https://alba-ewaste.sg,dispose568
1.35634082175687,103.94865019693,0,Point,kml_569,NEA Producer Responsibility Scheme - ALBA E-waste Recycling Programme,"TAMPINES EAST ZONE 3 RN 232 TAMPINES STREET 21, #01-639, VOID DECK 521232","Bin collection; E-waste accepted: ICT equipment, Batteries and Lamps only",https://alba-ewaste.sg,dispose569
1.35904159830512,103.934383357746,0,Point,kml_570,NEA Producer Responsibility Scheme - ALBA E-waste Recycling Programme,"TAMPINES GREENVALE RC 736 TAMPINES STREET 72, TAMPINES GREENVALE RC, VOID DECK 520736","Bin collection; E-waste accepted: ICT equipment, Batteries and Lamps only",https://alba-ewaste.sg,dispose570
1.35729040056381,103.946655025651,0,Point,kml_571,NEA Producer Responsibility Scheme - ALBA E-waste Recycling Programme,"TAMPINES NORTH CC 2 TAMPINES STREET 41, MAIN ENTRANCE 529204","Bin collection; E-waste accepted: ICT equipment, Batteries and Lamps only",https://alba-ewaste.sg,dispose571
1.35955258107939,103.950148193585,0,Point,kml_572,NEA Producer Responsibility Scheme - ALBA E-waste Recycling Programme,"TAMPINES NORTH ZONE 3 RC 430 TAMPINES STREET 41, TAMPINES NORTH ZONE 3 RC, VOID DECK 520430","Bin collection; E-waste accepted: ICT equipment, Batteries and Lamps only",https://alba-ewaste.sg,dispose572
1.35132608204772,103.931478804247,0,Point,kml_573,NEA Producer Responsibility Scheme - ALBA E-waste Recycling Programme,"TAMPINES SPRING RN 880 TAMPINES AVENUE 8, TAMPINES SPRING RN, VOID DECK 520880","Bin collection; E-waste accepted: ICT equipment, Batteries and Lamps only",https://alba-ewaste.sg,dispose573
1.35173850890838,103.935952385901,0,Point,kml_574,NEA Producer Responsibility Scheme - ALBA E-waste Recycling Programme,"TAMPINES VILLE RN 842 TAMPINES STREET 82, TAMPINES VILLE RN, VOID DECK 520842","Bin collection; E-waste accepted: ICT equipment, Batteries and Lamps only",https://alba-ewaste.sg,dispose574
1.27616699268746,103.841584207338,0,Point,kml_575,NEA Producer Responsibility Scheme - ALBA E-waste Recycling Programme,TANJONG PAGAR CC 101 CANTONMENT ROAD 89774,"Bin collection; E-waste accepted: ICT equipment, Batteries and Lamps only",https://alba-ewaste.sg,dispose575
1.36308868460591,103.853536076665,0,Point,kml_576,NEA Producer Responsibility Scheme - ALBA E-waste Recycling Programme,"TECK GHEE CC 861 ANG MO KIO AVENUE 10, REAR ENTRANCE 569734","Bin collection; E-waste accepted: ICT equipment, Batteries and Lamps only",https://alba-ewaste.sg,dispose576
1.38002919684309,103.752433018214,0,Point,kml_577,NEA Producer Responsibility Scheme - ALBA E-waste Recycling Programme,TECK WHYE LANE 146 TECK WHYE LANE 680146,"Bin collection; E-waste accepted: ICT equipment, Batteries and Lamps only",https://alba-ewaste.sg,dispose577
1.27484428097785,103.807888578677,0,Point,kml_578,NEA Producer Responsibility Scheme - ALBA E-waste Recycling Programme,"TELOK BLANGAH CC 450 TELOK BLANGAH STREET 31, TELOK BLANGAH CC, RECEPTION AREA 108943","Bin collection; E-waste accepted: ICT equipment, Batteries and Lamps only",https://alba-ewaste.sg,dispose578
1.34594607028051,103.932631489998,0,Point,kml_579,NEA Producer Responsibility Scheme - ALBA E-waste Recycling Programme,"TEMASEK POLYTECHHIC 21 TAMPINES AVENUE 1, TEMASEK POLYTECHHIC, MAIN ENTRANCE FOYER 529757","Bin collection; E-waste accepted: ICT equipment, Batteries and Lamps only",https://alba-ewaste.sg,dispose579
1.29918373817573,103.84778978564,0,Point,kml_580,NEA Producer Responsibility Scheme - ALBA E-waste Recycling Programme,"THE CATHAY 2 HANDY RD, THE CATHAY, LOADING BAY 229233","Bin collection; E-waste accepted: ICT equipment, Batteries and Lamps only",https://alba-ewaste.sg,dispose580
1.33759373267161,103.793707424428,0,Point,kml_581,NEA Producer Responsibility Scheme - ALBA E-waste Recycling Programme,"THE GRANDSTAND (TURF CITY) 200 TURF CLUB ROAD DBS THE GRANDSTAND, THE GRANDSTAND (TURF CITY), MAIN LOBBY CONCEIRGE 287994","Bin collection; E-waste accepted: ICT equipment, Batteries and Lamps only",https://alba-ewaste.sg,dispose581
1.27951764599947,103.845209484759,0,Point,kml_582,NEA Producer Responsibility Scheme - ALBA E-waste Recycling Programme,THE URA CENTRE 45 MAXWELL RD 69118,"Bin collection; E-waste accepted: ICT equipment, Batteries and Lamps only",https://alba-ewaste.sg,dispose582
1.35512885659476,103.831053292253,0,Point,kml_583,NEA Producer Responsibility Scheme - ALBA E-waste Recycling Programme,"THOMSON PLAZA 301 UPPER THOMSON ROAD, THOMSON PLAZA, MAIN ENTRANCE 574408","Bin collection; E-waste accepted: ICT equipment, Batteries and Lamps only",https://alba-ewaste.sg,dispose583
1.33465572065284,103.850443866696,0,Point,kml_584,NEA Producer Responsibility Scheme - ALBA E-waste Recycling Programme,"TOA PAYOH CENTRAL CC 93 TOA PAYOH CENTRAL, MAIN ENTRANCE 319194","Bin collection; E-waste accepted: ICT equipment, Batteries and Lamps only",https://alba-ewaste.sg,dispose584
1.3362748983945,103.85470024903,0,Point,kml_585,NEA Producer Responsibility Scheme - ALBA E-waste Recycling Programme,"TOA PAYOH EAST CC 160 LORONG 6 TOA PAYOH, MAIN ENTRANCE 319380","Bin collection; E-waste accepted: ICT equipment, Batteries and Lamps only",https://alba-ewaste.sg,dispose585
1.33484780261076,103.859409471012,0,Point,kml_586,NEA Producer Responsibility Scheme - ALBA E-waste Recycling Programme,"TOA PAYOH SOUTH CC 1999 LORONG 8 TOA PAYOH, MAIN ENTRANCE 319258","Bin collection; E-waste accepted: ICT equipment, Batteries and Lamps only",https://alba-ewaste.sg,dispose586
1.3397740637151,103.846522665915,0,Point,kml_587,NEA Producer Responsibility Scheme - ALBA E-waste Recycling Programme,"TOA PAYOH VIEW RC 122 LORONG 2 TOA PAYOH VIEW RC, READING CORNER 310122","Bin collection; E-waste accepted: ICT equipment, Batteries and Lamps only",https://alba-ewaste.sg,dispose587
1.33543442069033,103.844961867807,0,Point,kml_588,NEA Producer Responsibility Scheme - ALBA E-waste Recycling Programme,"TOA PAYOH WEST CC 200 LORONG 2 TOA PAYOH, SIDE OF BUILDING 319642","Bin collection; E-waste accepted: ICT equipment, Batteries and Lamps only",https://alba-ewaste.sg,dispose588
1.31205214996321,103.789581046901,0,Point,kml_589,NEA Producer Responsibility Scheme - ALBA E-waste Recycling Programme,"ULU PANDAN CC 170 GHIM MOH ROAD, CORRIDOR WALKWAY 279621","Bin collection; E-waste accepted: ICT equipment, Batteries and Lamps only",https://alba-ewaste.sg,dispose589
1.3047948329461,103.772461624038,0,Point,kml_590,NEA Producer Responsibility Scheme - ALBA E-waste Recycling Programme,"UTOWN - STEPHEN RIADY CENTRE 2 COLLEGE AVE WEST, UTOWN - STEPHEN RIADY CENTRE, LEVEL 1 IN FRONT OF WAACOW RESTAURANT 138607","Bin collection; E-waste accepted: ICT equipment, Batteries and Lamps only",https://alba-ewaste.sg,dispose590
1.43099339624118,103.79385961513,0,Point,kml_591,NEA Producer Responsibility Scheme - ALBA E-waste Recycling Programme,"VISTA POINT 548 WOODLANDS DRIVE 44, LEVEL 1 730548","Bin collection; E-waste accepted: ICT equipment, Batteries and Lamps only",https://alba-ewaste.sg,dispose591
1.30264556883429,103.76483207298,0,Point,kml_592,NEA Producer Responsibility Scheme - ALBA E-waste Recycling Programme,"WEST COAST CC 2 CLEMENTI WEST STREET 2, WALKWAY CORRIDOR 129605","Bin collection; E-waste accepted: ICT equipment, Batteries and Lamps only",https://alba-ewaste.sg,dispose592
1.34728364742401,103.699895865959,0,Point,kml_593,NEA Producer Responsibility Scheme - ALBA E-waste Recycling Programme,"WESTWOOD PRIMARY SCHOOL 1 JURONG WEST ST 71, SECURITY GUARD POST 642648","Bin collection; E-waste accepted: ICT equipment, Batteries and Lamps only",https://alba-ewaste.sg,dispose593
1.32470128771351,103.857105337955,0,Point,kml_594,NEA Producer Responsibility Scheme - ALBA E-waste Recycling Programme,"WHAMPOA CC 300 WHAMPOA DRIVE, BESIDE CONSTITUENCY OFFICE 327737","Bin collection; E-waste accepted: ICT equipment, Batteries and Lamps only",https://alba-ewaste.sg,dispose594
1.31649443358641,103.896941669701,0,Point,kml_595,NEA Producer Responsibility Scheme - ALBA E-waste Recycling Programme,"WISMA GEYLANG SERAI CC 1 ENGKU AMAN TURN, CC OFFICE ENTRANCE 408528","Bin collection; E-waste accepted: ICT equipment, Batteries and Lamps only",https://alba-ewaste.sg,dispose595
1.41799926280058,103.84123645708,0,Point,kml_596,NEA Producer Responsibility Scheme - ALBA E-waste Recycling Programme,"WISTERIA MALL 598 YISHUN RING RD, WISTERIA MALL, BASEMENT 1 CARGO LIFT LOBBY 768698","Bin collection; E-waste accepted: ICT equipment, Batteries and Lamps only",https://alba-ewaste.sg,dispose596
1.43181648741761,103.7851624486,0,Point,kml_597,NEA Producer Responsibility Scheme - ALBA E-waste Recycling Programme,"WOODGROVE CC 353 WOODLANDS AVENUE 1, WOODGROVE CC, VOID DECK 730353","Bin collection; E-waste accepted: ICT equipment, Batteries and Lamps only",https://alba-ewaste.sg,dispose597
1.43973034856832,103.788235403019,0,Point,kml_598,NEA Producer Responsibility Scheme - ALBA E-waste Recycling Programme,"WOODLANDS CC 1 WOODLANDS STREET 81, WOODLANDS CC, MAIN ENTRANCE LOBBY 738526","Bin collection; E-waste accepted: ICT equipment, Batteries and Lamps only",https://alba-ewaste.sg,dispose598
1.43904161504041,103.802610983385,0,Point,kml_599,NEA Producer Responsibility Scheme - ALBA E-waste Recycling Programme,"WOODLANDS GALAXY CC 31 WOODLANDS AVENUE 6, WOODLANDS GALAXY CC, CC OFFICE ENTRANCE 738991","Bin collection; E-waste accepted: ICT equipment, Batteries and Lamps only",https://alba-ewaste.sg,dispose599
