latitude,longitude,altitude,geometry,IndexName,Name,AddressName,Description,Hyperlink
1.36933561415336,103.848693180872,0,Point,kml_3,NEA Producer Responsibility Scheme - ALBA E-waste Recycling Programme,"CHALLENGER @ ANG MO KIO HUB ANG MO KIO AVENUE 3, ANG MOH KIO HUB, #B1-58, OUTLET ENTRANCE 569933","Bin collection; E-waste accepted: ICT equipment, Batteries and Lamps only",https://alba-ewaste.sg
1.29888755898627,103.855554258571,0,Point,kml_4,NEA Producer Responsibility Scheme - ALBA E-waste Recycling Programme,"CHALLENGER @ BUGIS JUNCTION BASEMENT 1 200 VICTORIA STREET, BUGIS JUNCTION, #B1-26, IN-STORE 188021","Bin collection; E-waste accepted: ICT equipment, Batteries and Lamps only",https://alba-ewaste.sg
1.30007686528717,103.855785817714,0,Point,kml_5,NEA Producer Responsibility Scheme - ALBA E-waste Recycling Programme,"CHALLENGER @ BUGIS JUNCTION LEVEL 3 200 VICTORIA STREET, BUGIS JUNCTION, #03-10E, IN-STORE 188021","Bin collection; E-waste accepted: ICT equipment, Batteries and Lamps only",https://alba-ewaste.sg
1.33411312955727,103.962792843949,0,Point,kml_6,NEA Producer Responsibility Scheme - ALBA E-waste Recycling Programme,"CHALLENGER @ CHANGI CITY POINT 5 CHANGI BUSINESS PARK CENTRAL 1, CHANGI CITY POINT, #01-56, IN-STORE 486038","Bin collection; E-waste accepted: ICT equipment, Batteries and Lamps only",https://alba-ewaste.sg
1.34269199841086,103.953050756316,0,Point,kml_7,NEA Producer Responsibility Scheme - ALBA E-waste Recycling Programme,"CHALLENGER @ EASTPOINT MALL 3 SIMEI STREET 6, EASTPOINT MALL, #B1-08, IN-STORE 528833","Bin collection; E-waste accepted: ICT equipment, Batteries and Lamps only",https://alba-ewaste.sg
1.37253315583583,103.893883460345,0,Point,kml_8,NEA Producer Responsibility Scheme - ALBA E-waste Recycling Programme,"CHALLENGER @ HOUGANG MALL 90 HOUGANG AVENUE 10, HOUGANG MALL, #02-13, IN-STORE 538766","Bin collection; E-waste accepted: ICT equipment, Batteries and Lamps only",https://alba-ewaste.sg
1.3351175875917,103.74687713319,0,Point,kml_9,NEA Producer Responsibility Scheme - ALBA E-waste Recycling Programme,"CHALLENGER @ IMM 2 JURONG EAST STREET 21, IMM, #02-23, IN-STORE 609601","Bin collection; E-waste accepted: ICT equipment, Batteries and Lamps only",https://alba-ewaste.sg
1.33332819290677,103.743359441957,0,Point,kml_10,NEA Producer Responsibility Scheme - ALBA E-waste Recycling Programme,"CHALLENGER @ JEM 50 JURONG GATEWAY ROAD, JEM, #04-01, IN-STORE 608549","Bin collection; E-waste accepted: ICT equipment, Batteries and Lamps only",https://alba-ewaste.sg
1.33965200397303,103.706685013186,0,Point,kml_11,NEA Producer Responsibility Scheme - ALBA E-waste Recycling Programme,"CHALLENGER @ JURONG POINT 1 JURONG WEST CENTRAL 2, JURONG POINT, #B1-94, IN-STORE 648886","Bin collection; E-waste accepted: ICT equipment, Batteries and Lamps only",https://alba-ewaste.sg
1.35084579518832,103.872590477091,0,Point,kml_12,NEA Producer Responsibility Scheme - ALBA E-waste Recycling Programme,"CHALLENGER @ NEX MALL 23 SERANGOON CENTRAL, NEX MALL, #03-33/34, IN-STORE 556083","Bin collection; E-waste accepted: ICT equipment, Batteries and Lamps only",https://alba-ewaste.sg
1.42970657294785,103.835680138755,0,Point,kml_13,NEA Producer Responsibility Scheme - ALBA E-waste Recycling Programme,"CHALLENGER @ NORTHPOINT SHOPPING CENTRE 930 YISHUN AVE 2, #03-90/10 769098","Bin collection; E-waste accepted: ICT equipment, Batteries and Lamps only",https://alba-ewaste.sg
1.31748231118193,103.892832205405,0,Point,kml_14,NEA Producer Responsibility Scheme - ALBA E-waste Recycling Programme,"CHALLENGER @ PAYA LEBAR QUARTER(PLQ) 10 PAYA LEBAR ROAD, PAYA LEBAR QUARTER(PLQ), #04-01, IN-STORE 409057","Bin collection; E-waste accepted: ICT equipment, Batteries and Lamps only",https://alba-ewaste.sg
1.3010341297225,103.845072743269,0,Point,kml_15,NEA Producer Responsibility Scheme - ALBA E-waste Recycling Programme,"CHALLENGER @ PLAZA SINGAPURA 68 ORCHARD ROAD, PLAZA SINGAPURA, #04-12, IN-STORE 238839","Bin collection; E-waste accepted: ICT equipment, Batteries and Lamps only",https://alba-ewaste.sg
1.29387967409662,103.853435098778,0,Point,kml_16,NEA Producer Responsibility Scheme - ALBA E-waste Recycling Programme,"CHALLENGER @ RAFFLES CITY SHOPPING CENTRE 252 NORTH BRIDGE RD, #03-22/23 179103","Bin collection; E-waste accepted: ICT equipment, Batteries and Lamps only",https://alba-ewaste.sg
1.33389422557964,103.739690847319,0,Point,kml_17,NEA Producer Responsibility Scheme - ALBA E-waste Recycling Programme,"FAIRPRICE @ 135 JURONG GATEWAY RD 135 JURONG GATEWAY RD, #01-337 600135",Bin collection; E-waste accepted: Batteries and Lamps only,https://alba-ewaste.sg
1.38001805775709,103.753148378169,0,Point,kml_18,NEA Producer Responsibility Scheme - ALBA E-waste Recycling Programme,"FAIRPRICE @ 140 TECK WHYE LANE 140 TECK WHYE LANE, #01-351 680140",Bin collection; E-waste accepted: Batteries and Lamps only,https://alba-ewaste.sg
1.36962987657915,103.872513453305,0,Point,kml_19,NEA Producer Responsibility Scheme - ALBA E-waste Recycling Programme,"FAIRPRICE @ 152B SERANGOON AVE 4 152B SERANGOON NORTH AVE 1, #01-384 552152",Bin collection; E-waste accepted: Batteries only,https://alba-ewaste.sg
1.28309262610774,103.817667203212,0,Point,kml_20,NEA Producer Responsibility Scheme - ALBA E-waste Recycling Programme,"FAIRPRICE @ 166 BUKIT MERAH CENTRAL 166 BUKIT MERAH CENTRAL, #01-3531 & 02-3531 150166",Bin collection; E-waste accepted: Batteries and Lamps only,https://alba-ewaste.sg
1.33615562127149,103.888808397893,0,Point,kml_21,NEA Producer Responsibility Scheme - ALBA E-waste Recycling Programme,"FAIRPRICE @ 18 TAI SENG ST MAPLE TREE 18 TAI SENG ST MAPLE TREE 18, #B1-13 539775",Bin collection; E-waste accepted: Batteries and Lamps only,https://alba-ewaste.sg
1.33177634284954,103.85065032608,0,Point,kml_22,NEA Producer Responsibility Scheme - ALBA E-waste Recycling Programme,"FAIRPRICE @ 192 TOA PAYOH LOR 4 192 TOA PAYOH LOR 4, #01-670/672 310192",Bin collection; E-waste accepted: Batteries and Lamps only,https://alba-ewaste.sg
1.28648641467784,103.814263536448,0,Point,kml_23,NEA Producer Responsibility Scheme - ALBA E-waste Recycling Programme,"FAIRPRICE @ 20 LENGKOK BAHRU 20 LENGKOK BAHRU, #01-13 159053",Bin collection; E-waste accepted: Batteries only,https://alba-ewaste.sg
1.35764773186784,103.884159795182,0,Point,kml_24,NEA Producer Responsibility Scheme - ALBA E-waste Recycling Programme,"FAIRPRICE @ 202 HOUGANG ST 21 202 HOUGANG ST 21, #01-00 530202",Bin collection; E-waste accepted: Batteries and Lamps only,https://alba-ewaste.sg
1.32600152973818,103.931549243957,0,Point,kml_25,NEA Producer Responsibility Scheme - ALBA E-waste Recycling Programme,"FAIRPRICE @ 212 BEDOK NTH ST 212 BEDOK NTH ST 1, #01-147 460212",Bin collection; E-waste accepted: Batteries and Lamps only,https://alba-ewaste.sg
1.35416510010751,103.870669084432,0,Point,kml_26,NEA Producer Responsibility Scheme - ALBA E-waste Recycling Programme,"FAIRPRICE @ 253 SERANGOON CENTRAL DR 253 SERANGOON CENTRAL DR, #01-241 550253",Bin collection; E-waste accepted: Batteries only,https://alba-ewaste.sg
1.35716839620285,103.843832877214,0,Point,kml_27,NEA Producer Responsibility Scheme - ALBA E-waste Recycling Programme,"FAIRPRICE @ 279 BISHAN ST 24 279 BISHAN ST 24, #01-62/64 570279",Bin collection; E-waste accepted: Batteries only,https://alba-ewaste.sg
1.30446092684555,103.781779696786,0,Point,kml_28,NEA Producer Responsibility Scheme - ALBA E-waste Recycling Programme,"FAIRPRICE @ 28 DOVER CRESCENT 28 DOVER CRESCENT,  28 DOVER CRESCENT, #01-83 130028",Bin collection; E-waste accepted: Batteries and Lamps only,https://alba-ewaste.sg
1.3086379558023,103.784543549851,0,Point,kml_29,NEA Producer Responsibility Scheme - ALBA E-waste Recycling Programme,"FAIRPRICE @ 29A GHIM MOH LINK 29A GHIM MOH LINK, #01-01 271029",Bin collection; E-waste accepted: Batteries only,https://alba-ewaste.sg
1.32432130700743,103.923677574217,0,Point,kml_30,NEA Producer Responsibility Scheme - ALBA E-waste Recycling Programme,"FAIRPRICE @ 29B CHAI CHEE AVENUE 29B CHAI CHEE AVENUE, #01-62 462029",Bin collection; E-waste accepted: Batteries and Lamps only,https://alba-ewaste.sg
1.34551210590772,103.731219145853,0,Point,kml_31,NEA Producer Responsibility Scheme - ALBA E-waste Recycling Programme,"FAIRPRICE @ 345 JURONG EAST ST 31 345 JURONG EAST ST 31, #01-29 600345",Bin collection; E-waste accepted: Batteries and Lamps only,https://alba-ewaste.sg
1.4496371691751,103.818480841704,0,Point,kml_32,NEA Producer Responsibility Scheme - ALBA E-waste Recycling Programme,"FAIRPRICE @ 355 SEMBAWANG WAY 355 SEMBAWANG WAY, #01-01 750355",Bin collection; E-waste accepted: Batteries and Lamps only,https://alba-ewaste.sg
1.30922984163734,103.792660857615,0,Point,kml_33,NEA Producer Responsibility Scheme - ALBA E-waste Recycling Programme,"FAIRPRICE @ 36 HOLLAND DR 36 HOLLAND DR, #01-03/04/05 270036",Bin collection; E-waste accepted: Batteries and Lamps only,https://alba-ewaste.sg
1.3560205728259,103.740471155339,0,Point,kml_34,NEA Producer Responsibility Scheme - ALBA E-waste Recycling Programme,FAIRPRICE @ 4 BUKIT BATOK ST 41 4 BUKIT BATOK ST 41 #01-91/92 657991,Bin collection; E-waste accepted: Batteries only,https://alba-ewaste.sg
1.42456627801105,103.846622679654,0,Point,kml_35,NEA Producer Responsibility Scheme - ALBA E-waste Recycling Programme,"FAIRPRICE @ 414 YISHUN RING RD 414 YISHUN RING RD, #01-185 760414",Bin collection; E-waste accepted: Batteries and Lamps only,https://alba-ewaste.sg
1.31248298515734,103.765476756799,0,Point,kml_36,NEA Producer Responsibility Scheme - ALBA E-waste Recycling Programme,"FAIRPRICE @ 451 AVE 3 451 CLEMENTI AVE 3,  451 AVE 3, #01-307 120451",Bin collection; E-waste accepted: Batteries and Lamps only,https://alba-ewaste.sg
1.27414893614385,103.801399417083,0,Point,kml_37,NEA Producer Responsibility Scheme - ALBA E-waste Recycling Programme,"FAIRPRICE @ 460 ALEXANDRA RD 460 ALEXANDRA RD, 460 ALEXANDRA RD, #01-09 AND #01-16 119963",Bin collection; E-waste accepted: Batteries and Lamps only,https://alba-ewaste.sg
1.36036517264363,103.95351194572,0,Point,kml_38,NEA Producer Responsibility Scheme - ALBA E-waste Recycling Programme,"FAIRPRICE @ 475 TAMPINES ST44 475 TAMPINES ST 44, #01-145 520475",Bin collection; E-waste accepted: Batteries and Lamps only,https://alba-ewaste.sg
1.37712407965377,103.903580689143,0,Point,kml_39,NEA Producer Responsibility Scheme - ALBA E-waste Recycling Programme,"FAIRPRICE @ 476 UPPER SERANGOON VIEW 476 UPPER SERANGOON VIEW, #02-18 530476",Bin collection; E-waste accepted: Batteries only,https://alba-ewaste.sg
1.31252454307393,103.872695866375,0,Point,kml_40,NEA Producer Responsibility Scheme - ALBA E-waste Recycling Programme,"FAIRPRICE @ 5 UPPER BOON KENG RD 5 UPPER BOON KENG RD, #01-05 80005",Bin collection; E-waste accepted: Batteries and Lamps only,https://alba-ewaste.sg
1.28976475455426,103.826802914989,0,Point,kml_41,NEA Producer Responsibility Scheme - ALBA E-waste Recycling Programme,"FAIRPRICE @ 50 HAVELOCK RD 50 HAVELOCK RD,  50 HAVELOCK RD, #01-755 160050",Bin collection; E-waste accepted: Batteries and Lamps only,https://alba-ewaste.sg
1.33290398407326,103.847097997632,0,Point,kml_42,NEA Producer Responsibility Scheme - ALBA E-waste Recycling Programme,"FAIRPRICE @ 500 LOR 6 TOA PAYOH 500 LOR 6 TOA PAYOH, #B1-32/#01-33 310500",Bin collection; E-waste accepted: Batteries and Lamps only,https://alba-ewaste.sg
1.31188595917647,103.759080936733,0,Point,kml_43,NEA Producer Responsibility Scheme - ALBA E-waste Recycling Programme,"FAIRPRICE @ 502 WEST COAST DR 502 WEST COAST DR,  502 WEST COAST DR, #01-41 120502",Bin collection; E-waste accepted: Batteries and Lamps only,https://alba-ewaste.sg
1.3317526369071,103.86852281783,0,Point,kml_44,NEA Producer Responsibility Scheme - ALBA E-waste Recycling Programme,"FAIRPRICE @ 51 UPPER SERANGOON RD 51 UPPER SERANGOON RD, THE POIZ CENTRE, #01-30 TO 32, 41 TO 49 347697",Bin collection; E-waste accepted: Batteries and Lamps only,https://alba-ewaste.sg
1.34888843913821,103.849691980125,0,Point,kml_45,NEA Producer Responsibility Scheme - ALBA E-waste Recycling Programme,"FAIRPRICE @ 510 BISHAN ST 13 510 BISHAN ST 13, #01-520 570510",Bin collection; E-waste accepted: Batteries and Lamps only,https://alba-ewaste.sg
1.45364498442339,103.819676229171,0,Point,kml_46,NEA Producer Responsibility Scheme - ALBA E-waste Recycling Programme,"FAIRPRICE @ 511 CANBERRA RD 511 CANBERRA RD, #02-03 750511",Bin collection; E-waste accepted: Batteries and Lamps only,https://alba-ewaste.sg
1.30147502477947,103.907069582263,0,Point,kml_47,NEA Producer Responsibility Scheme - ALBA E-waste Recycling Programme,FAIRPRICE @ 6 MARINE PARADE CENTRAL 6 MARINE PARADE CENTRAL 449411,Bin collection; E-waste accepted: Batteries and Lamps only,https://alba-ewaste.sg
1.31418366923268,103.888434326276,0,Point,kml_48,NEA Producer Responsibility Scheme - ALBA E-waste Recycling Programme,FAIRPRICE @ 612/620 GEYLANG LOR 38 612/620 GEYLANG LOR 38 389551,Bin collection; E-waste accepted: Batteries and Lamps only,https://alba-ewaste.sg
1.33221398168009,103.722691571811,0,Point,kml_49,NEA Producer Responsibility Scheme - ALBA E-waste Recycling Programme,"FAIRPRICE @ 66 YUNG KANG RD 63/66 YUNG KUANG RD,  66 YUNG KANG RD, #01-119 AND #02-119 610063",Bin collection; E-waste accepted: Batteries and Lamps only,https://alba-ewaste.sg
1.37407578932659,103.885560008822,0,Point,kml_50,NEA Producer Responsibility Scheme - ALBA E-waste Recycling Programme,"FAIRPRICE @ 683 HOUGANG AVE 4 682 HOUGANG AVE 4, #01-310 530682",Bin collection; E-waste accepted: Batteries only,https://alba-ewaste.sg
1.32093152003622,103.870573922387,0,Point,kml_51,NEA Producer Responsibility Scheme - ALBA E-waste Recycling Programme,"FAIRPRICE @ 71 KALLANG BAHRU 71 KALLANG BAHRU, #01-529/#02-531 330071",Bin collection; E-waste accepted: Batteries and Lamps only,https://alba-ewaste.sg
1.37141096812306,103.847084468192,0,Point,kml_52,NEA Producer Responsibility Scheme - ALBA E-waste Recycling Programme,"FAIRPRICE @ 712 ANG MO KIO 712 ANG MO KIO AVE 6,  712 ANG MO KIO, #01-4056 560712",Bin collection; E-waste accepted: Batteries and Lamps only,https://alba-ewaste.sg
1.33726322100231,103.921725554735,0,Point,kml_53,NEA Producer Responsibility Scheme - ALBA E-waste Recycling Programme,"FAIRPRICE @ 745 BEDOK RESEVOIR RD 745 BEDOK RESERVOIR RD, #01-3015 470745",Bin collection; E-waste accepted: Batteries only,https://alba-ewaste.sg
1.33491977670544,103.96365389969,0,Point,kml_54,NEA Producer Responsibility Scheme - ALBA E-waste Recycling Programme,"FAIRPRICE @ 8 CHANGI BUSINESS PARK AVE 1 8 CHANGI BUSINESS PARK AVE 1, #01-51 &, #02-51, LEVEL 2 BACK OF STORE 486018","Bin collection; E-waste accepted: ICT equipment, Batteries and Lamps only",https://alba-ewaste.sg
1.32385987719133,103.855820328415,0,Point,kml_55,NEA Producer Responsibility Scheme - ALBA E-waste Recycling Programme,"FAIRPRICE @ 80 LORONG LIMAU 80 LORONG LIMAU, #01-19 320080",Bin collection; E-waste accepted: Batteries and Lamps only,https://alba-ewaste.sg
1.30884967127662,103.861969056283,0,Point,kml_56,NEA Producer Responsibility Scheme - ALBA E-waste Recycling Programme,"FAIRPRICE @ 808 FRENCH RD 808 FRENCH RD #01-01, #01-01 200808",Bin collection; E-waste accepted: Batteries and Lamps only,https://alba-ewaste.sg
1.41710212477042,103.835360127046,0,Point,kml_57,NEA Producer Responsibility Scheme - ALBA E-waste Recycling Programme,"FAIRPRICE @ 849 YISHUN RING RD 849 YISHUN RING RD, #01-370 760849",Bin collection; E-waste accepted: Batteries and Lamps only,https://alba-ewaste.sg
1.35549107280506,103.934665497735,0,Point,kml_58,NEA Producer Responsibility Scheme - ALBA E-waste Recycling Programme,"FAIRPRICE @ 866A TAMPINES ST 83 866A TAMPINES ST 83, #01-01 521866",Bin collection; E-waste accepted: Batteries and Lamps only,https://alba-ewaste.sg
1.43713052411728,103.795289911925,0,Point,kml_59,NEA Producer Responsibility Scheme - ALBA E-waste Recycling Programme,"FAIRPRICE @ 888 WOODLANDS DR 50 888 WOODLANDS DR 50, #01-757 730888",Bin collection; E-waste accepted: Batteries and Lamps only,https://alba-ewaste.sg
1.36923561407545,103.848693181134,0,Point,kml_60,NEA Producer Responsibility Scheme - ALBA E-waste Recycling Programme,"FAIRPRICE @ ANG MO KIO HUB 53 ANG MO KIO AVE 3, ANG MO KIO HUB, #B2-40, CASHIER EXIT AREA 569933","Bin collection; E-waste accepted: ICT equipment, Batteries and Lamps only",https://alba-ewaste.sg
1.3244062209194,103.928678168616,0,Point,kml_61,NEA Producer Responsibility Scheme - ALBA E-waste Recycling Programme,"FAIRPRICE @ BEDOK MALL 311 NEW UPPER CHANGI RD, BEDOK MALL, #B2-60 467360",Bin collection; E-waste accepted: Batteries and Lamps only,https://alba-ewaste.sg
1.34637376414814,103.71247281966,0,Point,kml_62,NEA Producer Responsibility Scheme - ALBA E-waste Recycling Programme,"FAIRPRICE @ BOON LAY SHOPPING CENTRE 221 BOON LAY PLACE, BOON LAY SHOPPING CENTRE, #02-200 640221",Bin collection; E-waste accepted: Batteries and Lamps only,https://alba-ewaste.sg
1.37991650655012,103.764317068934,0,Point,kml_63,NEA Producer Responsibility Scheme - ALBA E-waste Recycling Programme,"FAIRPRICE @ BUKIT PANJANG PLAZA 1 JELEBU RD, BUKIT PANJANG PLAZA, #01-15 & #02-20 677743",Bin collection; E-waste accepted: Batteries and Lamps only,https://alba-ewaste.sg
1.33875677642634,103.778560467081,0,Point,kml_64,NEA Producer Responsibility Scheme - ALBA E-waste Recycling Programme,"FAIRPRICE @ BUKIT TIMAH PLAZA 1 JLN ANAK BUKIT, BUKIT TIMAH PLAZA, #B1-01 & #B2-01 588996",Bin collection; E-waste accepted: Batteries and Lamps only,https://alba-ewaste.sg
1.44336287255184,103.830740796714,0,Point,kml_65,NEA Producer Responsibility Scheme - ALBA E-waste Recycling Programme,"FAIRPRICE @ CANBERRA PLAZA 133 CANBERRA VIEW, CANBERRA PLAZA, #B1-03/04 750133",Bin collection; E-waste accepted: Batteries and Lamps only,https://alba-ewaste.sg
1.33424102066366,103.962727968675,0,Point,kml_66,NEA Producer Responsibility Scheme - ALBA E-waste Recycling Programme,"FAIRPRICE @ CHANGI CITY POINT 5 CHANGI BUSINESS PARK CENTRAL 1, CHANGI CITY POINT, #B1-09/10/11 486038",Bin collection; E-waste accepted: Batteries and Lamps only,https://alba-ewaste.sg
1.28568926262573,103.845234127813,0,Point,kml_67,NEA Producer Responsibility Scheme - ALBA E-waste Recycling Programme,"FAIRPRICE @ CHINATOWN POINT 133 NEW BRIDGE RD, CHINATOWN POINT, #B1-01 59413",Bin collection; E-waste accepted: Batteries and Lamps only,https://alba-ewaste.sg
1.31139709732455,103.856589778945,0,Point,kml_68,NEA Producer Responsibility Scheme - ALBA E-waste Recycling Programme,"FAIRPRICE @ CITY SQUARE MALL 180 KITCHENER RD, CITY SQUARE MALL, #B1-09/10 208539",Bin collection; E-waste accepted: Batteries and Lamps only,https://alba-ewaste.sg
1.44820036630706,103.819530141315,0,Point,kml_69,NEA Producer Responsibility Scheme - ALBA E-waste Recycling Programme,"CHALLENGER @ SUN PLAZA 30 SEMBAWANG DRIVE, SUN PLAZA, #02-06, BACK OF STORE 757713","Bin collection; E-waste accepted: ICT equipment, Batteries and Lamps only",https://alba-ewaste.sg
1.35432321235723,103.945141172259,0,Point,kml_70,NEA Producer Responsibility Scheme - ALBA E-waste Recycling Programme,"CHALLENGER @ TAMPINES 1 10 TAMPINES CENTRAL 1, TAMPINES 1, #04-25, IN-STORE REPAIR COUNTER 529536","Bin collection; E-waste accepted: ICT equipment, Batteries and Lamps only",https://alba-ewaste.sg
1.28633177190205,103.827550770651,0,Point,kml_71,NEA Producer Responsibility Scheme - ALBA E-waste Recycling Programme,"CHALLENGER @ TIONG BAHRU PLAZA 302 TIONG BAHRU ROAD, TIONG BAHRU PLAZA, #03-19, IN-STORE 168732","Bin collection; E-waste accepted: ICT equipment, Batteries and Lamps only",https://alba-ewaste.sg
1.26454458682914,103.82247614144,0,Point,kml_72,NEA Producer Responsibility Scheme - ALBA E-waste Recycling Programme,"CHALLENGER @ VIVOCITY 1 HARBOURFRONT WALK, VIVOCITY, #02-34, IN-STORE 98585","Bin collection; E-waste accepted: ICT equipment, Batteries and Lamps only",https://alba-ewaste.sg
1.3406900672801,103.949352499176,0,Point,kml_73,NEA Producer Responsibility Scheme - ALBA E-waste Recycling Programme,"CHANGI GENERAL HOSPITAL 2 SIMEI STREET 3, CHANGI GENERAL HOSPITAL, B1 MAIN BUILDING LOBBY D 529889","Bin collection; E-waste accepted: ICT equipment, Batteries and Lamps only",https://alba-ewaste.sg
1.28510471875446,103.844728161861,0,Point,kml_74,NEA Producer Responsibility Scheme - ALBA E-waste Recycling Programme,"CHINATOWN POINT 133 NEW BRIDGE ROAD, #06-01 59413","Bin collection; E-waste accepted: ICT equipment, Batteries and Lamps only",https://alba-ewaste.sg
1.37514898730159,103.882894175713,0,Point,kml_75,NEA Producer Responsibility Scheme - ALBA E-waste Recycling Programme,"CI YUAN CC 51 HOUGANG AVENUE 9, MAIN LOBBY 538776","Bin collection; E-waste accepted: ICT equipment, Batteries and Lamps only",https://alba-ewaste.sg
1.31474504722936,103.893412697133,0,Point,kml_76,NEA Producer Responsibility Scheme - ALBA E-waste Recycling Programme,"CITY PLAZA 810 GEYLANG RD, LEVEL 1 409286","Bin collection; E-waste accepted: ICT equipment, Batteries and Lamps only",https://alba-ewaste.sg
1.31135169876902,103.856724057684,0,Point,kml_77,NEA Producer Responsibility Scheme - ALBA E-waste Recycling Programme,"CITY SQUARE MALL @ 180 KITCHENER ROAD 180 KITCHENER ROAD, LEVEL 2 CUSTOMER SERVICE COUNTER 208539","Bin collection; E-waste accepted: ICT equipment, Batteries and Lamps only",https://alba-ewaste.sg
1.31881519538242,103.768153682152,0,Point,kml_78,NEA Producer Responsibility Scheme - ALBA E-waste Recycling Programme,"CLEMENTI CC 220 CLEMENTI AVENUE 4, MAIN ENTRANCE 129880","Bin collection; E-waste accepted: ICT equipment, Batteries and Lamps only",https://alba-ewaste.sg
1.28385698404013,103.852128172968,0,Point,kml_79,NEA Producer Responsibility Scheme - ALBA E-waste Recycling Programme,"CLIFFORD CENTRE 24 RAFFLES PLACE, CLIFFORD CENTRE, LVL 3 CARPARK LOBBY 48621","Bin collection; E-waste accepted: ICT equipment, Batteries and Lamps only",https://alba-ewaste.sg
1.28038800400881,103.854222846596,0,Point,kml_80,NEA Producer Responsibility Scheme - ALBA E-waste Recycling Programme,"COLD STORAGE / JASONS @ MARINA BAY LINK MALL 8A MARINA BOULEVARD, #B2-44 18984",Bin collection; E-waste accepted: Batteries only,https://alba-ewaste.sg
1.27445401208969,103.844312329877,0,Point,kml_81,NEA Producer Responsibility Scheme - ALBA E-waste Recycling Programme,"COLD STORAGE @ ALTEZ (ICON VILLAGE) 16 ENGGOR STREET, #01-05 79717",Bin collection; E-waste accepted: Batteries only,https://alba-ewaste.sg
1.30974242012869,103.864101647818,0,Point,kml_82,NEA Producer Responsibility Scheme - ALBA E-waste Recycling Programme,"COLD STORAGE @ APERIA 12 KALLANG AVE, APERIA, #01-47 339511",Bin collection; E-waste accepted: Batteries and Lamps only,https://alba-ewaste.sg
1.29911677357841,103.855482356337,0,Point,kml_83,NEA Producer Responsibility Scheme - ALBA E-waste Recycling Programme,"COLD STORAGE @ BUGIS JUNCTION 230 VICTORIA STREET, BUGIS JUNCTION, #B1-17 188021",Bin collection; E-waste accepted: Batteries and Lamps only,https://alba-ewaste.sg
1.43620113868476,103.785702748828,0,Point,kml_84,NEA Producer Responsibility Scheme - ALBA E-waste Recycling Programme,"COLD STORAGE @ CAUSEWAY POINT 1 WOODLANDS SQUARE, #B1-31 738099",Bin collection; E-waste accepted: Batteries only,https://alba-ewaste.sg
1.30156234389219,103.839493764419,0,Point,kml_85,NEA Producer Responsibility Scheme - ALBA E-waste Recycling Programme,"COLD STORAGE @ CENTREPOINT 176 ORCHARD ROAD, #B1-09 238843",Bin collection; E-waste accepted: Batteries and Lamps only,https://alba-ewaste.sg
1.2913475971014,103.849989789705,0,Point,kml_86,NEA Producer Responsibility Scheme - ALBA E-waste Recycling Programme,"BEST DENKI @ FUNAN 109 NORTH BRIDGE ROAD, FUNAN, #03-16, IN-STORE 179097","Bin collection; E-waste accepted: ICT equipment, Batteries and Lamps only",https://alba-ewaste.sg
1.38681829821088,103.897547410103,0,Point,kml_87,NEA Producer Responsibility Scheme - ALBA E-waste Recycling Programme,"COMPASSVALE VILLA RC 206C COMPASSVALE LANE, COMPASSVALE VILLA RC, VOID DECK 543206","Bin collection; E-waste accepted: ICT equipment, Batteries and Lamps only",https://alba-ewaste.sg
1.28327318643431,103.819257291063,0,Point,kml_88,NEA Producer Responsibility Scheme - ALBA E-waste Recycling Programme,"CONNECTION ONE 168 JALAN BUKIT MARAH, SURBANA ONE, LEVEL 1 150169","Bin collection; E-waste accepted: ICT equipment, Batteries and Lamps only",https://alba-ewaste.sg
1.3319945637625,103.849796099663,0,Point,kml_89,NEA Producer Responsibility Scheme - ALBA E-waste Recycling Programme,"COURTS @ 460 TOA PAYOH LORONG 6 460 TOA PAYOH LORONG 6, MAIN ENTRANCE 310460","Bin collection; E-waste accepted: ICT equipment, Batteries and Lamps only",https://alba-ewaste.sg
1.37343369273579,103.845765158161,0,Point,kml_90,NEA Producer Responsibility Scheme - ALBA E-waste Recycling Programme,"COURTS @ ANG MO KIO AVE 6 730 ANG MO KIO AVE 6, STORE REAR ENTRANCE 560730","Bin collection; E-waste accepted: ICT equipment, Batteries and Lamps only",https://alba-ewaste.sg
1.43620784515025,103.785688734195,0,Point,kml_91,NEA Producer Responsibility Scheme - ALBA E-waste Recycling Programme,"COURTS @ CAUSEWAY POINT 1 WOODLANDS SQUARE, CAUSEWAY POINT, #04-19/20, MAIN ENTRANCE 738099","Bin collection; E-waste accepted: ICT equipment, Batteries and Lamps only",https://alba-ewaste.sg
1.31258298521486,103.7654767568,0,Point,kml_92,NEA Producer Responsibility Scheme - ALBA E-waste Recycling Programme,"COURTS @ CLEMENTI CENTRAL 451 CLEMENTI AVE 3, COURTS CLEMENTI, #01-309, LEVEL 2 ENTRANCE 120451","Bin collection; E-waste accepted: ICT equipment, Batteries and Lamps only",https://alba-ewaste.sg
1.37352976432142,103.933847009818,0,Point,kml_93,NEA Producer Responsibility Scheme - ALBA E-waste Recycling Programme,"COURTS @ COURTS MEGASTORE 50 TAMPINES NORTH DRIVE 2, COURTS MEGASTORE, LEVEL 1 CASHIER AREA 528766","Bin collection; E-waste accepted: ICT equipment, Batteries and Lamps only",https://alba-ewaste.sg
1.34279199829491,103.953050755789,0,Point,kml_94,NEA Producer Responsibility Scheme - ALBA E-waste Recycling Programme,"COURTS @ EASTPOINT MALL 3 SIMEI STREET 6, EASTPOINT MALL, #04-07, MAIN ENTRANCE 528833","Bin collection; E-waste accepted: ICT equipment, Batteries and Lamps only",https://alba-ewaste.sg
1.29134400590163,103.849984790194,0,Point,kml_95,NEA Producer Responsibility Scheme - ALBA E-waste Recycling Programme,"COURTS @ FUNAN 107 NORTH BRIDGE ROAD, FUNAN, #03-01 179105","Manned collection (Contact staff for disposal); E-waste accepted: ICT equipment, Batteries and Lamps only",https://alba-ewaste.sg
1.33342819289398,103.74335944192,0,Point,kml_96,NEA Producer Responsibility Scheme - ALBA E-waste Recycling Programme,"COURTS @ JEM 50 JURONG GATEWAY ROAD, JEM, #04-30, MAIN ENTRANCE 608549","Bin collection; E-waste accepted: ICT equipment, Batteries and Lamps only",https://alba-ewaste.sg
1.33975200383338,103.706685013443,0,Point,kml_97,NEA Producer Responsibility Scheme - ALBA E-waste Recycling Programme,"COURTS @ JURONG POINT 1 JURONG WEST CENTRAL, JURONG POINT, #02-05, MAIN ENTRANCE 648886","Bin collection; E-waste accepted: ICT equipment, Batteries and Lamps only",https://alba-ewaste.sg
1.38513873962874,103.745022476923,0,Point,kml_98,NEA Producer Responsibility Scheme - ALBA E-waste Recycling Programme,"COURTS @ LOT ONE 21 CHOA CHU KANG AVE 4, LOT ONE, #03-01 689812","Manned collection (Contact staff for disposal); E-waste accepted: ICT equipment, Batteries and Lamps only",https://alba-ewaste.sg
1.34447602215708,103.774365260756,0,Point,kml_99,NEA Producer Responsibility Scheme - ALBA E-waste Recycling Programme,"COURTS @ SIM LIAN BUILDING 205 UPPER BUKIT TIMAH ROAD, SIM LIAN BUILDING 588181","Manned collection (Contact staff for disposal); E-waste accepted: ICT equipment, Batteries and Lamps only",https://alba-ewaste.sg
1.35229230312204,103.944476926807,0,Point,kml_100,NEA Producer Responsibility Scheme - ALBA E-waste Recycling Programme,"COURTS @ TAMPINES MALL 4 TAMPINES CENTRAL 5, TAMPINES MALL, #03-16/16A 529510","Manned collection (Contact staff for disposal); E-waste accepted: ICT equipment, Batteries and Lamps only",https://alba-ewaste.sg
1.30226267724838,103.837493973346,0,Point,kml_101,NEA Producer Responsibility Scheme - ALBA E-waste Recycling Programme,"COURTS NOJIMA @ THE HEEREN 260 ORCHARD ROAD, THE HEEREN 238855","Manned collection (Contact staff for disposal); E-waste accepted: ICT equipment, Batteries and Lamps only",https://alba-ewaste.sg
1.38228585781228,103.894052021199,0,Point,kml_102,NEA Producer Responsibility Scheme - ALBA E-waste Recycling Programme,"FAIRPRICE @ COMPASSVALE LINK 277C COMPASSVALE LINK, #01-13 544277",Bin collection; E-waste accepted: Batteries and Lamps only,https://alba-ewaste.sg
1.32340620641603,103.767561427916,0,Point,kml_103,NEA Producer Responsibility Scheme - ALBA E-waste Recycling Programme,"COLD STORAGE @ CLEMENTI ARCADE 41 SUNSET WAY, #01-01A 597071",Bin collection; E-waste accepted: Batteries only,https://alba-ewaste.sg
1.32257316870352,103.814245541703,0,Point,kml_104,NEA Producer Responsibility Scheme - ALBA E-waste Recycling Programme,"COLD STORAGE @ CLUNY COURT 501 BUKIT TIMAH ROAD, CLUNY COURT, #01-02 259760",Bin collection; E-waste accepted: Batteries and Lamps only,https://alba-ewaste.sg
1.39219415561265,103.894980025267,0,Point,kml_105,NEA Producer Responsibility Scheme - ALBA E-waste Recycling Programme,"COLD STORAGE @ COMPASS ONE 1 SENGKANG SQUARE, COMPASS ONE, #B1-25 545078",Bin collection; E-waste accepted: Batteries and Lamps only,https://alba-ewaste.sg
1.33198875524596,103.945925951396,0,Point,kml_106,NEA Producer Responsibility Scheme - ALBA E-waste Recycling Programme,"COLD STORAGE @ EAST VILLAGE 430 UPPER CHANGI ROAD, #01-47 487048",Bin collection; E-waste accepted: Batteries only,https://alba-ewaste.sg
1.29390235110984,103.831757910943,0,Point,kml_107,NEA Producer Responsibility Scheme - ALBA E-waste Recycling Programme,"COLD STORAGE @ GREAT WORLD CITY 1 KIM SENG PROMENADE, GREAT WORLD CITY, #B1-18 237994",Bin collection; E-waste accepted: Batteries and Lamps only,https://alba-ewaste.sg
1.38780189279931,103.869295560091,0,Point,kml_108,NEA Producer Responsibility Scheme - ALBA E-waste Recycling Programme,"COLD STORAGE @ GREENWICH VILLAGE 1 SELETAR ROAD, #01-11 807011",Bin collection; E-waste accepted: Batteries only,https://alba-ewaste.sg
1.33077492772396,103.795713392255,0,Point,kml_109,NEA Producer Responsibility Scheme - ALBA E-waste Recycling Programme,"COLD STORAGE @ GUTHRIE HOUSE 1 FIFTH AVENUE, GUTHRIE HOUSE, #01-05 268802",Bin collection; E-waste accepted: Batteries and Lamps only,https://alba-ewaste.sg
1.26401147975367,103.820114729398,0,Point,kml_110,NEA Producer Responsibility Scheme - ALBA E-waste Recycling Programme,"COLD STORAGE @ HARBOURFRONT CENTRE 1 MARITIME SQUARE, #01-47 99254",Bin collection; E-waste accepted: Batteries only,https://alba-ewaste.sg
1.35947026322904,103.885131343227,0,Point,kml_111,NEA Producer Responsibility Scheme - ALBA E-waste Recycling Programme,"COLD STORAGE @ HEARTLAND MALL - KOVAN 205 HOUGANG STREET 21, #01-133 530205",Bin collection; E-waste accepted: Batteries only,https://alba-ewaste.sg
1.36355095759112,103.764236106056,0,Point,kml_112,NEA Producer Responsibility Scheme - ALBA E-waste Recycling Programme,"COLD STORAGE @ HILLVIEW MARKET PLACE 4 HILLVIEW RISE, HILLVIEW MARKET PLACE, #02-07 667979",Bin collection; E-waste accepted: Batteries and Lamps only,https://alba-ewaste.sg
1.31015705027517,103.795403720081,0,Point,kml_113,NEA Producer Responsibility Scheme - ALBA E-waste Recycling Programme,"COLD STORAGE @ HOLLAND SHOPPING CENTRE 211 HOLLAND AVENUE, #01-02 278967",Bin collection; E-waste accepted: Batteries only,https://alba-ewaste.sg
1.31756196654762,103.785840618421,0,Point,kml_114,NEA Producer Responsibility Scheme - ALBA E-waste Recycling Programme,"COLD STORAGE @ JELITA SHOPPING CENTRE 293 HOLLAND ROAD, JELITA SHOPPING CENTRE, #01-01 278628",Bin collection; E-waste accepted: Batteries and Lamps only,https://alba-ewaste.sg
1.30209169994185,103.876156900352,0,Point,kml_115,NEA Producer Responsibility Scheme - ALBA E-waste Recycling Programme,"COLD STORAGE @ KALLANG LEISURE PARK 5 STADIUM WALK, KALLANG LEISURE PARK, #B1-01 397693",Bin collection; E-waste accepted: Batteries and Lamps only,https://alba-ewaste.sg
1.27662846161354,103.852592595556,0,Point,kml_116,NEA Producer Responsibility Scheme - ALBA E-waste Recycling Programme,"COLD STORAGE @ MARINA ONE 5 STRAITS VIEW, #B2-15 18935",Bin collection; E-waste accepted: Batteries and Lamps only,https://alba-ewaste.sg
1.35007003761735,103.872939762079,0,Point,kml_117,NEA Producer Responsibility Scheme - ALBA E-waste Recycling Programme,"COLD STORAGE @ NEX 23 SERANGOON CENTRAL, #B2-44 556083",Bin collection; E-waste accepted: Batteries only,https://alba-ewaste.sg
1.42974552301599,103.835658012735,0,Point,kml_118,NEA Producer Responsibility Scheme - ALBA E-waste Recycling Programme,"COLD STORAGE @ NORTHPOINT CITY 930 YISHUN AVE 2, #B1-06 769098",Bin collection; E-waste accepted: Batteries only,https://alba-ewaste.sg
1.32021100697315,103.843656761923,0,Point,kml_119,NEA Producer Responsibility Scheme - ALBA E-waste Recycling Programme,"COLD STORAGE @ NOVENA SQUARE 238 THOMSON ROAD, NOVENA SQUARE, #01-28 307683",Bin collection; E-waste accepted: Batteries and Lamps only,https://alba-ewaste.sg
1.29959857224627,103.787640883025,0,Point,kml_120,NEA Producer Responsibility Scheme - ALBA E-waste Recycling Programme,"COLD STORAGE @ ONE NORTH 1 FUSIONOPOLIS WAY, ONE NORTH, #B2-03 138632",Bin collection; E-waste accepted: Batteries and Lamps only,https://alba-ewaste.sg
1.30322507114421,103.835680238847,0,Point,kml_121,NEA Producer Responsibility Scheme - ALBA E-waste Recycling Programme,"COLD STORAGE @ PARAGON 290 ORCHARD ROAD, #B1-21 238859",Bin collection; E-waste accepted: Batteries and Lamps only,https://alba-ewaste.sg
1.30076832483554,103.905359414908,0,Point,kml_122,NEA Producer Responsibility Scheme - ALBA E-waste Recycling Programme,"COLD STORAGE @ PARKWAY PARADE 80 MARINE PARADE ROAD, #B1-84 449269",Bin collection; E-waste accepted: Batteries and Lamps only,https://alba-ewaste.sg
1.30080897129773,103.844993566013,0,Point,kml_123,NEA Producer Responsibility Scheme - ALBA E-waste Recycling Programme,"COLD STORAGE @ PLAZA SINGAPURA 68 ORCHARD ROAD, #B2-15 238839",Bin collection; E-waste accepted: Batteries and Lamps only,https://alba-ewaste.sg
1.29376028056297,103.8527683243,0,Point,kml_124,NEA Producer Responsibility Scheme - ALBA E-waste Recycling Programme,"COLD STORAGE @ RAFFLES CITY SHOPPING CENTRE 1 STAMFORD ROAD, RAFFLES CITY SHOPPING CENTRE, #B1-01 179103",Bin collection; E-waste accepted: Batteries and Lamps only,https://alba-ewaste.sg
1.31302983663844,103.92346841093,0,Point,kml_125,NEA Producer Responsibility Scheme - ALBA E-waste Recycling Programme,"COLD STORAGE @ SIGLAP V 2 FIRST STREET, #01-05 458278",Bin collection; E-waste accepted: Batteries and Lamps only,https://alba-ewaste.sg
1.33686681678198,103.783915059294,0,Point,kml_126,NEA Producer Responsibility Scheme - ALBA E-waste Recycling Programme,"COLD STORAGE @ SIME DARBY 896 DUNEARN ROAD, #02-01 589472",Bin collection; E-waste accepted: Batteries only,https://alba-ewaste.sg
1.30340650123954,103.834185449872,0,Point,kml_127,NEA Producer Responsibility Scheme - ALBA E-waste Recycling Programme,"COLD STORAGE @ TAKASHIMAYA NGEE ANN CITY 391A ORCHARD ROAD, #B2-01, NEAR CASHIER 238872",Bin collection; E-waste accepted: Batteries only,https://alba-ewaste.sg
1.35421199915918,103.945045925789,0,Point,kml_128,NEA Producer Responsibility Scheme - ALBA E-waste Recycling Programme,"COLD STORAGE @ TAMPINES 1 10 TAMPINES CENTRAL 1, #B1-01 529536",Bin collection; E-waste accepted: Batteries only,https://alba-ewaste.sg
1.30485342103809,103.82388349081,0,Point,kml_129,NEA Producer Responsibility Scheme - ALBA E-waste Recycling Programme,"COLD STORAGE @ TANGLIN MALL 163 TANGLIN ROAD, TANGLIN MALL, #B1-01 247933",Bin collection; E-waste accepted: Batteries and Lamps only,https://alba-ewaste.sg
1.36018752139723,103.767580586006,0,Point,kml_130,NEA Producer Responsibility Scheme - ALBA E-waste Recycling Programme,COLD STORAGE @ THE RAIL MALL 464-484 UPPER BUKIT TIMAH ROAD 678077,Bin collection; E-waste accepted: Batteries only,https://alba-ewaste.sg
1.28457775278049,103.860189235959,0,Point,kml_131,NEA Producer Responsibility Scheme - ALBA E-waste Recycling Programme,"COLD STORAGE @ THE SHOPPES AT MARINA BAY SANDS 2 BAYFRONT AVENUE, #01-29 18972",Bin collection; E-waste accepted: Batteries only,https://alba-ewaste.sg
1.30681500701647,103.788462732228,0,Point,kml_132,NEA Producer Responsibility Scheme - ALBA E-waste Recycling Programme,"COLD STORAGE @ THE STAR VISTA 1 VISTA EXCHANGE GREEN, THE STAR VISTA, #B1-02 138617",Bin collection; E-waste accepted: Batteries and Lamps only,https://alba-ewaste.sg
1.29225958492072,103.842561023814,0,Point,kml_133,NEA Producer Responsibility Scheme - ALBA E-waste Recycling Programme,"COLD STORAGE @ UE SQUARE 81 CLEMENCEAU AVENUE, UE SQUARE, #02-15 239917",Bin collection; E-waste accepted: Batteries and Lamps only,https://alba-ewaste.sg
1.31742800828507,103.843670755275,0,Point,kml_134,NEA Producer Responsibility Scheme - ALBA E-waste Recycling Programme,"COLD STORAGE @ UNITED SQUARE 101 THOMSON ROAD, UNITED SQUARE, #B1-29 307591",Bin collection; E-waste accepted: Batteries and Lamps only,https://alba-ewaste.sg
1.30358622522085,103.766103753835,0,Point,kml_135,NEA Producer Responsibility Scheme - ALBA E-waste Recycling Programme,"COLD STORAGE @ WEST COAST PLAZA 154 WEST COAST ROAD, WEST COAST PLAZA, #B1-19 127371",Bin collection; E-waste accepted: Batteries and Lamps only,https://alba-ewaste.sg
1.34975162455298,103.749471997629,0,Point,kml_136,NEA Producer Responsibility Scheme - ALBA E-waste Recycling Programme,"COLD STORAGE @ WEST MALL 1 BUKIT BATOK CENTRAL LINK, #B1-01 658713",Bin collection; E-waste accepted: Batteries only,https://alba-ewaste.sg
1.39209415560863,103.894980025365,0,Point,kml_137,NEA Producer Responsibility Scheme - ALBA E-waste Recycling Programme,"COMPASS ONE 1 SENGKANG SQUARE, #B1-52/53, MRT EXIT/ENTRANCE 545078","Bin collection; E-waste accepted: ICT equipment, Batteries and Lamps only",https://alba-ewaste.sg
1.2835152172587,103.846878906341,0,Point,kml_138,NEA Producer Responsibility Scheme - ALBA E-waste Recycling Programme,"CROSS STREET EXCHANGE 18 CROSS STREET, B1 CUSTOMER SERVICE COUNTER 48423","Bin collection; E-waste accepted: ICT equipment, Batteries and Lamps only",https://alba-ewaste.sg
1.32393124456783,103.810008658432,0,Point,kml_139,NEA Producer Responsibility Scheme - ALBA E-waste Recycling Programme,"FAIRPRICE @ CORONATION PLAZA 587 BUKIT TIMAH RD #01-01 CORONATION PLAZA, #01-01 269707",Bin collection; E-waste accepted: Batteries only,https://alba-ewaste.sg
1.29270252663113,103.810971834718,0,Point,kml_140,NEA Producer Responsibility Scheme - ALBA E-waste Recycling Programme,"FAIRPRICE @ DAWSON PLACE 57 DAWSON RD, DAWSON PLACE, #01-07 142057",Bin collection; E-waste accepted: Batteries and Lamps only,https://alba-ewaste.sg
1.28096680706214,103.810298189565,0,Point,kml_141,NEA Producer Responsibility Scheme - ALBA E-waste Recycling Programme,"FAIRPRICE @ DEPOT HEIGHTS SHOPPING CENTRE 108 DEPOT RD, DEPOT HEIGHTS SHOPPING CENTRE, #01-01 100108",Bin collection; E-waste accepted: Batteries and Lamps only,https://alba-ewaste.sg
1.37585207343751,103.955558697765,0,Point,kml_142,NEA Producer Responsibility Scheme - ALBA E-waste Recycling Programme,"FAIRPRICE @ E!HUB 1 PASIR RIS CLOSE, E!HUB DOWNTOWN EAST, #02-127, #02-127 519599",Bin collection; E-waste accepted: Batteries only,https://alba-ewaste.sg
1.34269304702324,103.953041497621,0,Point,kml_143,NEA Producer Responsibility Scheme - ALBA E-waste Recycling Programme,"FAIRPRICE @ EASTPOINT 3 SIMEI ST 6, EASTPOINT, #05-01 528833",Bin collection; E-waste accepted: Batteries and Lamps only,https://alba-ewaste.sg
1.32624264136832,103.678352875964,0,Point,kml_144,NEA Producer Responsibility Scheme - ALBA E-waste Recycling Programme,FAIRPRICE @ FAIRPRICE HUB 1 JOO KOON CIRCLE LEVEL 3 629117,Bin collection; E-waste accepted: Batteries only,https://alba-ewaste.sg
1.29126221106691,103.850190854971,0,Point,kml_145,NEA Producer Responsibility Scheme - ALBA E-waste Recycling Programme,"FAIRPRICE @ FUNAN MALL 107 NORTH BRIDGE RD #B1-10 FUNAN MALL, #B1-10 179105",Bin collection; E-waste accepted: Batteries only,https://alba-ewaste.sg
1.3784892210403,103.763150183704,0,Point,kml_146,NEA Producer Responsibility Scheme - ALBA E-waste Recycling Programme,"FAIRPRICE @ HILLION MALL 17 PETIR RD, HILLION MALL, #B2-67 678278",Bin collection; E-waste accepted: Batteries and Lamps only,https://alba-ewaste.sg
1.36577391162036,103.748520902673,0,Point,kml_147,NEA Producer Responsibility Scheme - ALBA E-waste Recycling Programme,"FAIRPRICE @ HOMETEAM NS BUKIT BATOK CLUBHOUSE 2 BUKIT BATOK WEST AVE 7, HOMETEAM NS BUKIT BATOK CLUBHOUSE, #01-10 659003",Bin collection; E-waste accepted: Batteries and Lamps only,https://alba-ewaste.sg
1.3756672826198,103.879450251097,0,Point,kml_148,NEA Producer Responsibility Scheme - ALBA E-waste Recycling Programme,"FAIRPRICE @ HOUGANG 1 1 HOUGANG ST 91, HOUGANG 1, #02-01, ESCALATOR WALKWAY 538692","Bin collection; E-waste accepted: ICT equipment, Batteries and Lamps only",https://alba-ewaste.sg
1.37258990786096,103.893722177284,0,Point,kml_149,NEA Producer Responsibility Scheme - ALBA E-waste Recycling Programme,"FAIRPRICE @ HOUGANG MALL 90 HOUGANG AVE 10, HOUGANG MALL, #B1-07 538766",Bin collection; E-waste accepted: Batteries and Lamps only,https://alba-ewaste.sg
1.33352819288108,103.743359441884,0,Point,kml_150,NEA Producer Responsibility Scheme - ALBA E-waste Recycling Programme,"FAIRPRICE @ JEM 50 JURONG GATEWAY RD, JEM, #B1-21/22 & #B3-01, CASHIER AREA 608549","Bin collection; E-waste accepted: ICT equipment, Batteries and Lamps only",https://alba-ewaste.sg
1.36002094342789,103.990269698218,0,Point,kml_151,NEA Producer Responsibility Scheme - ALBA E-waste Recycling Programme,"FAIRPRICE @ JEWEL CHANGI AIRPORT 78 AIRPORT BOULEVARD, JEWEL CHANGI AIRPORT, #B2-205 TO 208 819666",Bin collection; E-waste accepted: Batteries only,https://alba-ewaste.sg
1.31533644668488,103.89848166863,0,Point,kml_152,NEA Producer Responsibility Scheme - ALBA E-waste Recycling Programme,"FAIRPRICE @ JOO CHIAT COMPLEX 2 JOO CHIAT RD, JOO CHIAT COMPLEX, #01-1139 / #02-1139 420002",Bin collection; E-waste accepted: Batteries and Lamps only,https://alba-ewaste.sg
1.35033943100792,103.848477624895,0,Point,kml_153,NEA Producer Responsibility Scheme - ALBA E-waste Recycling Programme,"FAIRPRICE @ JUNCTION 8 SHOPPING CENTRE 9 BISHAN PLACE, JUNCTION 8 SHOPPING CENTRE, #B1-01 579837",Bin collection; E-waste accepted: Batteries and Lamps only,https://alba-ewaste.sg
1.33946402991596,103.705308190988,0,Point,kml_154,NEA Producer Responsibility Scheme - ALBA E-waste Recycling Programme,"FAIRPRICE @ JURONG POINT 63 JURONG WEST CENTRAL 3, JURONG POINT, #03-01, CASHIER AREA 648331","Bin collection; E-waste accepted: ICT equipment, Batteries and Lamps only",https://alba-ewaste.sg
1.3395520041126,103.70668501293,0,Point,kml_155,NEA Producer Responsibility Scheme - ALBA E-waste Recycling Programme,"FAIRPRICE @ JURONG POINT 1 1 JURONG WEST CENTRAL 2, JURONG POINT 1, #B1-09 648886",Bin collection; E-waste accepted: Batteries and Lamps only,https://alba-ewaste.sg
1.29260252739925,103.810971834694,0,Point,kml_156,NEA Producer Responsibility Scheme - ALBA E-waste Recycling Programme,"DAWSON PLACE 57 DAWSON RD, DAWSON PLACE 142057","Bin collection; E-waste accepted: ICT equipment, Batteries and Lamps only",https://alba-ewaste.sg
1.32291627306771,103.922394098073,0,Point,kml_157,NEA Producer Responsibility Scheme - ALBA E-waste Recycling Programme,"DECATHLON @ BEDOK 750A CHAI CHEE ROAD, #01-01 469001",Bin collection; E-waste accepted: Batteries only,https://alba-ewaste.sg
1.31147742366443,103.856420563138,0,Point,kml_158,NEA Producer Responsibility Scheme - ALBA E-waste Recycling Programme,"DECATHLON @ CITY SQUARE MALL 180 KITCHENER RD, CITY SQUARE MALL, #02-03 208539",Bin collection; E-waste accepted: Batteries only,https://alba-ewaste.sg
1.32725284713408,103.678321797801,0,Point,kml_159,NEA Producer Responsibility Scheme - ALBA E-waste Recycling Programme,"DECATHLON @ JOO KOON 1 JOO KOON CIRCLE, FAIRPRICE HUB, #02-21 629117",Bin collection; E-waste accepted: Batteries only,https://alba-ewaste.sg
1.41680073557071,103.902144317116,0,Point,kml_160,NEA Producer Responsibility Scheme - ALBA E-waste Recycling Programme,"DECATHLON @ NORTHSHORE PLAZA 407 NORTHSHORE DRIVE, #01-27 820407",Bin collection; E-waste accepted: Batteries only,https://alba-ewaste.sg
1.30424187312263,103.882388198386,0,Point,kml_161,NEA Producer Responsibility Scheme - ALBA E-waste Recycling Programme,DECATHLON @ STADIUM 230 STADIUM BOULEVARD 397799,Bin collection; E-waste accepted: Batteries only,https://alba-ewaste.sg
1.30146257011029,103.839749331191,0,Point,kml_162,NEA Producer Responsibility Scheme - ALBA E-waste Recycling Programme,"DECATHLON @ THE CENTREPOINT 176 ORCHARD ROAD, THE CENTREPOINT, #01-14 238843",Bin collection; E-waste accepted: Batteries only,https://alba-ewaste.sg
1.28086680691713,103.810298189559,0,Point,kml_163,NEA Producer Responsibility Scheme - ALBA E-waste Recycling Programme,"DEPOT HEIGHTS SHOPPING CENTRE 108 DEPOT ROAD, DEPOT HEIGHTS SHOPPING CENTRE 100108","Bin collection; E-waste accepted: ICT equipment, Batteries and Lamps only",https://alba-ewaste.sg
1.37782876001203,103.942364346927,0,Point,kml_164,NEA Producer Responsibility Scheme - ALBA E-waste Recycling Programme,"ELIAS MALL 623 ELIAS ROAD, ELIAS MALL, MAIN ENTRANCE 510623","Bin collection; E-waste accepted: ICT equipment, Batteries and Lamps only",https://alba-ewaste.sg
1.31052232102667,103.836225164218,0,Point,kml_165,NEA Producer Responsibility Scheme - ALBA E-waste Recycling Programme,ENVIRONMENT BUILDING (MSE/NEA) 40 SCOTTS ROAD 228231,"Bin collection; E-waste accepted: ICT equipment, Batteries and Lamps only",https://alba-ewaste.sg
1.33264371695608,103.915255282845,0,Point,kml_166,NEA Producer Responsibility Scheme - ALBA E-waste Recycling Programme,"EUNOS CC 180 BEDOK RESERVOIR ROAD, MAIN ENTRANCE 479220","Bin collection; E-waste accepted: ICT equipment, Batteries and Lamps only",https://alba-ewaste.sg
1.34903410857629,103.749566763853,0,Point,kml_167,NEA Producer Responsibility Scheme - ALBA E-waste Recycling Programme,"FAIRPRICE @ 10 BUKIT BATOK CENTRAL 10 BUKIT BATOK CENTRAL, #01-08 659958",Bin collection; E-waste accepted: Batteries and Lamps only,https://alba-ewaste.sg
1.27500392424917,103.843566018782,0,Point,kml_168,NEA Producer Responsibility Scheme - ALBA E-waste Recycling Programme,"FAIRPRICE @ 100AM 100 TRAS ST, 100AM, #B1-01 79027",Bin collection; E-waste accepted: Batteries and Lamps only,https://alba-ewaste.sg
1.34832257330364,103.948152157015,0,Point,kml_169,NEA Producer Responsibility Scheme - ALBA E-waste Recycling Programme,"FAIRPRICE @ 107 TAMPINES ST 11 107 TAMPINES ST 11, #01-353/355/357/359 521107",Bin collection; E-waste accepted: Batteries only,https://alba-ewaste.sg
1.30035638714612,103.837151538264,0,Point,kml_170,NEA Producer Responsibility Scheme - ALBA E-waste Recycling Programme,"FAIRPRICE @ 111 SOMERSET RD 111 SOMERSET RD, #01-21 TO 30 238164",Bin collection; E-waste accepted: Batteries and Lamps only,https://alba-ewaste.sg
1.32160656121975,103.886811269034,0,Point,kml_171,NEA Producer Responsibility Scheme - ALBA E-waste Recycling Programme,"FAIRPRICE @ 114 ALJUNIED AVE 2 114 ALJUNIED AVE 2, #01-75 380114",Bin collection; E-waste accepted: Batteries and Lamps only,https://alba-ewaste.sg
1.29031290636978,103.817000893289,0,Point,kml_172,NEA Producer Responsibility Scheme - ALBA E-waste Recycling Programme,"FAIRPRICE @ 12 ALEXANDRA VIEW 12 ALEXANDRA VIEW, #01-18 158736",Bin collection; E-waste accepted: Batteries only,https://alba-ewaste.sg
1.30765868864011,103.828966342853,0,Point,kml_173,NEA Producer Responsibility Scheme - ALBA E-waste Recycling Programme,"COLD STORAGE @ CLAYMORE CONNECT ORCHARD HOTEL 442 ORCHARD ROAD, #B1-01 238879",Bin collection; E-waste accepted: Batteries only,https://alba-ewaste.sg
1.35288729929156,103.867126169343,0,Point,kml_174,NEA Producer Responsibility Scheme - ALBA E-waste Recycling Programme,"BRADDELL HEIGHTS ZONE F RC 318 SERANGOON AVE 2, #01-324 550318","Bin collection; E-waste accepted: ICT equipment, Batteries and Lamps only",https://alba-ewaste.sg
1.37592800577962,103.748646923201,0,Point,kml_175,NEA Producer Responsibility Scheme - ALBA E-waste Recycling Programme,"BRICKLAND MIRAGE QUAD RN 816B KEAT HONG LINK, #01-67 682816","Bin collection; E-waste accepted: ICT equipment, Batteries and Lamps only",https://alba-ewaste.sg
1.38479899609748,103.881961176796,0,Point,kml_176,NEA Producer Responsibility Scheme - ALBA E-waste Recycling Programme,"BUANGKOK SQUARE 991 BUANGKOK LINK, LEVEL 1 530991","Bin collection; E-waste accepted: ICT equipment, Batteries and Lamps only",https://alba-ewaste.sg
1.3001178926512,103.856191572238,0,Point,kml_177,NEA Producer Responsibility Scheme - ALBA E-waste Recycling Programme,"BUGIS JUNCTION TOWERS 230 VICTORIA STREET, FOUNTAIN LOBBY 188024","Bin collection; E-waste accepted: ICT equipment, Batteries and Lamps only",https://alba-ewaste.sg
1.28525427134678,103.815828541319,0,Point,kml_178,NEA Producer Responsibility Scheme - ALBA E-waste Recycling Programme,BUKIT MERAH CC 4000 JALAN BUKIT MERAH 159465,"Bin collection; E-waste accepted: ICT equipment, Batteries and Lamps only",https://alba-ewaste.sg
1.37635335173791,103.770651806292,0,Point,kml_179,NEA Producer Responsibility Scheme - ALBA E-waste Recycling Programme,"BUKIT PANJANG CC 8 PENDING ROAD, MAIN LOBBY 678295","Bin collection; E-waste accepted: ICT equipment, Batteries and Lamps only",https://alba-ewaste.sg
1.37981650655046,103.76431706912,0,Point,kml_180,NEA Producer Responsibility Scheme - ALBA E-waste Recycling Programme,"BUKIT PANJANG PLAZA 1 JELEBU ROAD, BUKIT PANJANG PLAZA, #04-03, SIDE ENTRANCE 677743","Bin collection; E-waste accepted: ICT equipment, Batteries and Lamps only",https://alba-ewaste.sg
1.2736360147998,103.82584430083,0,Point,kml_181,NEA Producer Responsibility Scheme - ALBA E-waste Recycling Programme,"BUKIT PURMEI ZONE A RC 108 BUKIT PURMEI ROAD, #01-129 90108","Bin collection; E-waste accepted: ICT equipment, Batteries and Lamps only",https://alba-ewaste.sg
1.33865677636545,103.778560466605,0,Point,kml_182,NEA Producer Responsibility Scheme - ALBA E-waste Recycling Programme,"BUKIT TIMAH PLAZA 1 JALAN ANAK BUKIT BUKIT TIMAH PLAZA, BUKIT TIMAH PLAZA, RESIDENTIAL BLOCK CARPARK 588996","Bin collection; E-waste accepted: ICT equipment, Batteries and Lamps only",https://alba-ewaste.sg
1.44325505410684,103.830569524871,0,Point,kml_183,NEA Producer Responsibility Scheme - ALBA E-waste Recycling Programme,"CANBERRA PLAZA 133 CANBERRA VIEW, LEVEL 1 750133","Bin collection; E-waste accepted: ICT equipment, Batteries and Lamps only",https://alba-ewaste.sg
1.33326351754784,103.74031748528,0,Point,kml_184,NEA Producer Responsibility Scheme - ALBA E-waste Recycling Programme,"CAPITALAND JCUBE 2 JURONG EAST CENTRAL 1, REAR ENTRANCE 609731","Bin collection; E-waste accepted: ICT equipment, Batteries and Lamps only",https://alba-ewaste.sg
1.35260468312392,103.944682575198,0,Point,kml_185,NEA Producer Responsibility Scheme - ALBA E-waste Recycling Programme,"CAPITALAND TAMPINES MALL 4 TAMPINES CENTRAL 5, CUSTOMER SERVICE COUNTER 529510","Bin collection; E-waste accepted: ICT equipment, Batteries and Lamps only",https://alba-ewaste.sg
1.33379422560311,103.739690846607,0,Point,kml_186,NEA Producer Responsibility Scheme - ALBA E-waste Recycling Programme,"CASH CONVERTERS @ 135 JURONG GATEWAY ROAD 135 JURONG GATEWAY ROAD, BUYER'S OFFICE 600135","Bin collection; E-waste accepted: ICT equipment, Batteries and Lamps only",https://alba-ewaste.sg
1.33166814763334,103.850487240051,0,Point,kml_187,NEA Producer Responsibility Scheme - ALBA E-waste Recycling Programme,"CASH CONVERTERS @ 192 TOA PAYOH LORONG 4 192 TOA PAYOH LORONG 4, BUYER'S OFFICE 310192","Bin collection; E-waste accepted: ICT equipment, Batteries and Lamps only",https://alba-ewaste.sg
1.3548010802759,103.944458084939,0,Point,kml_188,NEA Producer Responsibility Scheme - ALBA E-waste Recycling Programme,"CASH CONVERTERS @ 510 TAMPINES CENTRAL 1 510 TAMPINES CENTRAL 1, BUYER'S OFFICE 520510","Bin collection; E-waste accepted: ICT equipment, Batteries and Lamps only",https://alba-ewaste.sg
1.37062493508975,103.848045714133,0,Point,kml_189,NEA Producer Responsibility Scheme - ALBA E-waste Recycling Programme,"CASH CONVERTERS @ 710A ANG MO KIO AVE 8 710A ANG MO KIO AVE 8, GROUND FLOOR - BUYER’S OFFICE 561710","Bin collection; E-waste accepted: ICT equipment, Batteries and Lamps only",https://alba-ewaste.sg
1.43610784516084,103.78568873357,0,Point,kml_190,NEA Producer Responsibility Scheme - ALBA E-waste Recycling Programme,"CAUSEWAY POINT 1 WOODLANDS SQUARE, MAIN ENTRANCE 738099","Bin collection; E-waste accepted: ICT equipment, Batteries and Lamps only",https://alba-ewaste.sg
1.30099278662962,103.838305765666,0,Point,kml_191,NEA Producer Responsibility Scheme - ALBA E-waste Recycling Programme,"313@SOMERSET 313 ORCHARD ROAD, LEVEL 1 DISCOVERY WALK, NEAR MONEY CHANGER 238895","Bin collection; E-waste accepted: ICT equipment, Batteries and Lamps only",https://alba-ewaste.sg
1.28743641371285,103.841175875581,0,Point,kml_192,NEA Producer Responsibility Scheme - ALBA E-waste Recycling Programme,54 CHIN SWEE RD 54 CHIN SWEE ROAD 160054,"Bin collection; E-waste accepted: ICT equipment, Batteries and Lamps only",https://alba-ewaste.sg
1.32193941449496,103.869836311935,0,Point,kml_193,NEA Producer Responsibility Scheme - ALBA E-waste Recycling Programme,"68 GEYLANG BAHRU 68 GEYLANG BAHRU, SUSTAINABILITY CORNER, VOID DECK 330068","Bin collection; E-waste accepted: ICT equipment, Batteries and Lamps only",https://alba-ewaste.sg
1.43713052411728,103.795289911925,0,Point,kml_194,NEA Producer Responsibility Scheme - ALBA E-waste Recycling Programme,"888 PLAZA 888 WOODLANDS DRIVE 50, 888 PLAZA, COMMON CORRIDOR 730888","Bin collection; E-waste accepted: ICT equipment, Batteries and Lamps only",https://alba-ewaste.sg
1.42714316438522,103.792288491963,0,Point,kml_195,NEA Producer Responsibility Scheme - ALBA E-waste Recycling Programme,"ACE THE PLACE CC 120 WOODLANDS AVENUE 1, ACE THE PLACE CC, BESIDE CC OFFICE ENTRANCE 739069","Bin collection; E-waste accepted: ICT equipment, Batteries and Lamps only",https://alba-ewaste.sg
1.32038228239078,103.636422539763,0,Point,kml_196,NEA Producer Responsibility Scheme - ALBA E-waste Recycling Programme,ALBA E-WASTE SMART RECYCLING PTE LTD 20 TUAS LOOP 637350,"Drop-off and Bin Collection; All regulated e-waste under First Schedule at https://go.gov.sg/prod-def-sl, Large Household Appliances, ICT Equipment, Portable Batteries, Lamps, Electric Mobility Devices",https://alba-ewaste.sg
1.28675701806155,103.800926227264,0,Point,kml_197,NEA Producer Responsibility Scheme - ALBA E-waste Recycling Programme,"ALEXANDRA HOSPITAL 378 ALEXANDRA ROAD, BLK 21, LEVEL 1 159964","Bin collection; E-waste accepted: ICT equipment, Batteries and Lamps only",https://alba-ewaste.sg
1.39712792587372,103.886665682021,0,Point,kml_198,NEA Producer Responsibility Scheme - ALBA E-waste Recycling Programme,"ANCHORVALE CC 59 ANCHORVALE ROAD, ANCHORVALE COMMUNITY CLUB, MAIN LOBBY 544965","Bin collection; E-waste accepted: ICT equipment, Batteries and Lamps only",https://alba-ewaste.sg
1.36676688224614,103.840742247718,0,Point,kml_199,NEA Producer Responsibility Scheme - ALBA E-waste Recycling Programme,"ANG MO KIO CC 795 ANG MO KIO AVENUE 1, MAIN LOBBY ENTRANCE 569976","Bin collection; E-waste accepted: ICT equipment, Batteries and Lamps only",https://alba-ewaste.sg
1.36023106684756,103.989457201987,0,Point,kml_200,NEA Producer Responsibility Scheme - ALBA E-waste Recycling Programme,"APPLE @ JEWEL 78 AIRPORT BOULEVARD, JEWEL, #02-234 819666",Manned collection (Contact staff for disposal); E-waste accepted: ICT equipment and Batteries only,https://alba-ewaste.sg
1.28385464365523,103.858674929203,0,Point,kml_201,NEA Producer Responsibility Scheme - ALBA E-waste Recycling Programme,"APPLE @ MBS 2 BAYFRONT AVENUE, MBS, B2-06 18972",Manned collection (Contact staff for disposal); E-waste accepted: ICT equipment and Batteries only,https://alba-ewaste.sg
1.3031052603547,103.836202005593,0,Point,kml_202,NEA Producer Responsibility Scheme - ALBA E-waste Recycling Programme,"APPLE @ ORCHARD 270 ORCHARD ROAD, APPLE ORCHARD 238857",Manned collection (Contact staff for disposal); E-waste accepted: ICT equipment and Batteries only,https://alba-ewaste.sg
1.33601658810029,103.94989784686,0,Point,kml_203,NEA Producer Responsibility Scheme - ALBA E-waste Recycling Programme,"BEDOK INDUSTRIAL PARK E 3013 BEDOK INDUSTRIAL PARK E, PAVILION 489978","Bin collection; E-waste accepted: ICT equipment, Batteries and Lamps only",https://alba-ewaste.sg
1.32340559869253,103.941684426108,0,Point,kml_204,NEA Producer Responsibility Scheme - ALBA E-waste Recycling Programme,"BEDOK IXORA RC 51 NEW UPPER CHANGI ROAD, #01-1500 461051","Bin collection; E-waste accepted: ICT equipment, Batteries and Lamps only",https://alba-ewaste.sg
1.37832449865682,103.903844425783,0,Point,kml_205,NEA Producer Responsibility Scheme - ALBA E-waste Recycling Programme,"BEDOK RESERVOIR-PUNGGOL CAPEVIEW RC 477A UPPER SERANGOON VIEW, LEVEL 1 531477","Bin collection; E-waste accepted: ICT equipment, Batteries and Lamps only",https://alba-ewaste.sg
1.32477207359645,103.929267654667,0,Point,kml_206,NEA Producer Responsibility Scheme - ALBA E-waste Recycling Programme,"BEST DENKI @ BEDOK MALL 311 NEW UPPER CHANGI ROAD, BEDOK MALL, #B1-01/43/44, BASEMENT 1 MAIN ENTRANCE 467360","Bin collection; E-waste accepted: ICT equipment, Batteries and Lamps only",https://alba-ewaste.sg
1.32597469054023,103.869091550469,0,Point,kml_207,NEA Producer Responsibility Scheme - ALBA E-waste Recycling Programme,MOM SERVICES CENTRE 1500 BENDEMEER ROAD 339946,"Bin collection; E-waste accepted: ICT equipment, Batteries and Lamps only",https://alba-ewaste.sg
1.29380235096694,103.831757911005,0,Point,kml_208,NEA Producer Responsibility Scheme - ALBA E-waste Recycling Programme,"BEST DENKI @ GREAT WORLD CITY 1 KIM SENG PROMENADE, GREAT WORLD CITY, #07-01 237994","Bin collection; E-waste accepted: ICT equipment, Batteries and Lamps only",https://alba-ewaste.sg
1.37838922104193,103.763150183936,0,Point,kml_209,NEA Producer Responsibility Scheme - ALBA E-waste Recycling Programme,"BEST DENKI @ HILLION MALL 17 PETIR ROAD, HILLION MALL, #B1-65, BASEMENT 1 678278","Bin collection; E-waste accepted: ICT equipment, Batteries and Lamps only",https://alba-ewaste.sg
1.33491758760096,103.746877132988,0,Point,kml_210,NEA Producer Responsibility Scheme - ALBA E-waste Recycling Programme,"BEST DENKI @ IMM 2 JURONG EAST STREET 21, IMM, #03-33, IN-STORE 609601","Bin collection; E-waste accepted: ICT equipment, Batteries and Lamps only",https://alba-ewaste.sg
1.35023943091411,103.848477625175,0,Point,kml_211,NEA Producer Responsibility Scheme - ALBA E-waste Recycling Programme,"BEST DENKI @ JUNCTION 8 SHOPPING CENTRE 9 BISHAN PLACE, JUNCTION 8 SHOPPING CENTRE, #03-02, IN-STORE 579837","Bin collection; E-waste accepted: ICT equipment, Batteries and Lamps only",https://alba-ewaste.sg
1.33936403006074,103.705308190786,0,Point,kml_212,NEA Producer Responsibility Scheme - ALBA E-waste Recycling Programme,"BEST DENKI @ JURONG POINT 63 JURONG WEST CENTRAL 3, JURONG POINT, #B1-92, IN-STORE 648331","Bin collection; E-waste accepted: ICT equipment, Batteries and Lamps only",https://alba-ewaste.sg
1.30242417185937,103.834676124776,0,Point,kml_213,NEA Producer Responsibility Scheme - ALBA E-waste Recycling Programme,"BEST DENKI @ NGEE ANN CITY TOWER A 391A ORCHARD ROAD, NGEE ANN CITY TOWER A, LEVEL 5 238873","Bin collection; E-waste accepted: ICT equipment, Batteries and Lamps only",https://alba-ewaste.sg
1.30126068020292,103.905339493757,0,Point,kml_214,NEA Producer Responsibility Scheme - ALBA E-waste Recycling Programme,"BEST DENKI @ PARKWAY PARADE 80 MARINE PARADE ROAD, PARKWAY PARADE, #03-29, IN-STORE 449269","Bin collection; E-waste accepted: ICT equipment, Batteries and Lamps only",https://alba-ewaste.sg
1.30083413035643,103.845072743243,0,Point,kml_215,NEA Producer Responsibility Scheme - ALBA E-waste Recycling Programme,"BEST DENKI @ PLAZA SINGAPURA 68 ORCHARD ROAD, PLAZA SINGAPURA, #03-39, BESIDE CASHIER COUNTER 238839","Bin collection; E-waste accepted: ICT equipment, Batteries and Lamps only",https://alba-ewaste.sg
1.31555354278891,103.764596439183,0,Point,kml_216,NEA Producer Responsibility Scheme - ALBA E-waste Recycling Programme,"BEST DENKI @ THE CLEMENTI MALL 3155 COMMONWEALTH AVENUE WEST, THE CLEMENTI MALL, #04-46/47/48/49, IN-STORE 129588","Bin collection; E-waste accepted: ICT equipment, Batteries and Lamps only",https://alba-ewaste.sg
1.26434458740521,103.822476141372,0,Point,kml_217,NEA Producer Responsibility Scheme - ALBA E-waste Recycling Programme,"BEST DENKI @ VIVOCITY 1 HARBOURFRONT WALK, VIVOCITY, #02-07, IN-STORE CUSTOMER SERVICE COUNTER 98585","Bin collection; E-waste accepted: ICT equipment, Batteries and Lamps only",https://alba-ewaste.sg
1.40648462025652,103.902131834448,0,Point,kml_218,NEA Producer Responsibility Scheme - ALBA E-waste Recycling Programme,"BEST DENKI @ WATERWAY POINT 83 PUNGGOL CENTRAL, WATERWAY POINT, EAST WING, MAIN ENTRANCE 828761","Bin collection; E-waste accepted: ICT equipment, Batteries and Lamps only",https://alba-ewaste.sg
1.34691477711332,103.848684462553,0,Point,kml_219,NEA Producer Responsibility Scheme - ALBA E-waste Recycling Programme,"BISHAN EAST ZONE 1 RC 112 BISHAN STREET 12, VOID DECK 570112","Bin collection; E-waste accepted: ICT equipment, Batteries and Lamps only",https://alba-ewaste.sg
1.35081979568161,103.711815326114,0,Point,kml_220,NEA Producer Responsibility Scheme - ALBA E-waste Recycling Programme,"BOON LAY VIEW RN 218D BOON LAY AVE #01-309, DROP OFF AREA 640218","Bin collection; E-waste accepted: ICT equipment, Batteries and Lamps only",https://alba-ewaste.sg
1.34516323576685,103.707906545317,0,Point,kml_221,NEA Producer Responsibility Scheme - ALBA E-waste Recycling Programme,BOON LAY ZONE C RN 260 BOON LAY DRIVE 640260,"Bin collection; E-waste accepted: ICT equipment, Batteries and Lamps only",https://alba-ewaste.sg
1.34480107292392,103.702226455167,0,Point,kml_222,NEA Producer Responsibility Scheme - ALBA E-waste Recycling Programme,"BOON LAY ZONE F RN 674A JURONG WEST STREET 65, #01-66, VOID DECK 641674","Bin collection; E-waste accepted: ICT equipment, Batteries and Lamps only",https://alba-ewaste.sg
1.34969165516928,103.877186798068,0,Point,kml_223,NEA Producer Responsibility Scheme - ALBA E-waste Recycling Programme,"BRADDELL HEIGHTS ZONE B RC 2A LORONG LEW LIAN, MULTI STOREY CARPARK, LEVEL 1 532002","Bin collection; E-waste accepted: ICT equipment, Batteries and Lamps only",https://alba-ewaste.sg
1.38831311572333,103.893923640409,0,Point,kml_224,NEA Producer Responsibility Scheme - ALBA E-waste Recycling Programme,"COMPASSVALE SOUTHGATE RC 201B COMPASSVALE DRIVE, COMPASSVALE SOUTHGATE RC, #01-545, VOID DECK 542201","Bin collection; E-waste accepted: ICT equipment, Batteries and Lamps only",https://alba-ewaste.sg
1.42882999981167,103.836049999566,0,Point,kml_225,NEA Producer Responsibility Scheme - ALBA E-waste Recycling Programme,"HARVEY NORMAN @ NORTHPOINT CITY 930 YISHUN AVENUE 2, NORTHPOINT CITY, SOUTH WING, #B1-136/138, OUTLET ENTRANCE 769098","Bin collection; E-waste accepted: ICT equipment, Batteries and Lamps only",https://alba-ewaste.sg
1.42882999981167,103.836049999566,0,Point,kml_226,NEA Producer Responsibility Scheme - ALBA E-waste Recycling Programme,"HARVEY NORMAN @ NORTHPOINT CITY 930 YISHUN AVENUE 2, NORTHPOINT CITY, SOUTH WING, #B1-136/138, OUTLET ENTRANCE 769098","Bin collection; E-waste accepted: ICT equipment, Batteries and Lamps only",https://alba-ewaste.sg
1.30136068026052,103.905339493897,0,Point,kml_227,NEA Producer Responsibility Scheme - ALBA E-waste Recycling Programme,"HARVEY NORMAN @ PARKWAY PARADE 80 MARINE PARADE ROAD, PARKWAY PARADE, #02-34, IN-STORE 449269","Bin collection; E-waste accepted: ICT equipment, Batteries and Lamps only",https://alba-ewaste.sg
1.39139684615654,103.8762370074,0,Point,kml_228,NEA Producer Responsibility Scheme - ALBA E-waste Recycling Programme,"HARVEY NORMAN @ SELETAR MALL 33 SENGKANG WEST AVE, SELETAR MALL, #03-25, IN-STORE 797653","Bin collection; E-waste accepted: ICT equipment, Batteries and Lamps only",https://alba-ewaste.sg
1.29571152471411,103.858552585802,0,Point,kml_229,NEA Producer Responsibility Scheme - ALBA E-waste Recycling Programme,"HARVEY NORMAN @ SUNTEC CITY MALL 3 TEMASEK BOULEVARD, SUNTEC CITY MALL, #01-634, IN-STORE 38983","Bin collection; E-waste accepted: ICT equipment, Batteries and Lamps only",https://alba-ewaste.sg
1.30151446718831,103.84005442707,0,Point,kml_230,NEA Producer Responsibility Scheme - ALBA E-waste Recycling Programme,"HARVEY NORMAN @ THE CENTREPOINT 176 ORCHARD ROAD, THE CENTREPOINT, #03-31 238843","Bin collection; E-waste accepted: ICT equipment, Batteries and Lamps only",https://alba-ewaste.sg
1.32315929819509,103.920979979665,0,Point,kml_231,NEA Producer Responsibility Scheme - ALBA E-waste Recycling Programme,"HARVEY NORMAN @ VIVA BUSINESS PARK 750B CHAI CHEE ROAD #01-01 TO 06, TO 12, #02-02 TO 06 BUSINESS PARK, #01-09, IN-STORE 469002","Bin collection; E-waste accepted: ICT equipment, Batteries and Lamps only",https://alba-ewaste.sg
1.34992152864348,103.749171989803,0,Point,kml_232,NEA Producer Responsibility Scheme - ALBA E-waste Recycling Programme,"HARVEY NORMAN @ WEST MALL 1 BUKIT BATOK CENTRAL LINK, WEST MALL, #03-06 TO 09, IN-STORE WALKWAY 658713","Bin collection; E-waste accepted: ICT equipment, Batteries and Lamps only",https://alba-ewaste.sg
1.33415752021654,103.742766489695,0,Point,kml_233,NEA Producer Responsibility Scheme - ALBA E-waste Recycling Programme,"HARVEY NORMAN @ WESTGATE 3 GATEWAY DRIVE, WESTGATE, #B1-32, IN-STORE 608532","Bin collection; E-waste accepted: ICT equipment, Batteries and Lamps only",https://alba-ewaste.sg
1.33202548884876,103.848335263648,0,Point,kml_234,NEA Producer Responsibility Scheme - ALBA E-waste Recycling Programme,"HDB HUB 6 LORONG TOA PAYOH, HDB HUB, OPPOSITE OLD CHANG KEE 310480","Bin collection; E-waste accepted: ICT equipment, Batteries and Lamps only",https://alba-ewaste.sg
1.33576029212184,103.865596996653,0,Point,kml_235,NEA Producer Responsibility Scheme - ALBA E-waste Recycling Programme,"HDB-POTONG PASIR 121 POTONG PASIR AVENUE, HDB-POTONG PASIR, MAIN ENTRANCE 350121","Bin collection; E-waste accepted: ICT equipment, Batteries and Lamps only",https://alba-ewaste.sg
1.28043197244411,103.83844803171,0,Point,kml_236,NEA Producer Responsibility Scheme - ALBA E-waste Recycling Programme,"HEALTH SCIENCE AUTHORITY 11 OUTRAM ROAD, LEVEL 1 169078","Bin collection; E-waste accepted: ICT equipment, Batteries and Lamps only",https://alba-ewaste.sg
1.32662388599027,103.931806160357,0,Point,kml_237,NEA Producer Responsibility Scheme - ALBA E-waste Recycling Programme,"HEARTBEAT @ BEDOK (KAMPONG CHAI CHEE CC) 11 BEDOK NORTH STREET 1, MAIN ATRIUM 469662","Bin collection; E-waste accepted: ICT equipment, Batteries and Lamps only",https://alba-ewaste.sg
1.28243134929954,103.805032354806,0,Point,kml_238,NEA Producer Responsibility Scheme - ALBA E-waste Recycling Programme,"HEWLETT-PACKARD @ HP ENTERPRISE 1 DEPOT CLOSE, HP ENTERPRISE 109841","Bin collection; E-waste accepted: ICT equipment, Batteries and Lamps only",https://alba-ewaste.sg
1.36194319606651,103.764296963277,0,Point,kml_239,NEA Producer Responsibility Scheme - ALBA E-waste Recycling Programme,"HILLVIEW CC 1 HILLVIEW RISE, HILLVIEW CC, MAIN LOBBY 667970","Bin collection; E-waste accepted: ICT equipment, Batteries and Lamps only",https://alba-ewaste.sg
1.38012914155096,103.936405203048,0,Point,kml_240,NEA Producer Responsibility Scheme - ALBA E-waste Recycling Programme,"FAIRPRICE @ PASIR RIS WEST PLAZA 734 PASIR RIS ST 72, PASIR RIS WEST PLAZA, #01-37 510734",Bin collection; E-waste accepted: Batteries and Lamps only,https://alba-ewaste.sg
1.31750694700495,103.892792968973,0,Point,kml_241,NEA Producer Responsibility Scheme - ALBA E-waste Recycling Programme,"FAIRPRICE @ PAYA LEBAR QUARTER 10 PAYA LEBAR RD, PAYA LEBAR QUARTER, #B2-09 409057",Bin collection; E-waste accepted: Batteries and Lamps only,https://alba-ewaste.sg
1.39439035891727,103.912799930013,0,Point,kml_242,NEA Producer Responsibility Scheme - ALBA E-waste Recycling Programme,"FAIRPRICE @ PUNGGOL PLAZA 168 PUNGGOL FIELD RD, PUNGGOL PLAZA, #03-01/02 820168",Bin collection; E-waste accepted: Batteries and Lamps only,https://alba-ewaste.sg
1.39195034489059,103.904720411902,0,Point,kml_243,NEA Producer Responsibility Scheme - ALBA E-waste Recycling Programme,"FAIRPRICE @ RIVERVALE MALL 11 RIVERVALE CRESCENT, RIVERVALE MALL, #03-01 545082",Bin collection; E-waste accepted: Batteries and Lamps only,https://alba-ewaste.sg
1.38540707567691,103.902750299939,0,Point,kml_244,NEA Producer Responsibility Scheme - ALBA E-waste Recycling Programme,"FAIRPRICE @ RIVERVALE PLAZA 118 RIVERVALE DR, RIVERVALE PLAZA, #01-08 540118",Bin collection; E-waste accepted: Batteries and Lamps only,https://alba-ewaste.sg
1.30605150966859,103.833048688869,0,Point,kml_245,NEA Producer Responsibility Scheme - ALBA E-waste Recycling Programme,"FAIRPRICE @ SCOTTS SQUARE 6 SCOTTS RD, SCOTTS SQUARE, #B1-03 TO 07 AND #B1-10 228209",Bin collection; E-waste accepted: Batteries and Lamps only,https://alba-ewaste.sg
1.39118120559207,103.876012579125,0,Point,kml_246,NEA Producer Responsibility Scheme - ALBA E-waste Recycling Programme,"FAIRPRICE @ SELETAR MALL 33 SENGKANG WEST AVE, SELETAR MALL, #B2-24 797653",Bin collection; E-waste accepted: Batteries and Lamps only,https://alba-ewaste.sg
1.38509602461526,103.760218434364,0,Point,kml_247,NEA Producer Responsibility Scheme - ALBA E-waste Recycling Programme,"FAIRPRICE @ SENJA GRAND 628 SENJA RD, SENJA GRAND, #01-01 670628",Bin collection; E-waste accepted: Batteries and Lamps only,https://alba-ewaste.sg
1.36528060578882,103.865101220649,0,Point,kml_248,NEA Producer Responsibility Scheme - ALBA E-waste Recycling Programme,"FAIRPRICE @ SERANGOON GARDEN VILLAGE 1 MAJU AVE, SERANGOON GARDEN VILLAGE, #B1-11 556679",Bin collection; E-waste accepted: Batteries and Lamps only,https://alba-ewaste.sg
1.31896154705996,103.894867197645,0,Point,kml_249,NEA Producer Responsibility Scheme - ALBA E-waste Recycling Programme,"FAIRPRICE @ SINGPOST CENTRE 10 EUNOS RD 8, SINGPOST CENTRE #B1-101 TO 107 408600",Bin collection; E-waste accepted: Batteries and Lamps only,https://alba-ewaste.sg
1.32065033609743,103.844368780216,0,Point,kml_250,NEA Producer Responsibility Scheme - ALBA E-waste Recycling Programme,"FAIRPRICE @ SQUARE 2 10 SINARAN DR, SQUARE 2, #04-46/47/48/49 307506",Bin collection; E-waste accepted: Batteries and Lamps only,https://alba-ewaste.sg
1.44826814029537,103.819690407184,0,Point,kml_251,NEA Producer Responsibility Scheme - ALBA E-waste Recycling Programme,"FAIRPRICE @ SUN PLAZA 30 SEMBAWANG DRIVE, SUN PLAZA, #B1-01/02 757713",Bin collection; E-waste accepted: Batteries and Lamps only,https://alba-ewaste.sg
1.33455192899474,103.720167367053,0,Point,kml_252,NEA Producer Responsibility Scheme - ALBA E-waste Recycling Programme,"FAIRPRICE @ TAMAN JURONG SHOPPING CENTRE 399 YUNG SHENG RD, TAMAN JURONG SHOPPING CENTRE, #01-35 610399",Bin collection; E-waste accepted: Batteries and Lamps only,https://alba-ewaste.sg
1.35227794693978,103.944444798063,0,Point,kml_253,NEA Producer Responsibility Scheme - ALBA E-waste Recycling Programme,"FAIRPRICE @ TAMPINES MALL 4 TAMPINES CENTRAL 5, TAMPINES MALL, #B1-12 529510",Bin collection; E-waste accepted: Batteries and Lamps only,https://alba-ewaste.sg
1.27625903970513,103.842923496331,0,Point,kml_254,NEA Producer Responsibility Scheme - ALBA E-waste Recycling Programme,"FAIRPRICE @ TANJONG PAGAR PLAZA 1 TANJONG PAGAR PLAZA, #01-01 82001",Bin collection; E-waste accepted: Batteries and Lamps only,https://alba-ewaste.sg
1.30514807733157,103.851247442085,0,Point,kml_255,NEA Producer Responsibility Scheme - ALBA E-waste Recycling Programme,"FAIRPRICE @ TEKKA PLACE 2 SERANGOON RD, TEKKA PLACE, #B1-06/07/08/09 218227",Bin collection; E-waste accepted: Batteries only,https://alba-ewaste.sg
1.35555636684035,103.986190834836,0,Point,kml_256,NEA Producer Responsibility Scheme - ALBA E-waste Recycling Programme,"FAIRPRICE @ TERMINAL 3 65 AIRPORT BOULEVARD, CHANGI AIRPORT TERMINAL 3, #B2-10 819663",Bin collection; E-waste accepted: Batteries only,https://alba-ewaste.sg
1.31565354284212,103.764596439142,0,Point,kml_257,NEA Producer Responsibility Scheme - ALBA E-waste Recycling Programme,"FAIRPRICE @ THE CLEMENTI MALL 3155 COMMONWEALTH AVENUE WEST, THE CLEMENTI MALL, #B1-12 129588",Bin collection; E-waste accepted: Batteries and Lamps only,https://alba-ewaste.sg
1.42893394995778,103.781170506997,0,Point,kml_258,NEA Producer Responsibility Scheme - ALBA E-waste Recycling Programme,"FAIRPRICE @ THE WOODGROVE 30 WOODLANDS AVE 1, THE WOODGROVE, #01-11 739065",Bin collection; E-waste accepted: Batteries only,https://alba-ewaste.sg
1.35502885740586,103.831053292347,0,Point,kml_259,NEA Producer Responsibility Scheme - ALBA E-waste Recycling Programme,"FAIRPRICE @ THOMSON PLAZA 301 UPPER THOMSON RD, THOMSON PLAZA, #03-37/38 574408",Bin collection; E-waste accepted: Batteries and Lamps only,https://alba-ewaste.sg
1.28663661767358,103.826705432228,0,Point,kml_260,NEA Producer Responsibility Scheme - ALBA E-waste Recycling Programme,"FAIRPRICE @ TIONG BAHRU PLAZA 302 TIONG BAHRU ROAD, #B1-01 168732",Bin collection; E-waste accepted: Batteries only,https://alba-ewaste.sg
1.29290624008267,103.827020062232,0,Point,kml_261,NEA Producer Responsibility Scheme - ALBA E-waste Recycling Programme,"FAIRPRICE @ VALLEY POINT 491 RIVER VALLEY RD #01-14 VALLEY POINT, #01-14 248371",Bin collection; E-waste accepted: Batteries only,https://alba-ewaste.sg
1.26444458666504,103.822476140957,0,Point,kml_262,NEA Producer Responsibility Scheme - ALBA E-waste Recycling Programme,"FAIRPRICE @ VIVOCITY 1 HARBOURFRONT WALK, VIVOCITY, #B2-23, IN-STORE CUSTOMER SERVICE COUNTER 98585","Bin collection; E-waste accepted: ICT equipment, Batteries and Lamps only",https://alba-ewaste.sg
1.40700038929936,103.901680850371,0,Point,kml_263,NEA Producer Responsibility Scheme - ALBA E-waste Recycling Programme,"FAIRPRICE @ WATERWAY POINT 83 PUNGGOL CENTRAL, WATERWAY POINT, #B2-32 828761",Bin collection; E-waste accepted: Batteries only,https://alba-ewaste.sg
1.37247634688775,103.949449268779,0,Point,kml_264,NEA Producer Responsibility Scheme - ALBA E-waste Recycling Programme,"FAIRPRICE @ WHITE SANDS 1 PASIR RIS CENTRAL ST 3, WHITE SANDS, #B1-10 518457",Bin collection; E-waste accepted: Batteries and Lamps only,https://alba-ewaste.sg
1.41833841316411,103.840867647756,0,Point,kml_265,NEA Producer Responsibility Scheme - ALBA E-waste Recycling Programme,"FAIRPRICE @ WISTERIA MALL 598 YISHUN RING RD, WISTERIA MALL, #01-01 768698",Bin collection; E-waste accepted: Batteries and Lamps only,https://alba-ewaste.sg
1.43505698934853,103.787004309092,0,Point,kml_266,NEA Producer Responsibility Scheme - ALBA E-waste Recycling Programme,"FAIRPRICE @ WOODLANDS CIVIC CENTRE 900 SOUTH WOODLANDS DRIVE, WOODLANDS CIVIC CENTRE, #B1-01 730900",Bin collection; E-waste accepted: Batteries and Lamps only,https://alba-ewaste.sg
1.39712886285706,103.7473297174,0,Point,kml_267,NEA Producer Responsibility Scheme - ALBA E-waste Recycling Programme,"FAIRPRICE @ YEW TEE MRT STATION 61 CHOA CHU KANG DR, YEW TEE MRT STATION, #01-01 689715",Bin collection; E-waste accepted: Batteries and Lamps only,https://alba-ewaste.sg
1.39708432394588,103.746598000268,0,Point,kml_268,NEA Producer Responsibility Scheme - ALBA E-waste Recycling Programme,"FAIRPRICE @ YEW TEE POINT 21 CHOA CHU KANG NORTH 6, YEW TEE POINT, #B1-01 689578",Bin collection; E-waste accepted: Batteries and Lamps only,https://alba-ewaste.sg
1.42932378790772,103.835111274179,0,Point,kml_269,NEA Producer Responsibility Scheme - ALBA E-waste Recycling Programme,"FAIRPRICE @ YISHUN MRT 301 YISHUN AVE 2, YISHUN MRT STATION, #01-02 769093",Bin collection; E-waste accepted: Batteries and Lamps only,https://alba-ewaste.sg
1.32703012105576,103.846233933814,0,Point,kml_270,NEA Producer Responsibility Scheme - ALBA E-waste Recycling Programme,"FAIRPRICE @ ZHONG SHAN PARK 20 AH HOOD RD, ZHONG SHAN PARK, #02-01 329984",Bin collection; E-waste accepted: Batteries and Lamps only,https://alba-ewaste.sg
1.38372944761538,103.770550302452,0,Point,kml_271,NEA Producer Responsibility Scheme - ALBA E-waste Recycling Programme,"FAJAR SHOPPING CENTRE 445 FAJAR ROAD, FAJAR SHOPPING CENTRE, COMMON CORRIDOR 670445","Bin collection; E-waste accepted: ICT equipment, Batteries and Lamps only",https://alba-ewaste.sg
1.31883225339034,103.80806196781,0,Point,kml_272,NEA Producer Responsibility Scheme - ALBA E-waste Recycling Programme,"FARRER GARDENS RC 4 QUEEN’S ROAD, FARRER GARDENS RC 260004","Bin collection; E-waste accepted: ICT equipment, Batteries and Lamps only",https://alba-ewaste.sg
1.36882724685259,103.834706643007,0,Point,kml_273,NEA Producer Responsibility Scheme - ALBA E-waste Recycling Programme,"FOOD CANOPY COFFEE SHOP 260 ANG MO KIO STREET 21, #01-06 560260","Bin collection; E-waste accepted: ICT equipment, Batteries and Lamps only",https://alba-ewaste.sg
1.42952981919588,103.774811852371,0,Point,kml_274,NEA Producer Responsibility Scheme - ALBA E-waste Recycling Programme,"FUCHUN CC 1 WOODLANDS STREET 31, FUCHUN CC, LIFT LOBBY 738581","Bin collection; E-waste accepted: ICT equipment, Batteries and Lamps only",https://alba-ewaste.sg
1.29912656468508,103.787402738598,0,Point,kml_275,NEA Producer Responsibility Scheme - ALBA E-waste Recycling Programme,"FUSIONOPOLIS ONE 3 FUSIONOPOLIS WAY, BASEMENT 2 CONNEXIS 138633","Bin collection; E-waste accepted: ICT equipment, Batteries and Lamps only",https://alba-ewaste.sg
1.37167717408068,103.864646494037,0,Point,kml_276,NEA Producer Responsibility Scheme - ALBA E-waste Recycling Programme,"GAIN CITY @ ANG MO KIO INDUSTIRAL PARK 2 8 ANG MO KIO INDUSTRIAL PARK 2, MAIN ENTRANCE 569500","Bin collection; E-waste accepted: ICT equipment, Batteries and Lamps only",https://alba-ewaste.sg
1.41286386504426,103.746015735101,0,Point,kml_277,NEA Producer Responsibility Scheme - ALBA E-waste Recycling Programme,"GAIN CITY @ GAIN CITY MEGASTORE @ SUNGEI KADUT 71 SUNGEI KADUT DRIVE, GAIN CITY MEGASTORE @ SUNGEI KADUT, LEVEL 1 LIFT LOBBY 729577","Bin collection; E-waste accepted: ICT equipment, Batteries and Lamps only",https://alba-ewaste.sg
1.29098168417274,103.857647591657,0,Point,kml_278,NEA Producer Responsibility Scheme - ALBA E-waste Recycling Programme,"GAIN CITY @ MARINA SQUARE 6 RAFFLES BOULEVARD, MARINA SQUARE, #03 - 223 / 232, MAIN ENTRANCE 39594","Bin collection; E-waste accepted: ICT equipment, Batteries and Lamps only",https://alba-ewaste.sg
1.35442321225971,103.945141172349,0,Point,kml_279,NEA Producer Responsibility Scheme - ALBA E-waste Recycling Programme,"GAIN CITY @ TAMPINES 1 10 TAMPINES CENTRAL 1, TAMPINES 1, #B1-09, MAIN ENTRANCE 529536","Bin collection; E-waste accepted: ICT equipment, Batteries and Lamps only",https://alba-ewaste.sg
1.34874164660607,103.697739629685,0,Point,kml_280,NEA Producer Responsibility Scheme - ALBA E-waste Recycling Programme,"GEK POH SHOPPING CENTRE 762 JURONG WEST STREET 75, GEK POH SHOPPING CENTRE, PRIME SUPERMARKET ENTRANCE 640762","Bin collection; E-waste accepted: ICT equipment, Batteries and Lamps only",https://alba-ewaste.sg
1.32487131937094,103.746667566234,0,Point,kml_281,NEA Producer Responsibility Scheme - ALBA E-waste Recycling Programme,"GERMAN CENTRE 25 INTERNATIONAL BUSINESS PARK, MAIN LOBBY 609916","Bin collection; E-waste accepted: ICT equipment, Batteries and Lamps only",https://alba-ewaste.sg
1.37427782925626,103.839460116361,0,Point,kml_282,NEA Producer Responsibility Scheme - ALBA E-waste Recycling Programme,"GIANT @ 161 ANG MO KIO AVE 4 161 ANG MO KIO AVE 4, #01-504 560161",Bin collection; E-waste accepted: Batteries and Lamps only,https://alba-ewaste.sg
1.33342742797914,103.850850469604,0,Point,kml_283,NEA Producer Responsibility Scheme - ALBA E-waste Recycling Programme,"GIANT @ 181 TOA PAYON LORONG 4 181 TOA PAYOH LORONG 4, #01-602 310181",Manned collection (Contact staff for disposal); E-waste accepted: Batteries and Lamps only,https://alba-ewaste.sg
1.3790913509155,103.772881051966,0,Point,kml_284,NEA Producer Responsibility Scheme - ALBA E-waste Recycling Programme,"GIANT @ 256 BANGKIT ROAD 256 BANGKIT ROAD, #01-69 670256",Bin collection; E-waste accepted: Batteries only,https://alba-ewaste.sg
1.33214222372649,103.857545788882,0,Point,kml_285,NEA Producer Responsibility Scheme - ALBA E-waste Recycling Programme,"GIANT @ 260 KIM KEAT AVENUE 260 KIM KEAT AVENUE, #01-01 310260",Bin collection; E-waste accepted: Batteries only,https://alba-ewaste.sg
1.34661157118073,103.757213976438,0,Point,kml_286,NEA Producer Responsibility Scheme - ALBA E-waste Recycling Programme,"GIANT @ 284 BUKIT BATOK EAST 284 BUKIT BATOK EAST, #01-251 650284",Bin collection; E-waste accepted: Batteries only,https://alba-ewaste.sg
1.43624960945075,103.838159993686,0,Point,kml_287,NEA Producer Responsibility Scheme - ALBA E-waste Recycling Programme,"GIANT @ 293 YISHUN ST 22 293 YISHUN STREET 22, #01-261 760293",Bin collection; E-waste accepted: Batteries only,https://alba-ewaste.sg
1.35862226297672,103.749207628697,0,Point,kml_288,NEA Producer Responsibility Scheme - ALBA E-waste Recycling Programme,"GIANT @ 376 BUKIT BATOK ST 31 376 BUKIT BATOK ST 31, #01-116 650376",Bin collection; E-waste accepted: Batteries only,https://alba-ewaste.sg
1.42500182732665,103.847452877176,0,Point,kml_289,NEA Producer Responsibility Scheme - ALBA E-waste Recycling Programme,"GIANT @ 418 YISHUN AVENUE 11 418 YISHUN AVENUE 11, #01-433 760418",Bin collection; E-waste accepted: Batteries only,https://alba-ewaste.sg
1.36873046486975,103.958666392582,0,Point,kml_290,NEA Producer Responsibility Scheme - ALBA E-waste Recycling Programme,"GIANT @ 440 PASIR RIS DRIVE 440 PASIR RIS DRIVE 4, #01-01 510440",Bin collection; E-waste accepted: Batteries only,https://alba-ewaste.sg
1.35905888929944,103.749456842385,0,Point,kml_291,NEA Producer Responsibility Scheme - ALBA E-waste Recycling Programme,"HONG KAH NORTH CC 30 BUKIT BATOK STREET 31, HONG KAH NORTH CC, REAR ENTRANCE 659440","Bin collection; E-waste accepted: ICT equipment, Batteries and Lamps only",https://alba-ewaste.sg
1.36472603727626,103.89225907957,0,Point,kml_292,NEA Producer Responsibility Scheme - ALBA E-waste Recycling Programme,"HOUGANG CC 35 HOUGANG AVENUE 3, MAIN ENTRANCE 538840","Bin collection; E-waste accepted: ICT equipment, Batteries and Lamps only",https://alba-ewaste.sg
1.30547836078275,103.904845377172,0,Point,kml_293,NEA Producer Responsibility Scheme - ALBA E-waste Recycling Programme,"I12 KATONG 112 EAST COAST ROAD, I12 KATONG, LEVEL 1 428802","Bin collection; E-waste accepted: ICT equipment, Batteries and Lamps only",https://alba-ewaste.sg
1.30384327216879,103.872750702347,0,Point,kml_294,NEA Producer Responsibility Scheme - ALBA E-waste Recycling Programme,"FAIRPRICE @ KALLANG WAVE MALL 1 STADIUM PLACE LEVEL 1 #01-29, CASHIER AREA 397628","Bin collection; E-waste accepted: ICT equipment, Batteries and Lamps only",https://alba-ewaste.sg
1.43986217569463,103.800726772689,0,Point,kml_295,NEA Producer Responsibility Scheme - ALBA E-waste Recycling Programme,"FAIRPRICE @ KAMPUND ADMIRALTY 676 WOODLANDS DR 71, KAMPUND ADMIRALTY, #B1-02 730676",Bin collection; E-waste accepted: Batteries and Lamps only,https://alba-ewaste.sg
1.3719775990142,103.894018787291,0,Point,kml_296,NEA Producer Responsibility Scheme - ALBA E-waste Recycling Programme,"FAIRPRICE @ KANG KAR MALL 100 HOUGANG AVE 10, KANG KAR MALL, #01-01/#02-01 538767",Bin collection; E-waste accepted: Batteries and Lamps only,https://alba-ewaste.sg
1.30416324731536,103.902690598441,0,Point,kml_297,NEA Producer Responsibility Scheme - ALBA E-waste Recycling Programme,"FAIRPRICE @ KATONG VILLAGE HOTEL 30 EAST COAST RD, KATONG VILLAGE HOTEL, #01-06/07/08/09 428751",Bin collection; E-waste accepted: Batteries only,https://alba-ewaste.sg
1.39203038421603,103.743526440789,0,Point,kml_298,NEA Producer Responsibility Scheme - ALBA E-waste Recycling Programme,"FAIRPRICE @ LIMBANG SHOPPING CENTRE 533 CHOA CHUA KANG ST 51, LIMBANG SHOPPING CENTRE, #01-11 680533",Bin collection; E-waste accepted: Batteries and Lamps only,https://alba-ewaste.sg
1.38493873973113,103.745022477138,0,Point,kml_299,NEA Producer Responsibility Scheme - ALBA E-waste Recycling Programme,"FAIRPRICE @ LOT 1 SHOPPERS' MALL 21 CHOA CHU KANG AVE 4, LOT 1 SHOPPERS' MALL, #B1-03 689812",Bin collection; E-waste accepted: Batteries and Lamps only,https://alba-ewaste.sg
1.43262603482053,103.774051196901,0,Point,kml_300,NEA Producer Responsibility Scheme - ALBA E-waste Recycling Programme,"FAIRPRICE @ MARSILING MRT 71 WOODLANDS AVE 3, MARSLING MRT, #01-01 739044",Bin collection; E-waste accepted: Batteries and Lamps only,https://alba-ewaste.sg
1.35064579504166,103.872590476577,0,Point,kml_301,NEA Producer Responsibility Scheme - ALBA E-waste Recycling Programme,"FAIRPRICE @ NEX MALL 23 SERANGOON CENTRAL, NEX MALL, #03-42, IN-STORE 556083","Bin collection; E-waste accepted: ICT equipment, Batteries and Lamps only",https://alba-ewaste.sg
1.42847096111475,103.835986594445,0,Point,kml_302,NEA Producer Responsibility Scheme - ALBA E-waste Recycling Programme,"FAIRPRICE @ NORTHPOINT CITY 1 NORTHPOINT DRIVE, NORTHPOINT CITY, #B2-103 TO 107 768019",Bin collection; E-waste accepted: Batteries and Lamps only,https://alba-ewaste.sg
1.29351287706393,103.784685580986,0,Point,kml_303,NEA Producer Responsibility Scheme - ALBA E-waste Recycling Programme,"FAIRPRICE @ NUH MEDICAL CENTRE 1 LOWER KENT RIDGE RD, NUH MEDICAL CENTRE, #02-16 119082",Bin collection; E-waste accepted: Batteries and Lamps only,https://alba-ewaste.sg
1.40262536290834,103.913029892597,0,Point,kml_304,NEA Producer Responsibility Scheme - ALBA E-waste Recycling Programme,"FAIRPRICE @ OASIS TERRACES 681 PUNGGOL DR, OASIS TERRACES, #B1-01 820681",Bin collection; E-waste accepted: Batteries and Lamps only,https://alba-ewaste.sg
1.29737776886133,103.838471094304,0,Point,kml_305,NEA Producer Responsibility Scheme - ALBA E-waste Recycling Programme,"FAIRPRICE @ ORCHARD GRAND COURT 131 KILLINEY RD, ORCHARD GRAND COURT, #01-01/02/03 239571",Bin collection; E-waste accepted: Batteries and Lamps only,https://alba-ewaste.sg
1.35365064704994,103.940945998338,0,Point,kml_306,NEA Producer Responsibility Scheme - ALBA E-waste Recycling Programme,"FAIRPRICE @ OUR TAMPINES HUB 1 TAMPINES WALK, OUR TAMPINES HUB, #B1-01 528523",Bin collection; E-waste accepted: Batteries and Lamps only,https://alba-ewaste.sg
1.30106068008745,103.905339494376,0,Point,kml_307,NEA Producer Responsibility Scheme - ALBA E-waste Recycling Programme,"FAIRPRICE @ PARKWAY PARADE 80 MARINE PARADE RD, PARKWAY PARADE, #03-28, CASHIER AREA 449269","Bin collection; E-waste accepted: ICT equipment, Batteries and Lamps only",https://alba-ewaste.sg
1.3727883191422,103.853884602216,0,Point,kml_308,NEA Producer Responsibility Scheme - ALBA E-waste Recycling Programme,"GIANT @ 525 ANG MO KIO AVE 10 525 ANG MO KIO AVE 10, #01-2401 560525",Bin collection; E-waste accepted: Batteries only,https://alba-ewaste.sg
1.40060513082505,103.910385071854,0,Point,kml_309,NEA Producer Responsibility Scheme - ALBA E-waste Recycling Programme,"GIANT @ 622D PUNGGOL CENTRAL 622D PUNGGOL CENTRAL, #01-06 824622",Bin collection; E-waste accepted: Batteries only,https://alba-ewaste.sg
1.38077853157599,103.879255652654,0,Point,kml_310,NEA Producer Responsibility Scheme - ALBA E-waste Recycling Programme,"GIANT @ 982 BUANGKOK CRESCENT 982 BUANGKOK CRESCENT, #01-01 530982",Bin collection; E-waste accepted: Batteries only,https://alba-ewaste.sg
1.44060811956064,103.80075155798,0,Point,kml_311,NEA Producer Responsibility Scheme - ALBA E-waste Recycling Programme,"GIANT @ ADMIRALTY MRT 70  WOODLANDS AVE 7, #01-05 738344",Bin collection; E-waste accepted: Batteries only,https://alba-ewaste.sg
1.3422776105768,103.776167058722,0,Point,kml_312,NEA Producer Responsibility Scheme - ALBA E-waste Recycling Programme,"GIANT @ BEAUTY WORLD CENTRE 144 UPPER BUKIT TIMAH ROAD, #B1-01 588177",Bin collection; E-waste accepted: Batteries only,https://alba-ewaste.sg
1.33129931906056,103.948430690899,0,Point,kml_313,NEA Producer Responsibility Scheme - ALBA E-waste Recycling Programme,"GIANT @ BEDOK MARKET PLACE 348 BEDOK ROAD, #01-01 469560",Bin collection; E-waste accepted: Batteries and Lamps only,https://alba-ewaste.sg
1.37222456200604,103.932046199685,0,Point,kml_314,NEA Producer Responsibility Scheme - ALBA E-waste Recycling Programme,"GIANT @ GIANT HYPERMART TAMPINES 21 TAMPINES NORTH DRIVE 2, GIANT HYPERMART TAMPINES, #03-01 528765",Bin collection; E-waste accepted: Batteries and Lamps only,https://alba-ewaste.sg
1.3856951599165,103.766356612192,0,Point,kml_315,NEA Producer Responsibility Scheme - ALBA E-waste Recycling Programme,"GIANT @ GREENRIDGE SHOPPING CENTRE 524A JELAPANG ROAD, #03-13 671524",Bin collection; E-waste accepted: Batteries only,https://alba-ewaste.sg
1.34967629897768,103.84993098604,0,Point,kml_316,NEA Producer Responsibility Scheme - ALBA E-waste Recycling Programme,"GIANT @ HDB BISHAN BRANCH OFFICE 512 BISHAN STREET 13, #01-524 570512",Bin collection; E-waste accepted: Batteries only,https://alba-ewaste.sg
1.37882414000428,103.887491112077,0,Point,kml_317,NEA Producer Responsibility Scheme - ALBA E-waste Recycling Programme,"GIANT @ HOUGANG GREEN SHOPPING MALL 21 HOUGANG ST 51, #01-52 538719",Bin collection; E-waste accepted: Batteries and Lamps only,https://alba-ewaste.sg
1.33415797258108,103.746996298183,0,Point,kml_318,NEA Producer Responsibility Scheme - ALBA E-waste Recycling Programme,"GIANT @ IMM 2 JURONG EAST STREET 21, #01-100 609601",Bin collection; E-waste accepted: Batteries and Lamps only,https://alba-ewaste.sg
1.30988736160399,103.902147698307,0,Point,kml_319,NEA Producer Responsibility Scheme - ALBA E-waste Recycling Programme,"GIANT @ JK CENTRE 291 JOO CHIAT RD, #01-01 427543",Bin collection; E-waste accepted: Batteries only,https://alba-ewaste.sg
1.3298700080681,103.901909765674,0,Point,kml_320,NEA Producer Responsibility Scheme - ALBA E-waste Recycling Programme,"GIANT @ KAMPUNG UBI 306 UBI AVE 1, KAMPUNG UBI, #01-85 400306",Bin collection; E-waste accepted: Batteries only,https://alba-ewaste.sg
1.41683616122356,103.832840702136,0,Point,kml_321,NEA Producer Responsibility Scheme - ALBA E-waste Recycling Programme,"GIANT @ KHATIB MRT 201 YISHUN AVE 2, #01-03 618640",Bin collection; E-waste accepted: Batteries only,https://alba-ewaste.sg
1.36630746372688,103.964289677595,0,Point,kml_322,NEA Producer Responsibility Scheme - ALBA E-waste Recycling Programme,"GIANT @ LOYANG POINT 259 PASIR RIS ST 21, #01-27 510259",Bin collection; E-waste accepted: Batteries and Lamps only,https://alba-ewaste.sg
1.35291960706098,103.871416585191,0,Point,kml_323,NEA Producer Responsibility Scheme - ALBA E-waste Recycling Programme,"GIANT @ NEXT TO SERANGOON MARKET 266 SERANGOON CENTRAL DRIVE, #01-255 550266",Bin collection; E-waste accepted: Batteries only,https://alba-ewaste.sg
1.34828646801077,103.685693826737,0,Point,kml_324,NEA Producer Responsibility Scheme - ALBA E-waste Recycling Programme,"GIANT @ NTU CANTEEN 2 35 STUDENTS WALK, #01-01 539548",Bin collection; E-waste accepted: Batteries only,https://alba-ewaste.sg
1.31856043587151,103.892811597562,0,Point,kml_325,NEA Producer Responsibility Scheme - ALBA E-waste Recycling Programme,"GIANT @ PAYA LEBAR SQUARE 60 PAYA LEBAR ROAD, #B1-01 409051",Manned collection (Contact staff for disposal); E-waste accepted: Batteries and Lamps only,https://alba-ewaste.sg
1.34153535184618,103.696966989555,0,Point,kml_326,NEA Producer Responsibility Scheme - ALBA E-waste Recycling Programme,"GIANT @ PIONEER MALL 638 JURONG WEST STREET 61, #03-01 640638",Bin collection; E-waste accepted: Batteries and Lamps only,https://alba-ewaste.sg
1.44199201775639,103.825228059804,0,Point,kml_327,NEA Producer Responsibility Scheme - ALBA E-waste Recycling Programme,"GIANT @ SEMBAWANG SHOPPING CENTRE 604 SEMBAWANG ROAD, #B1-25 758459",Bin collection; E-waste accepted: Batteries and Lamps only,https://alba-ewaste.sg
1.37809797266625,103.73882059769,0,Point,kml_328,NEA Producer Responsibility Scheme - ALBA E-waste Recycling Programme,"GIANT @ SUNSHINE PLACE 475 CHOA CHU KANG AVE 3, #01-01 680475",Bin collection; E-waste accepted: Batteries only,https://alba-ewaste.sg
1.29529824617564,103.859189440428,0,Point,kml_329,NEA Producer Responsibility Scheme - ALBA E-waste Recycling Programme,"GIANT @ SUNTEC CITY MALL 3 TEMASEK BOULEVARD, #B1-154 38983",Bin collection; E-waste accepted: Batteries and Lamps only,https://alba-ewaste.sg
1.35442326254813,103.960016654941,0,Point,kml_330,NEA Producer Responsibility Scheme - ALBA E-waste Recycling Programme,"GIANT @ TAMPINES MART 9 TAMPINES STREET 32, #01-16 529286",Bin collection; E-waste accepted: Batteries only,https://alba-ewaste.sg
1.43083956613104,103.79403572499,0,Point,kml_331,NEA Producer Responsibility Scheme - ALBA E-waste Recycling Programme,"GIANT @ VISTA POINT 548 WOODLANDS DRIVE 44, #01-37 730548",Bin collection; E-waste accepted: Batteries only,https://alba-ewaste.sg
1.40549989219934,103.912043990138,0,Point,kml_332,NEA Producer Responsibility Scheme - ALBA E-waste Recycling Programme,GIANT @ WATERWAY BANKS 671 EDGEFIELD PLAINS 820671,Bin collection; E-waste accepted: Batteries only,https://alba-ewaste.sg
1.44568192287558,103.797982869162,0,Point,kml_333,NEA Producer Responsibility Scheme - ALBA E-waste Recycling Programme,"GIANT @ WOODLANDS MART 768 WOODLANDS AVENUE 6, #01-33 730768",Manned collection (Contact staff for disposal); E-waste accepted: Batteries and Lamps only,https://alba-ewaste.sg
1.44287381859302,103.790389685033,0,Point,kml_334,NEA Producer Responsibility Scheme - ALBA E-waste Recycling Programme,"GIANT @ WOODLANDS NORTH PLAZA 883 WOODLANDS STREET 82, #01-498 730883",Bin collection; E-waste accepted: Batteries and Lamps only,https://alba-ewaste.sg
1.38529556339226,103.766170532015,0,Point,kml_335,NEA Producer Responsibility Scheme - ALBA E-waste Recycling Programme,"GREENRIDGE SHOPPING CENTRE 524A JELAPANG ROAD, GREENRIDGE SHOPPING CENTRE, GROUND FLOOR - SECURITY COUNTER 671524","Bin collection; E-waste accepted: ICT equipment, Batteries and Lamps only",https://alba-ewaste.sg
1.27679934538372,103.845460373416,0,Point,kml_336,NEA Producer Responsibility Scheme - ALBA E-waste Recycling Programme,"GUOCO TOWER 7 WALLICH STREET, GUOCO TOWER, B2 TOILET ENTRANCE 78884","Bin collection; E-waste accepted: ICT equipment, Batteries and Lamps only",https://alba-ewaste.sg
1.26401293183675,103.820051009962,0,Point,kml_337,NEA Producer Responsibility Scheme - ALBA E-waste Recycling Programme,"HARBOURFRONT CENTRE 1 MARITIME SQUARE, LOADING BAY 99253","Bin collection; E-waste accepted: ICT equipment, Batteries and Lamps only",https://alba-ewaste.sg
1.26499758996015,103.819027061261,0,Point,kml_338,NEA Producer Responsibility Scheme - ALBA E-waste Recycling Programme,"HARBOURFRONT TOWER ONE 1 HARBOURFRONT PLACE, MAIN ENTRANCE 98633","Bin collection; E-waste accepted: ICT equipment, Batteries and Lamps only",https://alba-ewaste.sg
1.32480102639129,103.932384004974,0,Point,kml_339,NEA Producer Responsibility Scheme - ALBA E-waste Recycling Programme,"HARVEY NORMAN @ BEDOK POINT 799 NEW UPPER CHANGI ROAD, BEDOK POINT, #B1-01/02, #B-16/2 AND #B1-K1/K14 467351","Bin collection; E-waste accepted: ICT equipment, Batteries and Lamps only",https://alba-ewaste.sg
1.38001650654971,103.764317068747,0,Point,kml_340,NEA Producer Responsibility Scheme - ALBA E-waste Recycling Programme,"HARVEY NORMAN @ BUKIT PANJANG PLAZA 1 JELEBU ROAD, BUKIT PANJANG PLAZA, #03-06, SIDE ENTRANCE 677743","Bin collection; E-waste accepted: ICT equipment, Batteries and Lamps only",https://alba-ewaste.sg
1.37285425711537,103.847607915877,0,Point,kml_341,NEA Producer Responsibility Scheme - ALBA E-waste Recycling Programme,"HARVEY NORMAN @ DJITSUN MALL 5 ANG MO KIO CENTRAL 3, DJITSUN MALL, #02-01/02, BESIDE CASHIER COUNTER 569663","Bin collection; E-waste accepted: ICT equipment, Batteries and Lamps only",https://alba-ewaste.sg
1.37263315585843,103.893883460165,0,Point,kml_342,NEA Producer Responsibility Scheme - ALBA E-waste Recycling Programme,"HARVEY NORMAN @ HOUGANG MALL 90 HOUGANG AVENUE 10, HOUGANG MALL, #04-15, IN-STORE 538766","Bin collection; E-waste accepted: ICT equipment, Batteries and Lamps only",https://alba-ewaste.sg
1.35779861319234,103.886092077245,0,Point,kml_343,NEA Producer Responsibility Scheme - ALBA E-waste Recycling Programme,"PAYA LEBAR KOVAN CC 207 HOUGANG STREET 21, MAIN ENTRANCE LOBBY 530207","Bin collection; E-waste accepted: ICT equipment, Batteries and Lamps only",https://alba-ewaste.sg
1.31758231125176,103.892832205082,0,Point,kml_344,NEA Producer Responsibility Scheme - ALBA E-waste Recycling Programme,"PAYA LEBAR QUARTER (PLQ) 10 PAYA LEBAR ROAD, PAYA LEBAR QUARTER (PLQ), IN-STORE 409057","Bin collection; E-waste accepted: ICT equipment, Batteries and Lamps only",https://alba-ewaste.sg
1.3188148698027,103.892580778371,0,Point,kml_345,NEA Producer Responsibility Scheme - ALBA E-waste Recycling Programme,"PAYA LEBAR SQUARE 60 PAYA LEBAR RD, PAYA LEBAR SQUARE, LOADING BAY AREA 409051","Bin collection; E-waste accepted: ICT equipment, Batteries and Lamps only",https://alba-ewaste.sg
1.35313872010377,103.887727360691,0,Point,kml_346,NEA Producer Responsibility Scheme - ALBA E-waste Recycling Programme,"PAYA LEBAR ZONE 5 RC 116 HOUGANG AVENUE 1, PAYA LEBAR ZONE 5 RC, #01-1206, VOID DECK 530116","Bin collection; E-waste accepted: ICT equipment, Batteries and Lamps only",https://alba-ewaste.sg
1.3071925037876,103.882585422902,0,Point,kml_347,NEA Producer Responsibility Scheme - ALBA E-waste Recycling Programme,"PINE CLOSE RC 5 PINE CLOSE, #01-141, VOID DECK 391005","Bin collection; E-waste accepted: ICT equipment, Batteries and Lamps only",https://alba-ewaste.sg
1.34167331876535,103.697244542711,0,Point,kml_348,NEA Producer Responsibility Scheme - ALBA E-waste Recycling Programme,"PIONEER MALL 638 JURONG WEST STREET 61, PIONEER MALL, MAIN LOBBY NEAR MACDONALDS 640638","Bin collection; E-waste accepted: ICT equipment, Batteries and Lamps only",https://alba-ewaste.sg
1.33689137703807,103.696638808844,0,Point,kml_349,NEA Producer Responsibility Scheme - ALBA E-waste Recycling Programme,"PIONEER ZONE 12 RN 653A JURONG WEST ST 61, PIONEER ZONE 12 RN, #01-422, VOID DECK 641653","Bin collection; E-waste accepted: ICT equipment, Batteries and Lamps only",https://alba-ewaste.sg
1.33925339793258,103.700219197893,0,Point,kml_350,NEA Producer Responsibility Scheme - ALBA E-waste Recycling Programme,"PIONEER ZONE 9 RN 602 JURONG WEST ST 65, VOID DECK 640602","Bin collection; E-waste accepted: ICT equipment, Batteries and Lamps only",https://alba-ewaste.sg
1.3170710867912,103.843552617701,0,Point,kml_351,NEA Producer Responsibility Scheme - ALBA E-waste Recycling Programme,"POPULAR SINGAPORE / URBANWRITE @ UNITED SQUARE 101 THOMSON ROAD, UNITED SQUARE, #B1-56/56A 307591",Manned collection (Contact staff for disposal); E-waste accepted: ICT equipment and Batteries only,https://alba-ewaste.sg
1.32523870721748,103.929724955996,0,Point,kml_352,NEA Producer Responsibility Scheme - ALBA E-waste Recycling Programme,"POPULAR SINGAPORE @ BEDOK MALL 311 NEW UPPER CHANGI ROAD, BEDOK MALL, #B2-02/35/36 467360",Manned collection (Contact staff for disposal); E-waste accepted: ICT equipment and Batteries only,https://alba-ewaste.sg
1.29659999159506,103.853993993762,0,Point,kml_353,NEA Producer Responsibility Scheme - ALBA E-waste Recycling Programme,"POPULAR SINGAPORE @ BRAS BASAH COMPLEX 231 BRAS BASAH COMPLEX, #04-23/ 33 180231","Bin collection; E-waste accepted: ICT equipment, Batteries and Lamps only",https://alba-ewaste.sg
1.38003713274225,103.764236970207,0,Point,kml_354,NEA Producer Responsibility Scheme - ALBA E-waste Recycling Programme,"POPULAR SINGAPORE @ BUKIT PANJANG PLAZA 1 JELEBU ROAD, BUKIT PANJANG PLAZA, #03-01 677743",Manned collection (Contact staff for disposal); E-waste accepted: ICT equipment and Batteries only,https://alba-ewaste.sg
1.33832223325792,103.778688784565,0,Point,kml_355,NEA Producer Responsibility Scheme - ALBA E-waste Recycling Programme,"POPULAR SINGAPORE @ BUKIT TIMAH PLAZA 1 JALAN ANAK BUKIT, BUKIT TIMAH PLAZA, #01-16 588996",Manned collection (Contact staff for disposal); E-waste accepted: ICT equipment and Batteries only,https://alba-ewaste.sg
1.43627094423006,103.786200860381,0,Point,kml_356,NEA Producer Responsibility Scheme - ALBA E-waste Recycling Programme,"POPULAR SINGAPORE @ CAUSEWAY POINT 1 WOODLANDS SQUARE, CAUSEWAY POINT, #03-29/30 738099",Manned collection (Contact staff for disposal); E-waste accepted: ICT equipment and Batteries only,https://alba-ewaste.sg
1.31502653066775,103.764715947235,0,Point,kml_357,NEA Producer Responsibility Scheme - ALBA E-waste Recycling Programme,"POPULAR SINGAPORE @ CLEMENTI MALL 3155 COMMONWEALTH AVENUE WEST, CLEMENTI MALL, #05-01 TO 05 129588",Manned collection (Contact staff for disposal); E-waste accepted: ICT equipment and Batteries only,https://alba-ewaste.sg
1.39245072039999,103.895237158324,0,Point,kml_358,NEA Producer Responsibility Scheme - ALBA E-waste Recycling Programme,"POPULAR SINGAPORE @ COMPASS ONE 1 SENG KANG SQUARE, COMPASS ONE, #03-11 545078",Manned collection (Contact staff for disposal); E-waste accepted: ICT equipment and Batteries only,https://alba-ewaste.sg
1.34289037319909,103.952845491186,0,Point,kml_359,NEA Producer Responsibility Scheme - ALBA E-waste Recycling Programme,"POPULAR SINGAPORE @ EASTPOINT MALL 3 SIMEI STREET 6, EASTPOINT MALL, #03-23 528833",Manned collection (Contact staff for disposal); E-waste accepted: ICT equipment and Batteries only,https://alba-ewaste.sg
1.33240725365956,103.847107152065,0,Point,kml_360,NEA Producer Responsibility Scheme - ALBA E-waste Recycling Programme,"POPULAR SINGAPORE @ HDB HUB 530 TOA PAYOH LOR 6, HDB HUB, #02-01 310530",Manned collection (Contact staff for disposal); E-waste accepted: ICT equipment and Batteries only,https://alba-ewaste.sg
1.35927142198229,103.884904649638,0,Point,kml_361,NEA Producer Responsibility Scheme - ALBA E-waste Recycling Programme,"POPULAR SINGAPORE @ HEARTLAND MALL - KOVAN 205 HOUGANG STREET 21, HEARTLAND MALL - KOVAN, #03-00 530205",Manned collection (Contact staff for disposal); E-waste accepted: ICT equipment and Batteries only,https://alba-ewaste.sg
1.37234059523517,103.893664216808,0,Point,kml_362,NEA Producer Responsibility Scheme - ALBA E-waste Recycling Programme,"POPULAR SINGAPORE @ HOUGANG MALL 90 HOUGANG AVENUE, HOUGANG MALL, #03-15 538766",Manned collection (Contact staff for disposal); E-waste accepted: ICT equipment and Batteries only,https://alba-ewaste.sg
1.35038212244928,103.84861876337,0,Point,kml_363,NEA Producer Responsibility Scheme - ALBA E-waste Recycling Programme,"POPULAR SINGAPORE @ JUNCTION 8 SHOPPING CENTRE 9 BISHAN PLACE, JUNCTION 8, #04-02A 579837",Manned collection (Contact staff for disposal); E-waste accepted: ICT equipment and Batteries only,https://alba-ewaste.sg
1.34041788199912,103.706733894905,0,Point,kml_364,NEA Producer Responsibility Scheme - ALBA E-waste Recycling Programme,"POPULAR SINGAPORE @ JURONG POINT 1 JURONG WEST CENTRAL 2, JURONG POINT, #B1-41 648886",Manned collection (Contact staff for disposal); E-waste accepted: ICT equipment and Batteries only,https://alba-ewaste.sg
1.38526418089486,103.745161278765,0,Point,kml_365,NEA Producer Responsibility Scheme - ALBA E-waste Recycling Programme,"POPULAR SINGAPORE @ LOT ONE SHOPPERS' MALL 21 CHOA CHU KANG AVENUE 4, LOT ONE, #03-13 689812",Manned collection (Contact staff for disposal); E-waste accepted: ICT equipment and Batteries only,https://alba-ewaste.sg
1.30162746561669,103.90656483721,0,Point,kml_366,NEA Producer Responsibility Scheme - ALBA E-waste Recycling Programme,"POPULAR SINGAPORE @ MARINE PARADE CENTRAL 86 MARINE PARADE CENTRAL, #02-101/102 440086",Manned collection (Contact staff for disposal); E-waste accepted: ICT equipment and Batteries only,https://alba-ewaste.sg
1.35049225505169,103.872070605996,0,Point,kml_367,NEA Producer Responsibility Scheme - ALBA E-waste Recycling Programme,"POPULAR SINGAPORE @ NEX MALL 23 SERANGOON CENTRAL, NEX MALL, #04-59/60 556083",Manned collection (Contact staff for disposal); E-waste accepted: ICT equipment and Batteries only,https://alba-ewaste.sg
1.43004469910828,103.835773812057,0,Point,kml_368,NEA Producer Responsibility Scheme - ALBA E-waste Recycling Programme,"POPULAR SINGAPORE @ NORTHPOINT CITY 930 YISHUN AVENUE 2, NORTHPOINT CITY, #03-12 769098",Manned collection (Contact staff for disposal); E-waste accepted: ICT equipment and Batteries only,https://alba-ewaste.sg
1.40230112589544,103.913141590614,0,Point,kml_369,NEA Producer Responsibility Scheme - ALBA E-waste Recycling Programme,"POPULAR SINGAPORE @ OASIS TERRACES 681 PUNGGOL DRIVE, OASIS TERRACES, #03-15/16 820681",Manned collection (Contact staff for disposal); E-waste accepted: ICT equipment and Batteries only,https://alba-ewaste.sg
1.30147083258557,103.905154685221,0,Point,kml_370,NEA Producer Responsibility Scheme - ALBA E-waste Recycling Programme,"POPULAR SINGAPORE @ PARKWAY PARADE 80 MARINE PARADE ROAD, PARKWAY PARADE, #B-70/71 449269",Manned collection (Contact staff for disposal); E-waste accepted: ICT equipment and Batteries only,https://alba-ewaste.sg
1.31796342566903,103.892945950903,0,Point,kml_371,NEA Producer Responsibility Scheme - ALBA E-waste Recycling Programme,"POPULAR SINGAPORE @ PAYA LEBAR QUARTER (PLQ) 10 PAYA LEBAR ROAD, PAYA LEBAR QUARTER, #03-01/02/03 409057",Manned collection (Contact staff for disposal); E-waste accepted: ICT equipment and Batteries only,https://alba-ewaste.sg
1.39103226334301,103.876004325705,0,Point,kml_372,NEA Producer Responsibility Scheme - ALBA E-waste Recycling Programme,"POPULAR SINGAPORE @ SELETAR MALL 33 SENGKANG WEST AVENUE, SELETAR MALL, #03-06 TO 09 797653",Manned collection (Contact staff for disposal); E-waste accepted: ICT equipment and Batteries only,https://alba-ewaste.sg
1.35247421393613,103.94451477803,0,Point,kml_373,NEA Producer Responsibility Scheme - ALBA E-waste Recycling Programme,"POPULAR SINGAPORE @ TAMPINES MALL 4 TAMPINES CENTRAL 5, TAMPINES MALL, #03-17 529510",Manned collection (Contact staff for disposal); E-waste accepted: ICT equipment and Batteries only,https://alba-ewaste.sg
1.28636479385588,103.826795533151,0,Point,kml_374,NEA Producer Responsibility Scheme - ALBA E-waste Recycling Programme,"POPULAR SINGAPORE @ TIONG BAHRU PLAZA 302 TIONG BAHRU ROAD, TIONG BAHRU PLAZA, #03-115 168732",Manned collection (Contact staff for disposal); E-waste accepted: ICT equipment and Batteries only,https://alba-ewaste.sg
1.31727587697464,103.843668664618,0,Point,kml_375,NEA Producer Responsibility Scheme - ALBA E-waste Recycling Programme,"POPULAR SINGAPORE @ UNITED SQUARE 101 THOMSON ROAD, UNITED SQUARE, #02-22/25 307591",Manned collection (Contact staff for disposal); E-waste accepted: ICT equipment and Batteries only,https://alba-ewaste.sg
1.26463834738601,103.821365410012,0,Point,kml_376,NEA Producer Responsibility Scheme - ALBA E-waste Recycling Programme,"POPULAR SINGAPORE @ VIVOCITY 1 HARBOURFRONT WALK, VIVOCITY, #B1-16/17 98585",Manned collection (Contact staff for disposal); E-waste accepted: ICT equipment and Batteries only,https://alba-ewaste.sg
1.3500567028555,103.749299341952,0,Point,kml_377,NEA Producer Responsibility Scheme - ALBA E-waste Recycling Programme,"POPULAR SINGAPORE @ WEST MALL 1 BUKIT BATOK CENTRAL LINK, WEST MALL, #04-02 658713",Manned collection (Contact staff for disposal); E-waste accepted: ICT equipment and Batteries only,https://alba-ewaste.sg
1.33432943056971,103.74281292798,0,Point,kml_378,NEA Producer Responsibility Scheme - ALBA E-waste Recycling Programme,"POPULAR SINGAPORE @ WESTGATE 3 GATEWAY DRIVE, WESTGATE, #04-26/27 608532",Manned collection (Contact staff for disposal); E-waste accepted: ICT equipment and Batteries only,https://alba-ewaste.sg
1.37238591168688,103.949335377927,0,Point,kml_379,NEA Producer Responsibility Scheme - ALBA E-waste Recycling Programme,"POPULAR SINGAPORE @ WHITE SANDS 1 PASIR RIS CENTRAL STREET 3, WHITE SANDS, #04-12/13 518457",Manned collection (Contact staff for disposal); E-waste accepted: ICT equipment and Batteries only,https://alba-ewaste.sg
1.33263381464111,103.867151674399,0,Point,kml_380,NEA Producer Responsibility Scheme - ALBA E-waste Recycling Programme,"POTONG PASIR CC 6 POTONG PASIR AVENUE 2, CONSTITUENCY OFFICE 358361","Bin collection; E-waste accepted: ICT equipment, Batteries and Lamps only",https://alba-ewaste.sg
1.39344316537988,103.913664590328,0,Point,kml_381,NEA Producer Responsibility Scheme - ALBA E-waste Recycling Programme,"PUNGGOL 21 CC 80 PUNGGOL FIELD, PUNGGOL 21 CC, MAIN LOBBY 828815","Bin collection; E-waste accepted: ICT equipment, Batteries and Lamps only",https://alba-ewaste.sg
1.3987782762208,103.902910892632,0,Point,kml_382,NEA Producer Responsibility Scheme - ALBA E-waste Recycling Programme,"PUNGGOL CLOVER RN 204A  204A PUNGGOL FIELD, PUNGGOL CLOVER RN, #01-288, VOID DECK 821204","Bin collection; E-waste accepted: ICT equipment, Batteries and Lamps only",https://alba-ewaste.sg
1.39740421584512,103.908973750337,0,Point,kml_383,NEA Producer Responsibility Scheme - ALBA E-waste Recycling Programme,"PUNGGOL OASIS RC 176C EDGEFIELD PLAINS, PUNGGOL OASIS RC, #01-569, VOID DECK 821175","Bin collection; E-waste accepted: ICT equipment, Batteries and Lamps only",https://alba-ewaste.sg
1.41119009693752,103.900653796856,0,Point,kml_384,NEA Producer Responsibility Scheme - ALBA E-waste Recycling Programme,"PUNGGOL PARC TERRACE RN 312B SUMANG LINK, #01-171 823312","Bin collection; E-waste accepted: ICT equipment, Batteries and Lamps only",https://alba-ewaste.sg
1.40331378130354,103.898358924994,0,Point,kml_385,NEA Producer Responsibility Scheme - ALBA E-waste Recycling Programme,"PUNGGOL SAPPHIRALD RN 268D PUNGGOL FIELD, PUNGGOL SAPPHIRALD RN, #01-173, VOID DECK 824268","Bin collection; E-waste accepted: ICT equipment, Batteries and Lamps only",https://alba-ewaste.sg
1.40328429167407,103.907288601176,0,Point,kml_386,NEA Producer Responsibility Scheme - ALBA E-waste Recycling Programme,"PUNGGOL VISTA CC 602 PUNGGOL CENTRAL, PUNGGOL VISTA CC, MAIN ENTRANCE 820602","Bin collection; E-waste accepted: ICT equipment, Batteries and Lamps only",https://alba-ewaste.sg
1.40453408560783,103.895665531959,0,Point,kml_387,NEA Producer Responsibility Scheme - ALBA E-waste Recycling Programme,"PUNGGOL WEST CC 259C PUNGGOL FIELD, PUNGGOL WEST CC, VOID DECK 823259","Bin collection; E-waste accepted: ICT equipment, Batteries and Lamps only",https://alba-ewaste.sg
1.24691690903841,103.842123045179,0,Point,kml_388,NEA Producer Responsibility Scheme - ALBA E-waste Recycling Programme,"QUAYSIDE ISLE 31 OCEAN WAY, BASEMENT CARPARK 98375","Bin collection; E-waste accepted: ICT equipment, Batteries and Lamps only",https://alba-ewaste.sg
1.29915024244032,103.801305105863,0,Point,kml_389,NEA Producer Responsibility Scheme - ALBA E-waste Recycling Programme,"QUEENSTOWN CC 365 COMMONWEALTH AVE, MAIN ENTRANCE 149732","Bin collection; E-waste accepted: ICT equipment, Batteries and Lamps only",https://alba-ewaste.sg
1.29400999929591,103.853104382124,0,Point,kml_390,NEA Producer Responsibility Scheme - ALBA E-waste Recycling Programme,RAFFLES CITY SHOPPING CENTRE 252 NORTH BRIDGE RD 179103,"Bin collection; E-waste accepted: ICT equipment, Batteries and Lamps only",https://alba-ewaste.sg
1.3688271398255,103.950296238773,0,Point,kml_391,NEA Producer Responsibility Scheme - ALBA E-waste Recycling Programme,"REPAIR KOPITIAM 565 PASIR RIS ST 51, REPAIR KOPITIAM, VOID DECK 510565","Bin collection; E-waste accepted: ICT equipment, Batteries and Lamps only",https://alba-ewaste.sg
1.33985200369362,103.706685012801,0,Point,kml_392,NEA Producer Responsibility Scheme - ALBA E-waste Recycling Programme,"HARVEY NORMAN @ JURONG POINT 1 JURONG WEST CENTRAL 2, JURONG POINT, #03-37, IN-STORE 648886","Bin collection; E-waste accepted: ICT equipment, Batteries and Lamps only",https://alba-ewaste.sg
1.29296504140563,103.859343968796,0,Point,kml_393,NEA Producer Responsibility Scheme - ALBA E-waste Recycling Programme,"HARVEY NORMAN @ MILLENIA WALK 9 RAFFLES BOULEVARD, MILLENIA WALK, #02-27, IN-STORE ATRIUM 39596","Bin collection; E-waste accepted: ICT equipment, Batteries and Lamps only",https://alba-ewaste.sg
1.3022217738607,103.876152665006,0,Point,kml_394,NEA Producer Responsibility Scheme - ALBA E-waste Recycling Programme,"MEGA DISCOUNT STORE @ KALLANG LEISURE PARK 5 STADIUM WALK, KALLANG LEISURE PARK, #01-46-50, STORE REAR ENTRANCE 397693","Bin collection; E-waste accepted: ICT equipment, Batteries and Lamps only",https://alba-ewaste.sg
1.3175280084075,103.843670754789,0,Point,kml_395,NEA Producer Responsibility Scheme - ALBA E-waste Recycling Programme,"MEGA DISCOUNT STORE @ UNITED SQUARE 101 THOMSON ROAD, UNITED SQUARE, #B1-56D/E, MAIN ENTRANCE 307591","Bin collection; E-waste accepted: ICT equipment, Batteries and Lamps only",https://alba-ewaste.sg
1.34649997418032,103.712779839626,0,Point,kml_396,NEA Producer Responsibility Scheme - ALBA E-waste Recycling Programme,"MR. DIY @ BOON LAY SHOPPING CENTRE 221 BOON LAY PLACE, BOON LAY SHOPPING COMPLEX, #02-164 640221",Bin collection; E-waste accepted: Batteries and Lamps only,https://alba-ewaste.sg
1.35237807334506,103.943856698141,0,Point,kml_397,NEA Producer Responsibility Scheme - ALBA E-waste Recycling Programme,"MR. DIY @ CENTURY SQUARE 2 TAMPINES CENTRAL 5, CENTURY SQAURE, #04-07 & 04-20/ 21 529509",Bin collection; E-waste accepted: Batteries and Lamps only,https://alba-ewaste.sg
1.37763244728731,103.954707620423,0,Point,kml_398,NEA Producer Responsibility Scheme - ALBA E-waste Recycling Programme,"MR. DIY @ DOWNTOWN EAST 1 PASIR RIS CLOSE, E!HUB, #01-103 519599",Bin collection; E-waste accepted: Batteries and Lamps only,https://alba-ewaste.sg
1.3805095906741,103.760337622225,0,Point,kml_399,NEA Producer Responsibility Scheme - ALBA E-waste Recycling Programme,"MR. DIY @ JUNCTION 10 1 WOODLANDS ROAD, #02-02 TO 07 677899",Bin collection; E-waste accepted: Batteries and Lamps only,https://alba-ewaste.sg
1.32125865223462,103.87050989911,0,Point,kml_400,NEA Producer Responsibility Scheme - ALBA E-waste Recycling Programme,"MR. DIY @ KALLANG BAHRU 71 KALLANG BAHRU, #01-531 330071",Bin collection; E-waste accepted: Batteries and Lamps only,https://alba-ewaste.sg
1.31493630511631,103.894439834003,0,Point,kml_401,NEA Producer Responsibility Scheme - ALBA E-waste Recycling Programme,"MR. DIY @ KINEX 11 TANJONG KATONG ROAD, KINEX, #03-29 to 34 437157",Bin collection; E-waste accepted: Batteries and Lamps only,https://alba-ewaste.sg
1.3662832356746,103.964260270689,0,Point,kml_402,NEA Producer Responsibility Scheme - ALBA E-waste Recycling Programme,"MR. DIY @ LOYANG POINT 259 PASIR RIS STREET 21, #01-27, NEAR GIANT ENTRANCE 510259",Bin collection; E-waste accepted: Batteries and Lamps only,https://alba-ewaste.sg
1.44199334266424,103.825232246367,0,Point,kml_403,NEA Producer Responsibility Scheme - ALBA E-waste Recycling Programme,"MR. DIY @ SEMBAWANG SHOPPING CENTRE 604 SEMBAWANG ROAD, SEMBAWANG SHOPPING CENTRE, #02-20/21 758459",Bin collection; E-waste accepted: Batteries and Lamps only,https://alba-ewaste.sg
1.30658675780568,103.787798038781,0,Point,kml_404,NEA Producer Responsibility Scheme - ALBA E-waste Recycling Programme,"MR. DIY @ THE STAR VISTA 1 VISTA EXCHANGE GREEN, THE STAR VISTA, #02-26 138617",Bin collection; E-waste accepted: Batteries and Lamps only,https://alba-ewaste.sg
1.33175179167808,103.85044812737,0,Point,kml_405,NEA Producer Responsibility Scheme - ALBA E-waste Recycling Programme,"MR. DIY @ TOA PAYOH 192 TOA PAYOH LOR 4, #02-674 310192",Bin collection; E-waste accepted: Batteries and Lamps only,https://alba-ewaste.sg
1.33422004680639,103.742590568986,0,Point,kml_406,NEA Producer Responsibility Scheme - ALBA E-waste Recycling Programme,"MR. DIY @ WESTGATE 3 GATEWAY DRIVE, WESTGATE, #03-46/47/48 608532",Bin collection; E-waste accepted: Batteries and Lamps only,https://alba-ewaste.sg
1.33350665799411,103.839593197232,0,Point,kml_407,NEA Producer Responsibility Scheme - ALBA E-waste Recycling Programme,"MSF BUILDING 512 THOMSON ROAD MSF BUILDING LOBBY, MAIN LOBBY 298136","Bin collection; E-waste accepted: ICT equipment, Batteries and Lamps only",https://alba-ewaste.sg
1.30996600443743,103.855401409321,0,Point,kml_408,NEA Producer Responsibility Scheme - ALBA E-waste Recycling Programme,MUSTAFA CENTRE 145 SYED ALWI ROAD 207704,"Bin collection; E-waste accepted: ICT equipment, Batteries and Lamps only",https://alba-ewaste.sg
1.44378204404568,103.784318832703,0,Point,kml_409,NEA Producer Responsibility Scheme - ALBA E-waste Recycling Programme,"REPUBLIC POLYTECHNIC 9 WOODLANDS AVENUE 9, REPUBLIC POLYTECHNIC,  W3, LEVEL 3 FOODCOURT (UNDER RENOVATION) 738964","Bin collection; E-waste accepted: ICT equipment, Batteries and Lamps only",https://alba-ewaste.sg
1.25709048863731,103.820437896378,0,Point,kml_410,NEA Producer Responsibility Scheme - ALBA E-waste Recycling Programme,"RESORT WORLD SENTOSA 8 SENTOSA GATEWAY, BESIDE DIN TAI FUNG RESTAURANT (#01-217) 98269","Bin collection; E-waste accepted: ICT equipment, Batteries and Lamps only",https://alba-ewaste.sg
1.2736653514056,103.792712695184,0,Point,kml_411,NEA Producer Responsibility Scheme - ALBA E-waste Recycling Programme,"ICA @ PASIR PANJANG TERMINAL BUILDING 3 3 HARBOUR DRIVE, PASIR PANJANG TERMINAL BUILDING 3 117404","Bin collection; E-waste accepted: ICT equipment, Batteries and Lamps only",https://alba-ewaste.sg
1.33501758759638,103.746877133089,0,Point,kml_412,NEA Producer Responsibility Scheme - ALBA E-waste Recycling Programme,"IMM 2 JURONG EAST STREET 21, LOADING BAY 609601","Bin collection; E-waste accepted: ICT equipment, Batteries and Lamps only",https://alba-ewaste.sg
1.27605255379107,103.846115365364,0,Point,kml_413,NEA Producer Responsibility Scheme - ALBA E-waste Recycling Programme,"INTERNATIONAL PLAZA 10 ANSON ROAD, INTERNATIONAL PLAZA, #036-05, LEVEL 2 GREEN CORNER 79903","Bin collection; E-waste accepted: ICT equipment, Batteries and Lamps only",https://alba-ewaste.sg
1.3779920408427,103.856411982212,0,Point,kml_414,NEA Producer Responsibility Scheme - ALBA E-waste Recycling Programme,"ITE COLLEGE CENTRAL 2 ANG MO KIO DRIVE, ATRIUM LEVEL 567720","Bin collection; E-waste accepted: ICT equipment, Batteries and Lamps only",https://alba-ewaste.sg
1.33344756342171,103.955310837062,0,Point,kml_415,NEA Producer Responsibility Scheme - ALBA E-waste Recycling Programme,"ITE COLLEGE EAST 10 SIMEI AVE, ITE COLLEGE EAST, #B1-14, ADMIN BUILDING LOBBY, CUSTOMER VISITOR CENTRE 486047","Bin collection; E-waste accepted: ICT equipment, Batteries and Lamps only",https://alba-ewaste.sg
1.37490650900843,103.752233735094,0,Point,kml_416,NEA Producer Responsibility Scheme - ALBA E-waste Recycling Programme,"ITE COLLEGE WEST 1 CHOA CHU KANG GROVE, ITE COLLEGE WEST, BLOCK 1, LEVEL 3 FOOD CANOPY 688236","Bin collection; E-waste accepted: ICT equipment, Batteries and Lamps only",https://alba-ewaste.sg
1.34848894751871,103.717915470108,0,Point,kml_417,NEA Producer Responsibility Scheme - ALBA E-waste Recycling Programme,"JURONG SPRING CC 8 JURONG WEST STREET 52, JURONG SPRING CC, LOBBY 649296","Bin collection; E-waste accepted: ICT equipment, Batteries and Lamps only",https://alba-ewaste.sg
1.30278298775457,103.863598776436,0,Point,kml_418,NEA Producer Responsibility Scheme - ALBA E-waste Recycling Programme,"KAMPONG GLAM CC 385 BEACH ROAD, KAMPONG GLAM CC, MAIN LOBBY 199581","Bin collection; E-waste accepted: ICT equipment, Batteries and Lamps only",https://alba-ewaste.sg
1.32986709935748,103.896039897796,0,Point,kml_419,NEA Producer Responsibility Scheme - ALBA E-waste Recycling Programme,"KAMPONG UBI INDUSTRIAL ESTATE BLOCK 3024A 3024A UBI RD 1, PAVILION 408718","Bin collection; E-waste accepted: ICT equipment, Batteries and Lamps only",https://alba-ewaste.sg
1.38406516921337,103.744923811823,0,Point,kml_420,NEA Producer Responsibility Scheme - ALBA E-waste Recycling Programme,"KEAT HONG CC 2 CHOA CHU KANG LOOP, KEAT HONG CC, WALKWAY CORRIDOR 689687","Bin collection; E-waste accepted: ICT equipment, Batteries and Lamps only",https://alba-ewaste.sg
1.37294922181819,103.837618848274,0,Point,kml_421,NEA Producer Responsibility Scheme - ALBA E-waste Recycling Programme,"KEBUN BARU CC 216 ANG MO KIO AVENUE 4, GROUND FLOOR - OPPOSITE BURGER KING 569897","Bin collection; E-waste accepted: ICT equipment, Batteries and Lamps only",https://alba-ewaste.sg
1.29715884932005,103.780197587817,0,Point,kml_422,NEA Producer Responsibility Scheme - ALBA E-waste Recycling Programme,"KENT RIDGE CAMPUS 27 SCIENCE DRIVE 1, KENT RIDGE CAMPUS, OUTSIDE LT27 AND LT29 STUDENT SPACE, LEVEL 1 117541","Bin collection; E-waste accepted: ICT equipment, Batteries and Lamps only",https://alba-ewaste.sg
1.29672886881635,103.773151753947,0,Point,kml_423,NEA Producer Responsibility Scheme - ALBA E-waste Recycling Programme,"KENT RIDGE CAMPUS 12 KENT RIDGE CRES, KENT RIDGE CAMPUS, CENTRAL LIBRARY FORUM SPACE, LEVEL 1 119275","Bin collection; E-waste accepted: ICT equipment, Batteries and Lamps only",https://alba-ewaste.sg
1.30880609379104,103.861311954806,0,Point,kml_424,NEA Producer Responsibility Scheme - ALBA E-waste Recycling Programme,"KITCHENER COMPLEX 809 FRENCH ROAD, KITCHENER COMPLEX, MAIN LOBBY 200808","Bin collection; E-waste accepted: ICT equipment, Batteries and Lamps only",https://alba-ewaste.sg
1.28978712162959,103.814448344565,0,Point,kml_425,NEA Producer Responsibility Scheme - ALBA E-waste Recycling Programme,LENG KEE CC 400 LENGKOK BAHRU 159049,"Bin collection; E-waste accepted: ICT equipment, Batteries and Lamps only",https://alba-ewaste.sg
1.29124400576091,103.849984790442,0,Point,kml_426,NEA Producer Responsibility Scheme - ALBA E-waste Recycling Programme,"LENOVO FLAGSHIP @ FUNAN MALL 107 NORTH BRIDGE ROAD, FUNAN MALL, #03-19/20, IN-STORE 179105","Bin collection; E-waste accepted: ICT equipment, Batteries and Lamps only",https://alba-ewaste.sg
1.32421281002311,103.851299569177,0,Point,kml_427,NEA Producer Responsibility Scheme - ALBA E-waste Recycling Programme,"LIGHTPRO @ 341 BALESTIER ROAD 341 BALESTIER ROAD, #01-02 329773",Bin collection; E-waste accepted: Batteries and Lamps only,https://alba-ewaste.sg
1.38503873967998,103.745022477031,0,Point,kml_428,NEA Producer Responsibility Scheme - ALBA E-waste Recycling Programme,"LOT ONE SHOPPERS' MALL 21 CHOA CHU KANG AVE 4, WALKWAY BESIDE MCDONALD'S, WALKWAY BESIDE MACDONALD'S 689812","Bin collection; E-waste accepted: ICT equipment, Batteries and Lamps only",https://alba-ewaste.sg
1.36706634184363,103.964635610373,0,Point,kml_429,NEA Producer Responsibility Scheme - ALBA E-waste Recycling Programme,"LOYANG POINT 259 PASIR RIS STREET 21, LOYANG POINT, MAIN LOBBY (ATM AREA) 510258","Bin collection; E-waste accepted: ICT equipment, Batteries and Lamps only",https://alba-ewaste.sg
1.29845047438002,103.854897087235,0,Point,kml_430,NEA Producer Responsibility Scheme - ALBA E-waste Recycling Programme,"M1 @ BUGIS JUNCTION 80 MIDDLE ROAD, BUGIS JUNCTION, #01-81 188966",Manned collection (Contact staff for disposal); E-waste accepted: ICT equipment and Batteries only,https://alba-ewaste.sg
1.43600784517137,103.785688733844,0,Point,kml_431,NEA Producer Responsibility Scheme - ALBA E-waste Recycling Programme,"M1 @ CAUSEWAY POINT 1 WOODLANDS SQUARE, CAUSEWAY POINT, #03-01 738099",Manned collection (Contact staff for disposal); E-waste accepted: ICT equipment and Batteries only,https://alba-ewaste.sg
1.33481758760548,103.746877132886,0,Point,kml_432,NEA Producer Responsibility Scheme - ALBA E-waste Recycling Programme,"M1 @ IMM 2 JURONG EAST STREET 21, IMM, #01-53 609601",Manned collection (Contact staff for disposal); E-waste accepted: ICT equipment and Batteries only,https://alba-ewaste.sg
1.35054579496821,103.872590476769,0,Point,kml_433,NEA Producer Responsibility Scheme - ALBA E-waste Recycling Programme,"M1 @ NEX 23 SERANGOON CENTRAL, NEX, #B1-56 556083",Manned collection (Contact staff for disposal); E-waste accepted: ICT equipment and Batteries only,https://alba-ewaste.sg
1.28433994299627,103.850982347289,0,Point,kml_434,NEA Producer Responsibility Scheme - ALBA E-waste Recycling Programme,"M1 @ ONE RAFFLES PLACE 1 RAFFLES PLACE, ONE RAFFLES PLACE, #02-25 48616",Manned collection (Contact staff for disposal); E-waste accepted: ICT equipment and Batteries only,https://alba-ewaste.sg
1.30116068014523,103.905339493617,0,Point,kml_435,NEA Producer Responsibility Scheme - ALBA E-waste Recycling Programme,"M1 @ PARKWAY PARADE 80 MARINE PARADE ROAD, PARKWAY PARADE, #02-24 449269",Manned collection (Contact staff for disposal); E-waste accepted: ICT equipment and Batteries only,https://alba-ewaste.sg
1.30144958099141,103.839271800039,0,Point,kml_436,NEA Producer Responsibility Scheme - ALBA E-waste Recycling Programme,"M1 @ PERANAKAN PLACE COMPLEX 178B - 180A ORCHARD ROAD, PERANAKAN PLACE COMPLEX 238845",Manned collection (Contact staff for disposal); E-waste accepted: ICT equipment and Batteries only,https://alba-ewaste.sg
1.35250468321838,103.944682575133,0,Point,kml_437,NEA Producer Responsibility Scheme - ALBA E-waste Recycling Programme,"M1 @ TAMPINES MALL 4 TAMPINES CENTRAL 5, TAMPINES MALL, #03-01 529510",Manned collection (Contact staff for disposal); E-waste accepted: ICT equipment and Batteries only,https://alba-ewaste.sg
1.34982152865429,103.749171989646,0,Point,kml_438,NEA Producer Responsibility Scheme - ALBA E-waste Recycling Programme,"M1 @ WEST MALL 1 BUKIT BATOK CENTRAL LINK, WEST MALL, #01-16 658713",Manned collection (Contact staff for disposal); E-waste accepted: ICT equipment and Batteries only,https://alba-ewaste.sg
1.27457425209431,103.798985925381,0,Point,kml_439,NEA Producer Responsibility Scheme - ALBA E-waste Recycling Programme,MAPLETREE BUSINESS CITY 10 PASIR PANJANG ROAD 117438,"Bin collection; E-waste accepted: ICT equipment, Batteries and Lamps only",https://alba-ewaste.sg
1.27910567819722,103.85429742383,0,Point,kml_440,NEA Producer Responsibility Scheme - ALBA E-waste Recycling Programme,"MARINA BAY FINANCIAL CENTRE TOWER 3 12 MARINA BOULEVARD, DROP-OFF DRIVEWAY 18982","Bin collection; E-waste accepted: ICT equipment, Batteries and Lamps only",https://alba-ewaste.sg
1.27972491465309,103.85454874989,0,Point,kml_441,NEA Producer Responsibility Scheme - ALBA E-waste Recycling Programme,"MARINA BAY LINK MALL 8A MARINA BOULEVARD, #B2-10, NEAR 7-11 18984","Bin collection; E-waste accepted: ICT equipment, Batteries and Lamps only",https://alba-ewaste.sg
1.29990889516793,103.851757082239,0,Point,kml_442,NEA Producer Responsibility Scheme - ALBA E-waste Recycling Programme,"NANYANG ACADEMY OF FINE ARTS 80 BENCOOLEN STREET, LEVEL 1 WING A, LIFT LOBBY 189655","Bin collection; E-waste accepted: ICT equipment, Batteries and Lamps only",https://alba-ewaste.sg
1.38034089944269,103.848083337635,0,Point,kml_443,NEA Producer Responsibility Scheme - ALBA E-waste Recycling Programme,"NANYANG POLYTECHNIC, BLOCK E (NORTH CANTEEN) ANG MO KIO AVENUE 8, NANYANG POLYTECHNIC, BLOCK E (NORTH CANTEEN) 569830","Bin collection; E-waste accepted: ICT equipment, Batteries and Lamps only",https://alba-ewaste.sg
1.31935704682575,103.842084668181,0,Point,kml_444,NEA Producer Responsibility Scheme - ALBA E-waste Recycling Programme,"REVENUE HOUSE (LEVEL 2) 55 NEWTON RD, LEVEL 2 307987","Bin collection; E-waste accepted: ICT equipment, Batteries and Lamps only",https://alba-ewaste.sg
1.38949150207251,103.909660426761,0,Point,kml_445,NEA Producer Responsibility Scheme - ALBA E-waste Recycling Programme,"RIVERVALE ARC RC 180C RIVERVALE CRESCENT, RIVERVALE ARC RC, #01-367, VOID DECK 543180","Bin collection; E-waste accepted: ICT equipment, Batteries and Lamps only",https://alba-ewaste.sg
1.38349233462088,103.900312363092,0,Point,kml_446,NEA Producer Responsibility Scheme - ALBA E-waste Recycling Programme,"RIVERVALE COURT RC 110 RIVERVALE WALK, RIVERVALE COURT RC, VOID DECK 540110","Bin collection; E-waste accepted: ICT equipment, Batteries and Lamps only",https://alba-ewaste.sg
1.38550420766451,103.901988424795,0,Point,kml_447,NEA Producer Responsibility Scheme - ALBA E-waste Recycling Programme,"RIVERVALE PLAZA 118 RIVERVALE DRIVE, RIVERVALE PLAZA, MAIN LOBBY 540118","Bin collection; E-waste accepted: ICT equipment, Batteries and Lamps only",https://alba-ewaste.sg
1.38814105114293,103.905022042197,0,Point,kml_448,NEA Producer Responsibility Scheme - ALBA E-waste Recycling Programme,"RIVERVALE SPRING RC 135 RIVERVALE STREET, RIVERVALE SPRING RC, #01-730, VOID DECK 540135","Bin collection; E-waste accepted: ICT equipment, Batteries and Lamps only",https://alba-ewaste.sg
1.39454068671114,103.905458975294,0,Point,kml_449,NEA Producer Responsibility Scheme - ALBA E-waste Recycling Programme,"RIVERVALE VISTA RC 188B RIVERVALE DRIVE, RIVERVALE VISTA RC, 01-1076, VOID DECK 542188","Bin collection; E-waste accepted: ICT equipment, Batteries and Lamps only",https://alba-ewaste.sg
1.45384518800839,103.819543348008,0,Point,kml_450,NEA Producer Responsibility Scheme - ALBA E-waste Recycling Programme,"SEMBAWANG MART 511 CANBERRA ROAD, SEMBAWANG MART, MAIN LOBBY 750511","Bin collection; E-waste accepted: ICT equipment, Batteries and Lamps only",https://alba-ewaste.sg
1.39600331041371,103.892645095794,0,Point,kml_451,NEA Producer Responsibility Scheme - ALBA E-waste Recycling Programme,"SENGKANG GENERAL HOSPITAL 110 SENGKANG EAST WAY, LEVEL 1 NEAR DROP OFF POINT 544886","Bin collection; E-waste accepted: ICT equipment, Batteries and Lamps only",https://alba-ewaste.sg
1.37005486873349,103.873927610264,0,Point,kml_452,NEA Producer Responsibility Scheme - ALBA E-waste Recycling Programme,"SERANGOON CC 10 SERANGOON NORTH AVENUE 2, ATM LOBBY AREA 555877","Bin collection; E-waste accepted: ICT equipment, Batteries and Lamps only",https://alba-ewaste.sg
1.32162987725782,103.859632712648,0,Point,kml_453,NEA Producer Responsibility Scheme - ALBA E-waste Recycling Programme,"SHENG SIONG @ 108 MCNAIR 108 MCNAIR RD, #01-295 321108",Bin collection; E-waste accepted: Batteries and Lamps only,https://alba-ewaste.sg
1.33129604667263,103.936478998444,0,Point,kml_454,NEA Producer Responsibility Scheme - ALBA E-waste Recycling Programme,"SHENG SIONG @ 115 BEDOK NORTH 115 BEDOK NORTH ROAD, #01-319 460115",Bin collection; E-waste accepted: Batteries and Lamps only,https://alba-ewaste.sg
1.32004897708074,103.887406611641,0,Point,kml_455,NEA Producer Responsibility Scheme - ALBA E-waste Recycling Programme,"SHENG SIONG @ 118 ALJUNIED 118 ALJUNIED AVE 2, #01-100, MAIN ENTRANCE 380118","Bin collection; E-waste accepted: ICT equipment, Batteries and Lamps only",https://alba-ewaste.sg
1.37018860707562,103.843413232028,0,Point,kml_456,NEA Producer Responsibility Scheme - ALBA E-waste Recycling Programme,"SHENG SIONG @ 122 ANG MO KIO 122 ANG MO KIO AVE 3, #01-1753 560122",Bin collection; E-waste accepted: Batteries and Lamps only,https://alba-ewaste.sg
1.43515895107838,103.77602334337,0,Point,kml_457,NEA Producer Responsibility Scheme - ALBA E-waste Recycling Programme,"SHENG SIONG @ 128 WOODLANDS 182 WOODLANDS ST 13, #01-01 730182",Bin collection; E-waste accepted: Batteries and Lamps only,https://alba-ewaste.sg
1.34737180223684,103.743698105619,0,Point,kml_458,NEA Producer Responsibility Scheme - ALBA E-waste Recycling Programme,"SHENG SIONG @ 154A BUKIT BATOK WEST 154A BUKIT BATOK WEST AVE 8, #01-01 651154",Bin collection; E-waste accepted: Batteries and Lamps only,https://alba-ewaste.sg
1.37829768774576,103.754071399254,0,Point,kml_459,NEA Producer Responsibility Scheme - ALBA E-waste Recycling Programme,"SHENG SIONG @ 18 TECK WHYE 18 TECK WHYE LANE, #01-95 680018",Bin collection; E-waste accepted: Batteries and Lamps only,https://alba-ewaste.sg
1.37563500165175,103.871996419079,0,Point,kml_460,NEA Producer Responsibility Scheme - ALBA E-waste Recycling Programme,"SHENG SIONG @ 19 SERANGOON 19 SERANGOON NORTH AVE 5, #01-01 554913",Bin collection; E-waste accepted: Batteries and Lamps only,https://alba-ewaste.sg
1.34740052339029,103.680511903096,0,Point,kml_461,NEA Producer Responsibility Scheme - ALBA E-waste Recycling Programme,"NANYANG TECHNOLOGICAL UNIVERSITY NORTH SPINE PLAZA 76 NANYANG DRIVE, SPIRAL STAIRCASE NEAR LECTURE THEATRE 1A 637331","Bin collection; E-waste accepted: ICT equipment, Batteries and Lamps only",https://alba-ewaste.sg
1.32215664299874,103.818185871753,0,Point,kml_462,NEA Producer Responsibility Scheme - ALBA E-waste Recycling Programme,"NATIONAL PARKS BOARD HQ 1 CLUNY ROAD, NATIONAL PARKS BOARD HQ, SINGAPORE BOTANIC GARDENS, NASSIM GATE INFO COUNTER 259569","Bin collection; E-waste accepted: ICT equipment, Batteries and Lamps only",https://alba-ewaste.sg
1.42653999968283,103.835929999811,0,Point,kml_463,NEA Producer Responsibility Scheme - ALBA E-waste Recycling Programme,"NEE SOON CENTRAL CC 1 NORTHPOINT DRIVE NEE SOON CENTRAL COMMUNITY CLUB, NEE SOON CENTRAL CC, INSIDE NORTHPOINT CITY 768019","Bin collection; E-waste accepted: ICT equipment, Batteries and Lamps only",https://alba-ewaste.sg
1.43102087574235,103.838488077255,0,Point,kml_464,NEA Producer Responsibility Scheme - ALBA E-waste Recycling Programme,"NEE SOON EAST CC 1 YISHUN AVENUE 9, NEE SOON EAST CC, MAIN LOBBY 768893","Bin collection; E-waste accepted: ICT equipment, Batteries and Lamps only",https://alba-ewaste.sg
1.41497367659645,103.834879808636,0,Point,kml_465,NEA Producer Responsibility Scheme - ALBA E-waste Recycling Programme,"NEE SOON SOUTH CC 30 YISHUN STREET 81, NEE SOON SOUTH CC, VOID DECK (TEMPORARY) CC UNDERGOING RENOVATION 768455","Bin collection; E-waste accepted: ICT equipment, Batteries and Lamps only",https://alba-ewaste.sg
1.31642484692303,103.757439267612,0,Point,kml_466,NEA Producer Responsibility Scheme - ALBA E-waste Recycling Programme,"NEWEST 1 WEST COAST DRIVE, #01-111, LIFT LOBBY C 128020","Bin collection; E-waste accepted: ICT equipment, Batteries and Lamps only",https://alba-ewaste.sg
1.3337846229099,103.775294347967,0,Point,kml_467,NEA Producer Responsibility Scheme - ALBA E-waste Recycling Programme,"NGEE ANN POLYTECHNIC, BLK 22 535 CLEMENTI ROAD, NGEE ANN POLYCLINIC, BLK 22, FOODCOURT 599489","Bin collection; E-waste accepted: ICT equipment, Batteries and Lamps only",https://alba-ewaste.sg
1.32031100709334,103.843656762336,0,Point,kml_468,NEA Producer Responsibility Scheme - ALBA E-waste Recycling Programme,"NOVENA SQUARE 238 THOMSON ROAD, NOVENA SQUARE, LEVEL 3 307683","Bin collection; E-waste accepted: ICT equipment, Batteries and Lamps only",https://alba-ewaste.sg
1.29242694960797,103.783480834732,0,Point,kml_469,NEA Producer Responsibility Scheme - ALBA E-waste Recycling Programme,"NUH 1E KENT RIDGE ROAD, LEVEL 1 119228","Bin collection; E-waste accepted: ICT equipment, Batteries and Lamps only",https://alba-ewaste.sg
1.40263460085753,103.913270566377,0,Point,kml_470,NEA Producer Responsibility Scheme - ALBA E-waste Recycling Programme,"OASIS TERRACES 681 PUNGGOL DRIVE, OASIS TERRACES, LVL 1 OPPOSITE ANYTIME FITNESS 820681","Bin collection; E-waste accepted: ICT equipment, Batteries and Lamps only",https://alba-ewaste.sg
1.28150088901303,103.852160453744,0,Point,kml_471,NEA Producer Responsibility Scheme - ALBA E-waste Recycling Programme,"ONE RAFFLES QUAY 1 RAFFLES QUAY, #B2, ESCALATOR WALKWAY 48583","Bin collection; E-waste accepted: ICT equipment, Batteries and Lamps only",https://alba-ewaste.sg
1.35218046886665,103.940598002174,0,Point,kml_472,NEA Producer Responsibility Scheme - ALBA E-waste Recycling Programme,"OUR TAMPINES HUB 1 TAMPINES WALK, CENTRAL PLAZA (LIBRARY EXIT) 528523","Bin collection; E-waste accepted: ICT equipment, Batteries and Lamps only",https://alba-ewaste.sg
1.37989074067834,103.936736601657,0,Point,kml_473,NEA Producer Responsibility Scheme - ALBA E-waste Recycling Programme,"PASIR RIS WEST PLAZA 735 PASIR RIS STREET 72, PASIR RIS WEST PLAZA, MAIN ENTRANCE 510735","Bin collection; E-waste accepted: ICT equipment, Batteries and Lamps only",https://alba-ewaste.sg
1.33924805071005,103.727160097151,0,Point,kml_474,NEA Producer Responsibility Scheme - ALBA E-waste Recycling Programme,"PASSION WAVE @ JURONG LAKE GARDENS 100 YUAN CHING RD, RECEPTION 618662","Bin collection; E-waste accepted: ICT equipment, Batteries and Lamps only",https://alba-ewaste.sg
1.29527117293993,103.868073811378,0,Point,kml_475,NEA Producer Responsibility Scheme - ALBA E-waste Recycling Programme,"PASSION WAVE @ MARINA BAY 11 RHU CROSS, MAIN ENTRANCE 437440","Bin collection; E-waste accepted: ICT equipment, Batteries and Lamps only",https://alba-ewaste.sg
1.30487639006068,103.909640247764,0,Point,kml_476,NEA Producer Responsibility Scheme - ALBA E-waste Recycling Programme,"MARINE PARADE CC 278 MARINE PARADE ROAD, MARINE PARADE CC, MAIN ENTRANCE 449282","Bin collection; E-waste accepted: ICT equipment, Batteries and Lamps only",https://alba-ewaste.sg
1.36152708688973,103.841518205631,0,Point,kml_477,NEA Producer Responsibility Scheme - ALBA E-waste Recycling Programme,"MARYMOUNT CC SIN MING AVE, MAIN LOBBY 575738","Bin collection; E-waste accepted: ICT equipment, Batteries and Lamps only",https://alba-ewaste.sg
1.44571784073067,103.798166316744,0,Point,kml_478,NEA Producer Responsibility Scheme - ALBA E-waste Recycling Programme,"WOODLANDS MART 768 WOODLANDS AVENUE 6, WOODLANDS MART, MAIN LOBBY 730768","Bin collection; E-waste accepted: ICT equipment, Batteries and Lamps only",https://alba-ewaste.sg
1.41664314788376,103.759256869283,0,Point,kml_479,NEA Producer Responsibility Scheme - ALBA E-waste Recycling Programme,WOODLANDS PARK NC 20 CHOA CHU KANG STREET 52 689286,"Bin collection; E-waste accepted: ICT equipment, Batteries and Lamps only",https://alba-ewaste.sg
1.44330260306823,103.793474574602,0,Point,kml_480,NEA Producer Responsibility Scheme - ALBA E-waste Recycling Programme,"WOODLANDS ZONE 2 RN 846 WOODLANDS AVENUE 4, WOODLANDS ZONE 2 RN, VOID DECK 730846","Bin collection; E-waste accepted: ICT equipment, Batteries and Lamps only",https://alba-ewaste.sg
1.4447963012875,103.790602762446,0,Point,kml_481,NEA Producer Responsibility Scheme - ALBA E-waste Recycling Programme,"WOODLANDS ZONE 3 RN 876 WOODLANDS STREET 83, WOODLANDS ZONE 3 RN, VOID DECK 730876","Bin collection; E-waste accepted: ICT equipment, Batteries and Lamps only",https://alba-ewaste.sg
1.43995508437731,103.795048909963,0,Point,kml_482,NEA Producer Responsibility Scheme - ALBA E-waste Recycling Programme,"WOODLANDS ZONE 4 RN 862 WOODLANDS STREET 83, WOODLANDS ZONE 4 RN, #01-184, VOID DECK 730862","Bin collection; E-waste accepted: ICT equipment, Batteries and Lamps only",https://alba-ewaste.sg
1.43542609172864,103.796998841722,0,Point,kml_483,NEA Producer Responsibility Scheme - ALBA E-waste Recycling Programme,"WOODLANDS ZONE 7 RN 611 WOODLANDS RING ROAD, WOODLANDS ZONE 7 RN, VOID DECK 730611","Bin collection; E-waste accepted: ICT equipment, Batteries and Lamps only",https://alba-ewaste.sg
1.43671737756151,103.803192512848,0,Point,kml_484,NEA Producer Responsibility Scheme - ALBA E-waste Recycling Programme,"WOODLANDS ZONE 8 RN 638 WOODLANDS RING ROAD, WOODLANDS ZONE 8 RN, VOID DECK 730638","Bin collection; E-waste accepted: ICT equipment, Batteries and Lamps only",https://alba-ewaste.sg
1.43698596373896,103.799117864186,0,Point,kml_485,NEA Producer Responsibility Scheme - ALBA E-waste Recycling Programme,"WOODLANDS ZONE 9 RN 656 WOODLANDS RING ROAD, WOODLANDS ZONE 9 RN, VOID DECK 730656","Bin collection; E-waste accepted: ICT equipment, Batteries and Lamps only",https://alba-ewaste.sg
1.39480564620138,103.744971295097,0,Point,kml_486,NEA Producer Responsibility Scheme - ALBA E-waste Recycling Programme,"YEW TEE CC 20 CHOA CHU KANG STREET 52, YEW TEE CC, MAIN ATRIUM 689286","Bin collection; E-waste accepted: ICT equipment, Batteries and Lamps only",https://alba-ewaste.sg
1.39827719591902,103.74718245137,0,Point,kml_487,NEA Producer Responsibility Scheme - ALBA E-waste Recycling Programme,"YEW TEE SQUARE 624 CHOA CHU KANG STREET 62, YEW TEE SQUARE, REAR ENTRANCE 680622","Bin collection; E-waste accepted: ICT equipment, Batteries and Lamps only",https://alba-ewaste.sg
1.38151727609961,103.84142811505,0,Point,kml_488,NEA Producer Responsibility Scheme - ALBA E-waste Recycling Programme,"YIO CHU KANG CC 50 ANG MO KIO STREET 61, MAIN LOBBY 569163","Bin collection; E-waste accepted: ICT equipment, Batteries and Lamps only",https://alba-ewaste.sg
1.33997286002338,103.737065907176,0,Point,kml_489,NEA Producer Responsibility Scheme - ALBA E-waste Recycling Programme,"YUHUA CC 90 BOON LAY WAY, MAIN LOBBY 609958","Bin collection; E-waste accepted: ICT equipment, Batteries and Lamps only",https://alba-ewaste.sg
1.29145139535094,103.776783997059,0,Point,kml_490,NEA Producer Responsibility Scheme - ALBA E-waste Recycling Programme,"YUSOF ISHAK INSTITUTE 30 HENG MUI KENG TERRACE, LEVEL 1 119614","Bin collection; E-waste accepted: ICT equipment, Batteries and Lamps only",https://alba-ewaste.sg
1.3270848546286,103.846476460292,0,Point,kml_491,NEA Producer Responsibility Scheme - ALBA E-waste Recycling Programme,"ZHONGSHAN MALL 20 AH HOOD ROAD, ZHONGSHAN MALL 329984","Bin collection; E-waste accepted: ICT equipment, Batteries and Lamps only",https://alba-ewaste.sg
1.38552095472081,103.892992478692,0,Point,kml_492,Virogreen NECDC E-waste Recycling Programme for Non-regulated E-waste,COMPASSVALE ANCILLA RC 279B SENGKANG EAST AVE #01-545 542279,"Bin collection; E-waste accepted: Non-regulated products only; E.g. Small household appliances, gaming consoles, audio systems, power supplies",https://www.virogreen.net/
1.30979102118924,103.768657660932,0,Point,kml_493,NEA Producer Responsibility Scheme - ALBA E-waste Recycling Programme,"SHENG SIONG @ 420A CLEMENTI 420A CLEMENTI AVE 1, #01-01 121420",Bin collection; E-waste accepted: Batteries and Lamps only,https://alba-ewaste.sg
1.35303824914486,103.743948448003,0,Point,kml_494,NEA Producer Responsibility Scheme - ALBA E-waste Recycling Programme,"SHENG SIONG @ 451 BUKIT BATOK 451 BUKIT BATOK WEST AVENUE 6, #01-10, COMMON CORRIDOR 650451","Bin collection; E-waste accepted: ICT equipment, Batteries and Lamps only",https://alba-ewaste.sg
1.39206420581632,103.87121657968,0,Point,kml_495,NEA Producer Responsibility Scheme - ALBA E-waste Recycling Programme,"SHENG SIONG @ 455 SENGKANG 455 SENGKANG WEST AVENUE, #01-16 790455",Bin collection; E-waste accepted: Batteries and Lamps only,https://alba-ewaste.sg
1.35608282197794,103.945931269109,0,Point,kml_496,NEA Producer Responsibility Scheme - ALBA E-waste Recycling Programme,"SHENG SIONG @ 506 TAMPINES 506 TAMPINES CENTRAL 1, #01-361 520506",Bin collection; E-waste accepted: Batteries and Lamps only,https://alba-ewaste.sg
1.28708278315038,103.841580108985,0,Point,kml_497,NEA Producer Responsibility Scheme - ALBA E-waste Recycling Programme,"SHENG SIONG @ 52 CHIN SWEE 52 CHIN SWEE RD, #01-25 160052",Bin collection; E-waste accepted: Batteries and Lamps only,https://alba-ewaste.sg
1.33228769882281,103.925650970835,0,Point,kml_498,NEA Producer Responsibility Scheme - ALBA E-waste Recycling Programme,"SHENG SIONG @ 539A BEDOK NORTH 539A BEDOK NORTH ST 3, #01-477 461539",Bin collection; E-waste accepted: Batteries and Lamps only,https://alba-ewaste.sg
1.35239358260615,103.715759506196,0,Point,kml_499,NEA Producer Responsibility Scheme - ALBA E-waste Recycling Programme,"SHENG SIONG @ 544 JURONG WEST 544 JURONG WEST ST 42, #01-97 640544",Bin collection; E-waste accepted: Batteries and Lamps only,https://alba-ewaste.sg
1.43109807158891,103.798507620602,0,Point,kml_500,NEA Producer Responsibility Scheme - ALBA E-waste Recycling Programme,"SHENG SIONG @ 573 WOODLANDS 573 WOODLANDS DRIVE 16, #02-01 730573",Bin collection; E-waste accepted: Batteries and Lamps only,https://alba-ewaste.sg
1.36113645832708,103.937425592923,0,Point,kml_501,NEA Producer Responsibility Scheme - ALBA E-waste Recycling Programme,"SHENG SIONG @ 602A TAMPINES 602A TAMPINES AVENUE 9, #01-01, MAIN ENTRANCE 521602","Bin collection; E-waste accepted: ICT equipment, Batteries and Lamps only",https://alba-ewaste.sg
1.32237497022065,103.738412755836,0,Point,kml_502,NEA Producer Responsibility Scheme - ALBA E-waste Recycling Programme,"SHENG SIONG @ 61 TEBAN GARDENS RD 61 TEBAN GARDENS RD, #01-21 600061",Bin collection; E-waste accepted: Batteries and Lamps only,https://alba-ewaste.sg
1.37781644456285,103.94220364041,0,Point,kml_503,NEA Producer Responsibility Scheme - ALBA E-waste Recycling Programme,"SHENG SIONG @ 623 ELIAS MALL 623 ELIAS ROAD, #B1-01 510623",Bin collection; E-waste accepted: Batteries and Lamps only,https://alba-ewaste.sg
1.42045043784529,103.843576757433,0,Point,kml_504,NEA Producer Responsibility Scheme - ALBA E-waste Recycling Programme,"SHENG SIONG @ 675 YISHUN 675 YISHUN AVENUE 4, #01-10 760675",Bin collection; E-waste accepted: Batteries and Lamps only,https://alba-ewaste.sg
1.34878489727546,103.703415654788,0,Point,kml_505,NEA Producer Responsibility Scheme - ALBA E-waste Recycling Programme,"SHENG SIONG @ 7 JURONG WEST 7 JURONG WEST AVE 5, #01-01 649486",Bin collection; E-waste accepted: Batteries and Lamps only,https://alba-ewaste.sg
1.30246408831538,103.763750971623,0,Point,kml_506,NEA Producer Responsibility Scheme - ALBA E-waste Recycling Programme,"SHENG SIONG @ 720 CLEMENTI WEST 720 CLEMENTI WEST ST 2, #01-144, COMMON CORRIDOR 120720","Bin collection; E-waste accepted: ICT equipment, Batteries and Lamps only",https://alba-ewaste.sg
1.3380303952592,103.923331369242,0,Point,kml_507,NEA Producer Responsibility Scheme - ALBA E-waste Recycling Programme,"SHENG SIONG @ 739A BEDOK RESERVOIR 739A BEDOK RESERVOIR RD, #01-01 471739",Bin collection; E-waste accepted: Batteries and Lamps only,https://alba-ewaste.sg
1.44680413878616,103.805487571931,0,Point,kml_508,NEA Producer Responsibility Scheme - ALBA E-waste Recycling Programme,"SHENG SIONG @ 785E WOODLANDS 785E WOODLANDS RISE, #01-01 735785",Bin collection; E-waste accepted: Batteries and Lamps only,https://alba-ewaste.sg
1.41593569535821,103.835132360077,0,Point,kml_509,NEA Producer Responsibility Scheme - ALBA E-waste Recycling Programme,"SHENG SIONG @ 845 YISHUN 845 YISHUN STREET 81, #01-184 760845",Bin collection; E-waste accepted: Batteries and Lamps only,https://alba-ewaste.sg
1.30178506400972,103.798226442847,0,Point,kml_510,NEA Producer Responsibility Scheme - ALBA E-waste Recycling Programme,"SHENG SIONG @ 88 TANGLIN HALT 88 TANGLIN HALT ROAD, #01-10 141088",Bin collection; E-waste accepted: Batteries and Lamps only,https://alba-ewaste.sg
1.42697074172579,103.83671792358,0,Point,kml_511,NEA Producer Responsibility Scheme - ALBA E-waste Recycling Programme,"SHENG SIONG @ 925 YISHUN CENTRAL 925 YISHUN CENTRAL 1, #01-211 760925",Bin collection; E-waste accepted: Batteries and Lamps only,https://alba-ewaste.sg
1.39903937864626,103.889642294306,0,Point,kml_512,NEA Producer Responsibility Scheme - ALBA E-waste Recycling Programme,"SHENG SIONG @ ANCHORVALE 338 ANCHORVALE CRESCENT, #01-11 540338",Bin collection; E-waste accepted: Batteries and Lamps only,https://alba-ewaste.sg
1.31403589123984,103.87049552576,0,Point,kml_513,NEA Producer Responsibility Scheme - ALBA E-waste Recycling Programme,"SHENG SIONG @ BOON KENG 11 UPPER BOON KENG ROAD, #01-901 380011",Bin collection; E-waste accepted: Batteries and Lamps only,https://alba-ewaste.sg
1.3557230805983,103.739303105448,0,Point,kml_514,NEA Producer Responsibility Scheme - ALBA E-waste Recycling Programme,"SHENG SIONG @ BUKIT BATOK WEST 440 BUKIT BATOK WEST AVE 8, #01-10 650440",Bin collection; E-waste accepted: Batteries and Lamps only,https://alba-ewaste.sg
1.44886402232577,103.8323928507,0,Point,kml_515,NEA Producer Responsibility Scheme - ALBA E-waste Recycling Programme,"SHENG SIONG @ CANBERRA 105 CANBERRA ST, EAST BROOK @ CANBERRA, #02-05, COMMON CORRIDOR 750105","Bin collection; E-waste accepted: ICT equipment, Batteries and Lamps only",https://alba-ewaste.sg
1.32918289934136,103.888257197627,0,Point,kml_516,NEA Producer Responsibility Scheme - ALBA E-waste Recycling Programme,"SHENG SIONG @ CIRCUIT ROAD 18B CIRCUIT ROAD, #01-260 372018",Bin collection; E-waste accepted: Batteries and Lamps only,https://alba-ewaste.sg
1.29531966312278,103.809758590564,0,Point,kml_517,NEA Producer Responsibility Scheme - ALBA E-waste Recycling Programme,"SHENG SIONG @ DAWSON 85 DAWSON ROAD, #01-01 141085",Bin collection; E-waste accepted: Batteries and Lamps only,https://alba-ewaste.sg
1.40254254700568,103.916383181348,0,Point,kml_518,NEA Producer Responsibility Scheme - ALBA E-waste Recycling Programme,"SHENG SIONG @ EDGEDALE PLAINS 660A EDGEDALE PLAINS, #01-01 821660",Bin collection; E-waste accepted: Batteries and Lamps only,https://alba-ewaste.sg
1.39176249327176,103.880151369438,0,Point,kml_519,NEA Producer Responsibility Scheme - ALBA E-waste Recycling Programme,"SHENG SIONG @ FERNVALE LINK 417 FERNVALE LINK, #01-11 790417",Bin collection; E-waste accepted: Batteries and Lamps only,https://alba-ewaste.sg
1.39767338076067,103.881611344437,0,Point,kml_520,NEA Producer Responsibility Scheme - ALBA E-waste Recycling Programme,"SHENG SIONG @ FERNVALE ST 473 FERVALE STREET, #01-06 790473",Bin collection; E-waste accepted: Batteries and Lamps only,https://alba-ewaste.sg
1.3778920407766,103.856411982148,0,Point,kml_521,NEA Producer Responsibility Scheme - ALBA E-waste Recycling Programme,"SHENG SIONG @ ITE COLLEGE CENTRAL 2 ANG MO KIO DRIVE, #A1-12, ATRIUM LEVEL 567720","Bin collection; E-waste accepted: ICT equipment, Batteries and Lamps only",https://alba-ewaste.sg
1.38018163030509,103.760419305369,0,Point,kml_522,NEA Producer Responsibility Scheme - ALBA E-waste Recycling Programme,"SHENG SIONG @ JUNCTION 10 1 WOODLANDS ROAD, JUNCTION 10, #01-07 677899",Bin collection; E-waste accepted: Batteries and Lamps only,https://alba-ewaste.sg
1.43326530983708,103.841482411326,0,Point,kml_523,NEA Producer Responsibility Scheme - ALBA E-waste Recycling Programme,"SHENG SIONG @ JUNCTION 9 18 YISHUN AVENUE 9, JUNCTION NINE, #02-06 768897",Bin collection; E-waste accepted: Batteries and Lamps only,https://alba-ewaste.sg
1.44315121081807,103.775164777052,0,Point,kml_524,NEA Producer Responsibility Scheme - ALBA E-waste Recycling Programme,"SHENG SIONG @ MARSILING DRIVE 202 202 MARSILING DRIVE, #01-138 730202",Bin collection; E-waste accepted: Batteries and Lamps only,https://alba-ewaste.sg
1.30804575535624,103.857245725678,0,Point,kml_525,NEA Producer Responsibility Scheme - ALBA E-waste Recycling Programme,"SHENG SIONG @ NEW WORLD CENTRE 1 JALAN BERSEH, #B1-02/22 209037",Bin collection; E-waste accepted: Batteries and Lamps only,https://alba-ewaste.sg
1.36957678827055,103.947993095976,0,Point,kml_526,NEA Producer Responsibility Scheme - ALBA E-waste Recycling Programme,"SHENG SIONG @ PASIR RIS 527D PASIR RIS STREET 51, #01-01 514527",Bin collection; E-waste accepted: Batteries and Lamps only,https://alba-ewaste.sg
1.33239989854733,103.866986061863,0,Point,kml_527,NEA Producer Responsibility Scheme - ALBA E-waste Recycling Programme,"SHENG SIONG @ POTONG PASIR COMMUNITY CLUB 6 POTONG PASIR AVENUE 2, LEVEL 1 358361",Bin collection; E-waste accepted: Batteries and Lamps only,https://alba-ewaste.sg
1.3882402170722,103.769575386975,0,Point,kml_528,NEA Producer Responsibility Scheme - ALBA E-waste Recycling Programme,"SHENG SIONG @ SEGAR 547 SEGAR ROAD, #01-06 670547",Bin collection; E-waste accepted: Batteries and Lamps only,https://alba-ewaste.sg
1.41090874581043,103.900251346569,0,Point,kml_529,NEA Producer Responsibility Scheme - ALBA E-waste Recycling Programme,"SHENG SIONG @ SUMANG LINK 312A SUMANG LINK, #01-04 821312",Bin collection; E-waste accepted: Batteries and Lamps only,https://alba-ewaste.sg
1.35525005189078,103.931745907258,0,Point,kml_530,NEA Producer Responsibility Scheme - ALBA E-waste Recycling Programme,SHENG SIONG @ TAMPINES ST 86 872C 872C TAMPINES STREET 86 523872,Bin collection; E-waste accepted: Batteries and Lamps only,https://alba-ewaste.sg
1.31960799514884,103.94512882638,0,Point,kml_531,NEA Producer Responsibility Scheme - ALBA E-waste Recycling Programme,"SIGLAP EAST RC 167 BEDOK SOUTH AVE 3, #01-501 460167","Bin collection; E-waste accepted: ICT equipment, Batteries and Lamps only",https://alba-ewaste.sg
1.32037624660834,103.942568597125,0,Point,kml_532,NEA Producer Responsibility Scheme - ALBA E-waste Recycling Programme,"SIGLAP LUCKY VALLEY RC 71 BEDOK SOUTH ROAD, #01-250 460071","Bin collection; E-waste accepted: ICT equipment, Batteries and Lamps only",https://alba-ewaste.sg
1.30290658780656,103.853031869393,0,Point,kml_533,NEA Producer Responsibility Scheme - ALBA E-waste Recycling Programme,"SIM LIM SQUARE 1 ROCHOR CANAL RD, SIM LIM SQUARE, LOADING BAY 188504","Bin collection; E-waste accepted: ICT equipment, Batteries and Lamps only",https://alba-ewaste.sg
1.29897550216734,103.83840639872,0,Point,kml_534,NEA Producer Responsibility Scheme - ALBA E-waste Recycling Programme,"SINGTEL @ COMCENTRE 31B EXETER ROAD, COMCENTRE 239733","Bin collection; E-waste accepted: ICT equipment, Batteries and Lamps only",https://alba-ewaste.sg
1.29926585277497,103.778301212701,0,Point,kml_535,NEA Producer Responsibility Scheme - ALBA E-waste Recycling Programme,"SIT @ DOVER 10 DOVER DRIVE, SIT @ DOVER, MAIN LOBBY 138683","Bin collection; E-waste accepted: ICT equipment, Batteries and Lamps only",https://alba-ewaste.sg
1.30097808156907,103.838350464674,0,Point,kml_536,NEA Producer Responsibility Scheme - ALBA E-waste Recycling Programme,"SONY @ 313 SOMERSET 313 ORCHARD ROAD, 313 SOMERSET, #02-28 238895",Manned collection (Contact staff for disposal); E-waste accepted: ICT equipment and Batteries only,https://alba-ewaste.sg
1.35044579489465,103.872590476962,0,Point,kml_537,NEA Producer Responsibility Scheme - ALBA E-waste Recycling Programme,"SONY @ NEX 23 SERANGOON CENTRAL, NEX, #03-21 556083",Manned collection (Contact staff for disposal); E-waste accepted: ICT equipment and Batteries only,https://alba-ewaste.sg
1.30370452032361,103.833200970271,0,Point,kml_538,NEA Producer Responsibility Scheme - ALBA E-waste Recycling Programme,"SONY @ WISMA ATRIA 435 ORCHARD ROAD, WISMA ATRIA, #03-01 238877",Manned collection (Contact staff for disposal); E-waste accepted: ICT equipment and Batteries only,https://alba-ewaste.sg
1.3923400482811,103.746898713183,0,Point,kml_539,NEA Producer Responsibility Scheme - ALBA E-waste Recycling Programme,STAGMONT VIEW RC 753 CHOA CHU KANG NORTH 5 680753,"Bin collection; E-waste accepted: ICT equipment, Batteries and Lamps only",https://alba-ewaste.sg
1.30093412958734,103.845072742807,0,Point,kml_540,NEA Producer Responsibility Scheme - ALBA E-waste Recycling Programme,"STARHUB @ PLAZA SINGAPURA 68 ORCHARD ROAD, PLAZA SINGAPURA, #01-36, IN-STORE 238839","Bin collection; E-waste accepted: ICT equipment, Batteries and Lamps only",https://alba-ewaste.sg
1.30073413022111,103.845072742781,0,Point,kml_541,NEA Producer Responsibility Scheme - ALBA E-waste Recycling Programme,"STARHUB @ PLAZA SINGAPURA 68 ORCHARD ROAD, STARHUB @ PLAZA SINGAPURA, #01-36, IN-STORE 238839",Manned collection (Contact staff for disposal); E-waste accepted: ICT equipment and Batteries only,https://alba-ewaste.sg
1.35250468321838,103.944682575133,0,Point,kml_542,NEA Producer Responsibility Scheme - ALBA E-waste Recycling Programme,"STARHUB @ TAMPINES CENTRAL 4 TAMPINES CENTRAL 5, TAMPINES CENTRAL, #02-27, IN-STORE 529510","Bin collection; E-waste accepted: ICT equipment, Batteries and Lamps only",https://alba-ewaste.sg
1.35250468321838,103.944682575133,0,Point,kml_543,NEA Producer Responsibility Scheme - ALBA E-waste Recycling Programme,"STARHUB @ TAMPINES CENTRAL 4 TAMPINES CENTRAL 5, STARHUB @ TAMPINES, #02-27, IN-STORE 529510",Manned collection (Contact staff for disposal); E-waste accepted: ICT equipment and Batteries only,https://alba-ewaste.sg
1.37789727696934,103.739015486131,0,Point,kml_544,NEA Producer Responsibility Scheme - ALBA E-waste Recycling Programme,"SUNSHINE PLACE @ 475 CHOA CHU KANG AVENUE 3 475 CHOA CHU KANG AVENUE 3, WALKWAY CORRIDOR 680475","Bin collection; E-waste accepted: ICT equipment, Batteries and Lamps only",https://alba-ewaste.sg
1.33497560338055,103.720663576019,0,Point,kml_545,NEA Producer Responsibility Scheme - ALBA E-waste Recycling Programme,"TAMAN JURONG SHOPPING CENTRE 399 YUNG SHENG ROAD, TAMAN JURONG SHOPPING CENTRE, COMMON CORRIDOR 610399","Bin collection; E-waste accepted: ICT equipment, Batteries and Lamps only",https://alba-ewaste.sg
1.38504391673194,103.899192644131,0,Point,kml_546,Virogreen NECDC E-waste Recycling Programme for Non-regulated E-waste,COMPASSVALE BEACON RC 211 COMPASSVALE LANE #01-218 543211,"Bin collection; E-waste accepted: Non-regulated products only; E.g. Small household appliances, gaming consoles, audio systems, power supplies",https://www.virogreen.net/
1.36471192155156,103.892275863578,0,Point,kml_547,Virogreen NECDC E-waste Recycling Programme for Non-regulated E-waste,HOUGANG CC 35 HOUGANG AVENUE 3 538840,"Bin collection; E-waste accepted: Non-regulated products only; E.g. Small household appliances, gaming consoles, audio systems, power supplies",https://www.virogreen.net/
1.35176914143563,103.836067746174,0,Point,kml_548,NEA Producer Responsibility Scheme - ALBA E-waste Recycling Programme,"SHENG SIONG @ 200 UPPER THOMSON 200 UPP THOMSON RD, #B1-01 574424",Bin collection; E-waste accepted: Batteries and Lamps only,https://alba-ewaste.sg
1.45089565585985,103.797050379022,0,Point,kml_549,NEA Producer Responsibility Scheme - ALBA E-waste Recycling Programme,"SHENG SIONG @ 200 WOODLANDS IND PARK 200 WOODLANDS INDUSTRIAL PARK E7, #01-30 757177",Bin collection; E-waste accepted: Batteries and Lamps only,https://alba-ewaste.sg
1.32463573058677,103.931068829388,0,Point,kml_550,NEA Producer Responsibility Scheme - ALBA E-waste Recycling Programme,"SHENG SIONG @ 209 NEW UPPER CHANGI RD 209 NEW UPPER CHANGI RD, #01-631, BESIDE MAIN ENTRANCE 460209",Bin collection; E-waste accepted: Batteries and Lamps only,https://alba-ewaste.sg
1.40187523831878,103.892249363977,0,Point,kml_551,NEA Producer Responsibility Scheme - ALBA E-waste Recycling Programme,"SHENG SIONG @ 231 SUMANG LANE 231 SUMANG LANE, #01-02 820231",Bin collection; E-waste accepted: Batteries and Lamps only,https://alba-ewaste.sg
1.36754924963958,103.836740628056,0,Point,kml_552,NEA Producer Responsibility Scheme - ALBA E-waste Recycling Programme,"SHENG SIONG @ 233 ANG MO KIO 233 ANG MO KIO AVE 3, #01-1168 560233",Bin collection; E-waste accepted: Batteries and Lamps only,https://alba-ewaste.sg
1.30811886335897,103.786049385441,0,Point,kml_553,NEA Producer Responsibility Scheme - ALBA E-waste Recycling Programme,"SHENG SIONG @ 25 GHIM MOH 25 GHIM MOH LINK, #01-11 270025",Bin collection; E-waste accepted: Batteries and Lamps only,https://alba-ewaste.sg
1.36747441772193,103.964902848431,0,Point,kml_554,NEA Producer Responsibility Scheme - ALBA E-waste Recycling Programme,"SHENG SIONG @ 258 PASIR RIS 258 PASIR RIS ST 21, #02-10 510258",Bin collection; E-waste accepted: Batteries and Lamps only,https://alba-ewaste.sg
1.34449810534059,103.755375174448,0,Point,kml_555,NEA Producer Responsibility Scheme - ALBA E-waste Recycling Programme,"SHENG SIONG @ 292 BUKIT BATOK EAST AVENUE 292 BUKIT BATOK EAST AVENUE 6, #01-02 650292",Bin collection; E-waste accepted: Batteries and Lamps only,https://alba-ewaste.sg
1.32547475761262,103.72524713203,0,Point,kml_556,NEA Producer Responsibility Scheme - ALBA E-waste Recycling Programme,"SHENG SIONG @ 3 YUAN CHING 3 YUAN CHING RD, #01-01A/02 618642",Bin collection; E-waste accepted: Batteries and Lamps only,https://alba-ewaste.sg
1.31278680702909,103.878786108295,0,Point,kml_557,NEA Producer Responsibility Scheme - ALBA E-waste Recycling Programme,"SHENG SIONG @ 301 GEYLANG 301 GEYLANG ROAD, #01-02 389344",Bin collection; E-waste accepted: Batteries and Lamps only,https://alba-ewaste.sg
1.40375681910441,103.906190078349,0,Point,kml_558,NEA Producer Responsibility Scheme - ALBA E-waste Recycling Programme,"SHENG SIONG @ 301 PUNGGOL CENTRAL 301 PUNGGOL CENTRAL, #01-01 820301",Bin collection; E-waste accepted: Batteries and Lamps only,https://alba-ewaste.sg
1.43150526959228,103.773515658659,0,Point,kml_559,NEA Producer Responsibility Scheme - ALBA E-waste Recycling Programme,"SHENG SIONG @ 301 WOODLANDS 301 WOODLANDS ST 31, #01-217 730301",Bin collection; E-waste accepted: Batteries and Lamps only,https://alba-ewaste.sg
1.39316308326999,103.887100802276,0,Point,kml_560,NEA Producer Responsibility Scheme - ALBA E-waste Recycling Programme,"SHENG SIONG @ 351 ANCHORVALE ROAD 351 ANCHORVALE ROAD, #01-05 540351",Bin collection; E-waste accepted: Batteries and Lamps only,https://alba-ewaste.sg
1.31427860172056,103.771350557955,0,Point,kml_561,NEA Producer Responsibility Scheme - ALBA E-waste Recycling Programme,"SHENG SIONG @ 352 CLEMENTI 352 CLEMENTI AVE 2, #01-91 120352",Bin collection; E-waste accepted: Batteries and Lamps only,https://alba-ewaste.sg
1.33901374674055,103.855259169197,0,Point,kml_562,NEA Producer Responsibility Scheme - ALBA E-waste Recycling Programme,"SHENG SIONG @ 4 LOR 7 TOA PAYOH 4 LORONG 7 TOA PAYOH, #01-107 310004",Bin collection; E-waste accepted: Batteries and Lamps only,https://alba-ewaste.sg
1.43351253531267,103.779746860418,0,Point,kml_563,NEA Producer Responsibility Scheme - ALBA E-waste Recycling Programme,"SHENG SIONG @ 4 WOODLANDS 4 WOODLANDS STREET 12, #02-61 738623",Bin collection; E-waste accepted: Batteries and Lamps only,https://alba-ewaste.sg
1.34581334979124,103.947687828353,0,Point,kml_564,NEA Producer Responsibility Scheme - ALBA E-waste Recycling Programme,"TAMPINES CHANGKAT CC 13 TAMPINES STREET 11, MAIN ENTRANCE 529453","Bin collection; E-waste accepted: ICT equipment, Batteries and Lamps only",https://alba-ewaste.sg
1.35001074244709,103.952816059629,0,Point,kml_565,NEA Producer Responsibility Scheme - ALBA E-waste Recycling Programme,"TAMPINES CHANGKAT ZONE 4 RN 285 TAMPINES STREET 22, TAMPINES CHANGKAT ZONE 4 RC, VOID DECK 520285","Bin collection; E-waste accepted: ICT equipment, Batteries and Lamps only",https://alba-ewaste.sg
1.34518428887267,103.949793325085,0,Point,kml_566,NEA Producer Responsibility Scheme - ALBA E-waste Recycling Programme,"TAMPINES CHANGKAT ZONE 5 RN 124 TAMPINES STREET 11, TAMPINES CHANGKAT ZONE 5 RC, VOID DECK 521124","Bin collection; E-waste accepted: ICT equipment, Batteries and Lamps only",https://alba-ewaste.sg
1.35720282133909,103.960139490178,0,Point,kml_567,NEA Producer Responsibility Scheme - ALBA E-waste Recycling Programme,"TAMPINES CHANGKAT ZONE 8 RN 364 TAMPINES STREET 34, TAMPINES CHANGKAT ZONE 8 RC, VOID DECK 520364","Bin collection; E-waste accepted: ICT equipment, Batteries and Lamps only",https://alba-ewaste.sg
1.35670606459268,103.933499178815,0,Point,kml_568,NEA Producer Responsibility Scheme - ALBA E-waste Recycling Programme,"TAMPINES COURTVIEW RC 730 TAMPINES STREET 71, TAMPINES COURTVIEW RC, VOID DECK 520730","Bin collection; E-waste accepted: ICT equipment, Batteries and Lamps only",https://alba-ewaste.sg
1.35634082175687,103.94865019693,0,Point,kml_569,NEA Producer Responsibility Scheme - ALBA E-waste Recycling Programme,"TAMPINES EAST ZONE 3 RN 232 TAMPINES STREET 21, #01-639, VOID DECK 521232","Bin collection; E-waste accepted: ICT equipment, Batteries and Lamps only",https://alba-ewaste.sg
1.35904159830512,103.934383357746,0,Point,kml_570,NEA Producer Responsibility Scheme - ALBA E-waste Recycling Programme,"TAMPINES GREENVALE RC 736 TAMPINES STREET 72, TAMPINES GREENVALE RC, VOID DECK 520736","Bin collection; E-waste accepted: ICT equipment, Batteries and Lamps only",https://alba-ewaste.sg
1.35729040056381,103.946655025651,0,Point,kml_571,NEA Producer Responsibility Scheme - ALBA E-waste Recycling Programme,"TAMPINES NORTH CC 2 TAMPINES STREET 41, MAIN ENTRANCE 529204","Bin collection; E-waste accepted: ICT equipment, Batteries and Lamps only",https://alba-ewaste.sg
1.35955258107939,103.950148193585,0,Point,kml_572,NEA Producer Responsibility Scheme - ALBA E-waste Recycling Programme,"TAMPINES NORTH ZONE 3 RC 430 TAMPINES STREET 41, TAMPINES NORTH ZONE 3 RC, VOID DECK 520430","Bin collection; E-waste accepted: ICT equipment, Batteries and Lamps only",https://alba-ewaste.sg
1.35132608204772,103.931478804247,0,Point,kml_573,NEA Producer Responsibility Scheme - ALBA E-waste Recycling Programme,"TAMPINES SPRING RN 880 TAMPINES AVENUE 8, TAMPINES SPRING RN, VOID DECK 520880","Bin collection; E-waste accepted: ICT equipment, Batteries and Lamps only",https://alba-ewaste.sg
1.35173850890838,103.935952385901,0,Point,kml_574,NEA Producer Responsibility Scheme - ALBA E-waste Recycling Programme,"TAMPINES VILLE RN 842 TAMPINES STREET 82, TAMPINES VILLE RN, VOID DECK 520842","Bin collection; E-waste accepted: ICT equipment, Batteries and Lamps only",https://alba-ewaste.sg
1.27616699268746,103.841584207338,0,Point,kml_575,NEA Producer Responsibility Scheme - ALBA E-waste Recycling Programme,TANJONG PAGAR CC 101 CANTONMENT ROAD 89774,"Bin collection; E-waste accepted: ICT equipment, Batteries and Lamps only",https://alba-ewaste.sg
1.36308868460591,103.853536076665,0,Point,kml_576,NEA Producer Responsibility Scheme - ALBA E-waste Recycling Programme,"TECK GHEE CC 861 ANG MO KIO AVENUE 10, REAR ENTRANCE 569734","Bin collection; E-waste accepted: ICT equipment, Batteries and Lamps only",https://alba-ewaste.sg
1.38002919684309,103.752433018214,0,Point,kml_577,NEA Producer Responsibility Scheme - ALBA E-waste Recycling Programme,TECK WHYE LANE 146 TECK WHYE LANE 680146,"Bin collection; E-waste accepted: ICT equipment, Batteries and Lamps only",https://alba-ewaste.sg
1.27484428097785,103.807888578677,0,Point,kml_578,NEA Producer Responsibility Scheme - ALBA E-waste Recycling Programme,"TELOK BLANGAH CC 450 TELOK BLANGAH STREET 31, TELOK BLANGAH CC, RECEPTION AREA 108943","Bin collection; E-waste accepted: ICT equipment, Batteries and Lamps only",https://alba-ewaste.sg
1.34594607028051,103.932631489998,0,Point,kml_579,NEA Producer Responsibility Scheme - ALBA E-waste Recycling Programme,"TEMASEK POLYTECHHIC 21 TAMPINES AVENUE 1, TEMASEK POLYTECHHIC, MAIN ENTRANCE FOYER 529757","Bin collection; E-waste accepted: ICT equipment, Batteries and Lamps only",https://alba-ewaste.sg
1.29918373817573,103.84778978564,0,Point,kml_580,NEA Producer Responsibility Scheme - ALBA E-waste Recycling Programme,"THE CATHAY 2 HANDY RD, THE CATHAY, LOADING BAY 229233","Bin collection; E-waste accepted: ICT equipment, Batteries and Lamps only",https://alba-ewaste.sg
1.33759373267161,103.793707424428,0,Point,kml_581,NEA Producer Responsibility Scheme - ALBA E-waste Recycling Programme,"THE GRANDSTAND (TURF CITY) 200 TURF CLUB ROAD DBS THE GRANDSTAND, THE GRANDSTAND (TURF CITY), MAIN LOBBY CONCEIRGE 287994","Bin collection; E-waste accepted: ICT equipment, Batteries and Lamps only",https://alba-ewaste.sg
1.27951764599947,103.845209484759,0,Point,kml_582,NEA Producer Responsibility Scheme - ALBA E-waste Recycling Programme,THE URA CENTRE 45 MAXWELL RD 69118,"Bin collection; E-waste accepted: ICT equipment, Batteries and Lamps only",https://alba-ewaste.sg
1.35512885659476,103.831053292253,0,Point,kml_583,NEA Producer Responsibility Scheme - ALBA E-waste Recycling Programme,"THOMSON PLAZA 301 UPPER THOMSON ROAD, THOMSON PLAZA, MAIN ENTRANCE 574408","Bin collection; E-waste accepted: ICT equipment, Batteries and Lamps only",https://alba-ewaste.sg
1.33465572065284,103.850443866696,0,Point,kml_584,NEA Producer Responsibility Scheme - ALBA E-waste Recycling Programme,"TOA PAYOH CENTRAL CC 93 TOA PAYOH CENTRAL, MAIN ENTRANCE 319194","Bin collection; E-waste accepted: ICT equipment, Batteries and Lamps only",https://alba-ewaste.sg
1.3362748983945,103.85470024903,0,Point,kml_585,NEA Producer Responsibility Scheme - ALBA E-waste Recycling Programme,"TOA PAYOH EAST CC 160 LORONG 6 TOA PAYOH, MAIN ENTRANCE 319380","Bin collection; E-waste accepted: ICT equipment, Batteries and Lamps only",https://alba-ewaste.sg
1.33484780261076,103.859409471012,0,Point,kml_586,NEA Producer Responsibility Scheme - ALBA E-waste Recycling Programme,"TOA PAYOH SOUTH CC 1999 LORONG 8 TOA PAYOH, MAIN ENTRANCE 319258","Bin collection; E-waste accepted: ICT equipment, Batteries and Lamps only",https://alba-ewaste.sg
1.3397740637151,103.846522665915,0,Point,kml_587,NEA Producer Responsibility Scheme - ALBA E-waste Recycling Programme,"TOA PAYOH VIEW RC 122 LORONG 2 TOA PAYOH VIEW RC, READING CORNER 310122","Bin collection; E-waste accepted: ICT equipment, Batteries and Lamps only",https://alba-ewaste.sg
1.33543442069033,103.844961867807,0,Point,kml_588,NEA Producer Responsibility Scheme - ALBA E-waste Recycling Programme,"TOA PAYOH WEST CC 200 LORONG 2 TOA PAYOH, SIDE OF BUILDING 319642","Bin collection; E-waste accepted: ICT equipment, Batteries and Lamps only",https://alba-ewaste.sg
1.31205214996321,103.789581046901,0,Point,kml_589,NEA Producer Responsibility Scheme - ALBA E-waste Recycling Programme,"ULU PANDAN CC 170 GHIM MOH ROAD, CORRIDOR WALKWAY 279621","Bin collection; E-waste accepted: ICT equipment, Batteries and Lamps only",https://alba-ewaste.sg
1.3047948329461,103.772461624038,0,Point,kml_590,NEA Producer Responsibility Scheme - ALBA E-waste Recycling Programme,"UTOWN - STEPHEN RIADY CENTRE 2 COLLEGE AVE WEST, UTOWN - STEPHEN RIADY CENTRE, LEVEL 1 IN FRONT OF WAACOW RESTAURANT 138607","Bin collection; E-waste accepted: ICT equipment, Batteries and Lamps only",https://alba-ewaste.sg
1.43099339624118,103.79385961513,0,Point,kml_591,NEA Producer Responsibility Scheme - ALBA E-waste Recycling Programme,"VISTA POINT 548 WOODLANDS DRIVE 44, LEVEL 1 730548","Bin collection; E-waste accepted: ICT equipment, Batteries and Lamps only",https://alba-ewaste.sg
1.30264556883429,103.76483207298,0,Point,kml_592,NEA Producer Responsibility Scheme - ALBA E-waste Recycling Programme,"WEST COAST CC 2 CLEMENTI WEST STREET 2, WALKWAY CORRIDOR 129605","Bin collection; E-waste accepted: ICT equipment, Batteries and Lamps only",https://alba-ewaste.sg
1.34728364742401,103.699895865959,0,Point,kml_593,NEA Producer Responsibility Scheme - ALBA E-waste Recycling Programme,"WESTWOOD PRIMARY SCHOOL 1 JURONG WEST ST 71, SECURITY GUARD POST 642648","Bin collection; E-waste accepted: ICT equipment, Batteries and Lamps only",https://alba-ewaste.sg
1.32470128771351,103.857105337955,0,Point,kml_594,NEA Producer Responsibility Scheme - ALBA E-waste Recycling Programme,"WHAMPOA CC 300 WHAMPOA DRIVE, BESIDE CONSTITUENCY OFFICE 327737","Bin collection; E-waste accepted: ICT equipment, Batteries and Lamps only",https://alba-ewaste.sg
1.31649443358641,103.896941669701,0,Point,kml_595,NEA Producer Responsibility Scheme - ALBA E-waste Recycling Programme,"WISMA GEYLANG SERAI CC 1 ENGKU AMAN TURN, CC OFFICE ENTRANCE 408528","Bin collection; E-waste accepted: ICT equipment, Batteries and Lamps only",https://alba-ewaste.sg
1.41799926280058,103.84123645708,0,Point,kml_596,NEA Producer Responsibility Scheme - ALBA E-waste Recycling Programme,"WISTERIA MALL 598 YISHUN RING RD, WISTERIA MALL, BASEMENT 1 CARGO LIFT LOBBY 768698","Bin collection; E-waste accepted: ICT equipment, Batteries and Lamps only",https://alba-ewaste.sg
1.43181648741761,103.7851624486,0,Point,kml_597,NEA Producer Responsibility Scheme - ALBA E-waste Recycling Programme,"WOODGROVE CC 353 WOODLANDS AVENUE 1, WOODGROVE CC, VOID DECK 730353","Bin collection; E-waste accepted: ICT equipment, Batteries and Lamps only",https://alba-ewaste.sg
1.43973034856832,103.788235403019,0,Point,kml_598,NEA Producer Responsibility Scheme - ALBA E-waste Recycling Programme,"WOODLANDS CC 1 WOODLANDS STREET 81, WOODLANDS CC, MAIN ENTRANCE LOBBY 738526","Bin collection; E-waste accepted: ICT equipment, Batteries and Lamps only",https://alba-ewaste.sg
1.43904161504041,103.802610983385,0,Point,kml_599,NEA Producer Responsibility Scheme - ALBA E-waste Recycling Programme,"WOODLANDS GALAXY CC 31 WOODLANDS AVENUE 6, WOODLANDS GALAXY CC, CC OFFICE ENTRANCE 738991","Bin collection; E-waste accepted: ICT equipment, Batteries and Lamps only",https://alba-ewaste.sg
1.350092212218,103.701211185996,0,Point,kml_600,Shell-Metalo E-waste Recycling Programme for Non-regulated E-waste,SHELL JURONG WEST 21 JURONG WEST AVENUE 5 649481,"Bin collection; E-waste accepted: Non-regulated products only; E.g. Small household appliances, gaming consoles, audio systems, power supplies",https://www.facebook.com/metalosg/
1.36783749214661,103.844671565605,0,Point,kml_601,Shell-Metalo E-waste Recycling Programme for Non-regulated E-waste,SHELL ANG MO KIO 3535 ANG MO KIO AVENUE 6 569839,"Bin collection; E-waste accepted: Non-regulated products only; E.g. Small household appliances, gaming consoles, audio systems, power supplies",https://www.facebook.com/metalosg/
1.43080204992238,103.833011169563,0,Point,kml_602,Shell-Metalo E-waste Recycling Programme for Non-regulated E-waste,SHELL YISHUN 1 YISHUN STREET 11 768642,"Bin collection; E-waste accepted: Non-regulated products only; E.g. Small household appliances, gaming consoles, audio systems, power supplies",https://www.facebook.com/metalosg/
1.34762671975306,103.764888536618,0,Point,kml_603,Shell-Metalo E-waste Recycling Programme for Non-regulated E-waste,SHELL BUKIT BATOK (AVE 6) 28 BUKIT BATOK EAST AVENUE 6 659760,"Bin collection; E-waste accepted: Non-regulated products only; E.g. Small household appliances, gaming consoles, audio systems, power supplies",https://www.facebook.com/metalosg/
1.34458352593094,103.864557912045,0,Point,kml_604,Shell-Metalo E-waste Recycling Programme for Non-regulated E-waste,SHELL BRADDELL 110 BRADDELL ROAD 359914,"Bin collection; E-waste accepted: Non-regulated products only; E.g. Small household appliances, gaming consoles, audio systems, power supplies",https://www.facebook.com/metalosg/
1.34108764463634,103.848878825973,0,Point,kml_605,Shell-Metalo E-waste Recycling Programme for Non-regulated E-waste,SHELL TOA PAYOH 248 TOA PAYOH LORONG 1 319755,"Bin collection; E-waste accepted: Non-regulated products only; E.g. Small household appliances, gaming consoles, audio systems, power supplies",https://www.facebook.com/metalosg/
1.31255297266314,103.926540994196,0,Point,kml_606,Shell-Metalo E-waste Recycling Programme for Non-regulated E-waste,SHELL SIGLAP 40 UPPER EAST COAST ROAD 455212,"Bin collection; E-waste accepted: Non-regulated products only; E.g. Small household appliances, gaming consoles, audio systems, power supplies",https://www.facebook.com/metalosg/
1.31134294489212,103.843097938495,0,Point,kml_607,Shell-Metalo E-waste Recycling Programme for Non-regulated E-waste,SHELL NEWTON 150 BUKIT TIMAH ROAD 229846,"Bin collection; E-waste accepted: Non-regulated products only; E.g. Small household appliances, gaming consoles, audio systems, power supplies",https://www.facebook.com/metalosg/
1.28993690957502,103.832409397284,0,Point,kml_608,Shell-Metalo E-waste Recycling Programme for Non-regulated E-waste,SHELL HAVELOCK 548 HAVELOCK ROAD 169637,"Bin collection; E-waste accepted: Non-regulated products only; E.g. Small household appliances, gaming consoles, audio systems, power supplies",https://www.facebook.com/metalosg/
1.33178863597564,103.888725332826,0,Point,kml_609,Shell-Metalo E-waste Recycling Programme for Non-regulated E-waste,SHELL PAYA LEBAR MACPHERSON 255 PAYA LEBAR ROAD 409037,"Bin collection; E-waste accepted: Non-regulated products only; E.g. Small household appliances, gaming consoles, audio systems, power supplies",https://www.facebook.com/metalosg/
1.28848416874691,103.819631175953,0,Point,kml_610,Shell-Metalo E-waste Recycling Programme for Non-regulated E-waste,SHELL TIONG BAHRU 603 TIONG BAHRU ROAD 158788,"Bin collection; E-waste accepted: Non-regulated products only; E.g. Small household appliances, gaming consoles, audio systems, power supplies",https://www.facebook.com/metalosg/
1.36322447290969,103.867359768902,0,Point,kml_611,Shell-Metalo E-waste Recycling Programme for Non-regulated E-waste,SHELL SERANGOON GARDEN 49 SERANGOON GARDEN WAY 555944,"Bin collection; E-waste accepted: Non-regulated products only; E.g. Small household appliances, gaming consoles, audio systems, power supplies",https://www.facebook.com/metalosg/
1.40233432541484,103.895564270016,0,Point,kml_612,Virogreen NECDC E-waste Recycling Programme for Non-regulated E-waste,MATILDA RN 217C SUMANG WALK #01-212 823217,"Bin collection; E-waste accepted: Non-regulated products only; E.g. Small household appliances, gaming consoles, audio systems, power supplies",https://www.virogreen.net/
1.36835116091558,103.959369895642,0,Point,kml_613,Virogreen NECDC E-waste Recycling Programme for Non-regulated E-waste,PASIR RIS EAST CC 1 PARIS RIS DRIVE 519457,"Bin collection; E-waste accepted: Non-regulated products only; E.g. Small household appliances, gaming consoles, audio systems, power supplies",https://www.virogreen.net/
1.39353867937052,103.91359511728,0,Point,kml_614,Virogreen NECDC E-waste Recycling Programme for Non-regulated E-waste,PUNGGOL 21 COMMUNITY CLUB 80 PUNGGOL FIELD #01-01 828815,"Bin collection; E-waste accepted: Non-regulated products only; E.g. Small household appliances, gaming consoles, audio systems, power supplies",https://www.virogreen.net/
1.40889812588519,103.898297206583,0,Point,kml_615,Virogreen NECDC E-waste Recycling Programme for Non-regulated E-waste,PUNGGOL CASCADIA RN 316A PUNGGOL WAY #01-733 821316,"Bin collection; E-waste accepted: Non-regulated products only; E.g. Small household appliances, gaming consoles, audio systems, power supplies",https://www.virogreen.net/
1.4090372985693,103.897772279779,0,Point,kml_616,Virogreen NECDC E-waste Recycling Programme for Non-regulated E-waste,PUNGGOL CASCADIA RN PRESCIENT 316B PUNGGOL WAY LEVEL 1 COSY AREA 821316,"Bin collection; E-waste accepted: Non-regulated products only; E.g. Small household appliances, gaming consoles, audio systems, power supplies",https://www.virogreen.net/
1.39383731126135,103.911121990384,0,Point,kml_617,Virogreen NECDC E-waste Recycling Programme for Non-regulated E-waste,PUNGGOL CORAL RC 126D EDGEDALE PLAINS #01-324 824126,"Bin collection; E-waste accepted: Non-regulated products only; E.g. Small household appliances, gaming consoles, audio systems, power supplies",https://www.virogreen.net/
1.40346482329045,103.906030194445,0,Point,kml_618,Virogreen NECDC E-waste Recycling Programme for Non-regulated E-waste,PUNGGOL CORAL TREE RN 301C PUNGGOL CENTRAL #01-745 823301,"Bin collection; E-waste accepted: Non-regulated products only; E.g. Small household appliances, gaming consoles, audio systems, power supplies",https://www.virogreen.net/
1.39834014439655,103.906613263673,0,Point,kml_619,Virogreen NECDC E-waste Recycling Programme for Non-regulated E-waste,PUNGGOL COVE RC 101C PUNGGOL FIELD #01-464 823101,"Bin collection; E-waste accepted: Non-regulated products only; E.g. Small household appliances, gaming consoles, audio systems, power supplies",https://www.virogreen.net/
1.3999909623717,103.900946197921,0,Point,kml_620,Virogreen NECDC E-waste Recycling Programme for Non-regulated E-waste,PUNGGOL CRESAILS RN 209B PUNGGOL PLACE #01-1288 822209,"Bin collection; E-waste accepted: Non-regulated products only; E.g. Small household appliances, gaming consoles, audio systems, power supplies",https://www.virogreen.net/
1.3957999021035,103.914901125134,0,Point,kml_621,Virogreen NECDC E-waste Recycling Programme for Non-regulated E-waste,PUNGGOL GARDENS RC 163A PUNGGOL CENTRAL#01-177 821163,"Bin collection; E-waste accepted: Non-regulated products only; E.g. Small household appliances, gaming consoles, audio systems, power supplies",https://www.virogreen.net/
1.40275664012405,103.901514462397,0,Point,kml_622,Virogreen NECDC E-waste Recycling Programme for Non-regulated E-waste,PUNGGOL GEMS RN 273D PUNGGOL PLACE #01-888 824273,"Bin collection; E-waste accepted: Non-regulated products only; E.g. Small household appliances, gaming consoles, audio systems, power supplies",https://www.virogreen.net/
1.39852494543696,103.908886616717,0,Point,kml_623,Virogreen NECDC E-waste Recycling Programme for Non-regulated E-waste,PUNGGOL HORIZON RC 622C PUNGGOL CENTRAL #01-288 823622,"Bin collection; E-waste accepted: Non-regulated products only; E.g. Small household appliances, gaming consoles, audio systems, power supplies",https://www.virogreen.net/
1.403001025042,103.915713197755,0,Point,kml_624,Virogreen NECDC E-waste Recycling Programme for Non-regulated E-waste,PUNGGOL LINK RN 684A EDGEDALE PLAINS #01-617 821684,"Bin collection; E-waste accepted: Non-regulated products only; E.g. Small household appliances, gaming consoles, audio systems, power supplies",https://www.virogreen.net/
1.39930061383833,103.915986845308,0,Point,kml_625,Virogreen NECDC E-waste Recycling Programme for Non-regulated E-waste,PUNGGOL MEADOWS RC 642D PUNGGOL DRIVE #01-373 822672,"Bin collection; E-waste accepted: Non-regulated products only; E.g. Small household appliances, gaming consoles, audio systems, power supplies",https://www.virogreen.net/
1.39567192458375,103.907524054701,0,Point,kml_626,Virogreen NECDC E-waste Recycling Programme for Non-regulated E-waste,PUNGGOL MERIDIAN RC 114 EDGEFIELD PLAINS #01-358 820114,"Bin collection; E-waste accepted: Non-regulated products only; E.g. Small household appliances, gaming consoles, audio systems, power supplies",https://www.virogreen.net/
1.39737325210157,103.908922646207,0,Point,kml_627,Virogreen NECDC E-waste Recycling Programme for Non-regulated E-waste,PUNGGOL OASIS RC 175A PUNGGOL FIELD #01-569 821175,"Bin collection; E-waste accepted: Non-regulated products only; E.g. Small household appliances, gaming consoles, audio systems, power supplies",https://www.virogreen.net/
1.40154415124192,103.90619514531,0,Point,kml_628,Virogreen NECDC E-waste Recycling Programme for Non-regulated E-waste,PUNGGOL PERIWINKLE RC 195B PUNGGOL ROAD #01-516 822195,"Bin collection; E-waste accepted: Non-regulated products only; E.g. Small household appliances, gaming consoles, audio systems, power supplies",https://www.virogreen.net/
1.40102823657579,103.899015040306,0,Point,kml_629,Virogreen NECDC E-waste Recycling Programme for Non-regulated E-waste,PUNGGOL SEAS RN 211C PUNGGOL WALK #01-645 823211,"Bin collection; E-waste accepted: Non-regulated products only; E.g. Small household appliances, gaming consoles, audio systems, power supplies",https://www.virogreen.net/
1.40049998797562,103.916934521806,0,Point,kml_630,Virogreen NECDC E-waste Recycling Programme for Non-regulated E-waste,PUNGGOL SUNCRESS RC 663B PUNGGOL DRIVE #01-248 822663,"Bin collection; E-waste accepted: Non-regulated products only; E.g. Small household appliances, gaming consoles, audio systems, power supplies",https://www.virogreen.net/
1.35824282535948,103.947479455107,0,Point,kml_631,Virogreen NECDC E-waste Recycling Programme for Non-regulated E-waste,TAMPINES NORTH ZONE 5 RC 480 TAMPINES STREET 44 520480,"Bin collection; E-waste accepted: Non-regulated products only; E.g. Small household appliances, gaming consoles, audio systems, power supplies",https://www.facebook.com/metalosg/
1.29066104599979,103.806843695278,0,Point,kml_632,Shell-Metalo E-waste Recycling Programme for Non-regulated E-waste,SHELL ALEXANDRA 358 ALEXANDRA ROAD 159950,"Bin collection; E-waste accepted: Non-regulated products only; E.g. Small household appliances, gaming consoles, audio systems, power supplies",https://www.facebook.com/metalosg/
1.35022742320362,103.738433115564,0,Point,kml_633,Shell-Metalo E-waste Recycling Programme for Non-regulated E-waste,SHELL BUKIT BATOK (AVE 3) 11 BUKIT BATOK WEST AVENUE 3 659166,"Bin collection; E-waste accepted: Non-regulated products only; E.g. Small household appliances, gaming consoles, audio systems, power supplies",https://www.facebook.com/metalosg/
1.38560551852517,103.746481837448,0,Point,kml_634,Shell-Metalo E-waste Recycling Programme for Non-regulated E-waste,SHELL CHOA CHU KANG 20 CHOA CHU KANG DRIVE 689717,"Bin collection; E-waste accepted: Non-regulated products only; E.g. Small household appliances, gaming consoles, audio systems, power supplies",https://www.facebook.com/metalosg/
1.30821182282028,103.909783037684,0,Point,kml_635,Shell-Metalo E-waste Recycling Programme for Non-regulated E-waste,SHELL EAST COAST 338 EAST COAST ROAD 428961,"Bin collection; E-waste accepted: Non-regulated products only; E.g. Small household appliances, gaming consoles, audio systems, power supplies",https://www.facebook.com/metalosg/
1.43832533317212,103.775415745236,0,Point,kml_636,Shell-Metalo E-waste Recycling Programme for Non-regulated E-waste,SHELL MARSILING 10 MARSILING ROAD 739109,"Bin collection; E-waste accepted: Non-regulated products only; E.g. Small household appliances, gaming consoles, audio systems, power supplies",https://www.facebook.com/metalosg/
1.36579413360965,103.967222284047,0,Point,kml_637,Shell-Metalo E-waste Recycling Programme for Non-regulated E-waste,SHELL PASIR RIS 1 NEW LOYANG LINK 506931,"Bin collection; E-waste accepted: Non-regulated products only; E.g. Small household appliances, gaming consoles, audio systems, power supplies",https://www.facebook.com/metalosg/
1.32175498895285,103.891649083389,0,Point,kml_638,Shell-Metalo E-waste Recycling Programme for Non-regulated E-waste,SHELL PAYA LEBAR 98 PAYA LEBAR ROAD 409008,"Bin collection; E-waste accepted: Non-regulated products only; E.g. Small household appliances, gaming consoles, audio systems, power supplies",https://www.facebook.com/metalosg/
1.34400340900883,103.707710354808,0,Point,kml_639,Shell-Metalo E-waste Recycling Programme for Non-regulated E-waste,SHELL BOON LAY 2 BOON LAY AVENUE 649960,"Bin collection; E-waste accepted: Non-regulated products only; E.g. Small household appliances, gaming consoles, audio systems, power supplies",https://www.facebook.com/metalosg/
1.3492087748244,103.947630246967,0,Point,kml_640,Shell-Metalo E-waste Recycling Programme for Non-regulated E-waste,SHELL TAMPINES 9 TAMPINES AVENUE 2 529731,"Bin collection; E-waste accepted: Non-regulated products only; E.g. Small household appliances, gaming consoles, audio systems, power supplies",https://www.facebook.com/metalosg/
1.3241915067511,103.842166354644,0,Point,kml_641,Shell-Metalo E-waste Recycling Programme for Non-regulated E-waste,SHELL THOMSON 324 THOMSON ROAD 307672,"Bin collection; E-waste accepted: Non-regulated products only; E.g. Small household appliances, gaming consoles, audio systems, power supplies",https://www.facebook.com/metalosg/
1.44432926679854,103.790059163939,0,Point,kml_642,Shell-Metalo E-waste Recycling Programme for Non-regulated E-waste,SHELL WOODLANDS 20 WOODLANDS AVENUE 9 738954,"Bin collection; E-waste accepted: Non-regulated products only; E.g. Small household appliances, gaming consoles, audio systems, power supplies",https://www.facebook.com/metalosg/
1.33089001822919,103.947576316653,0,Point,kml_643,Shell-Metalo E-waste Recycling Programme for Non-regulated E-waste,SHELL SIMPANG BEDOK 331 BEDOK ROAD 469504,"Bin collection; E-waste accepted: Non-regulated products only; E.g. Small household appliances, gaming consoles, audio systems, power supplies",https://www.facebook.com/metalosg/
